address1;address2;city;state;postcode;country
走马岭街道, 东西湖区, 武汉市, 湖北省, China 中国;武汉市;关东街道;湖北省;430050;China 中国
新洲区, 武汉市, 湖北省, China 中国;武汉市;新洲区;湖北省;430050;China 中国
纸贺线, 乌龙泉街, 江夏区, 武汉市, 湖北省, China 中国;武汉市;关东街道;湖北省;430050;China 中国
天河街, 黄陂区, 武汉市, 湖北省, China 中国;武汉市;关东街道;湖北省;430050;China 中国
仓埠街, 新洲区, 武汉市, 湖北省, China 中国;武汉市;关东街道;湖北省;430050;China 中国
索河镇, 蔡甸区, 武汉市, 湖北省, China 中国;武汉市;关东街道;湖北省;430050;China 中国
金港新区, 江夏区, 武汉市, 湖北省, China 中国;武汉市;关东街道;湖北省;430050;China 中国
和平街道, 洪山区, 武汉市, 湖北省, 430080, China 中国;武汉市;和平街道;湖北省;430080;China 中国
齐安大道, 新洲区, 武汉市, 湖北省, China 中国;武汉市;新洲区;湖北省;430050;China 中国
江夏区, 武汉市, 湖北省, 430073, China 中国;武汉市;关东街道;湖北省;430073;China 中国
法泗街, 江夏区, 武汉市, 湖北省, China 中国;武汉市;关东街道;湖北省;430050;China 中国
武汉绕城高速公路, 江夏区, 五里界街, 江夏区, 武汉市, 湖北省, China 中国;武汉市;关东街道;湖北省;430050;China 中国
x009, 法泗街, 江夏区, 武汉市, 湖北省, China 中国;武汉市;关东街道;湖北省;430050;China 中国
五里界街, 江夏区, 武汉市, 湖北省, China 中国;武汉市;关东街道;湖北省;430050;China 中国
李家集街道, 黄陂区, 武汉市, 湖北省, China 中国;武汉市;关东街道;湖北省;430050;China 中国
江堤街道, 武汉经济技术开发区（托管）, 汉阳区, 武汉市, 湖北省, 430056, China 中国;武汉市;江堤街道;湖北省;430056;China 中国
乌龙泉街, 江夏区, 武汉市, 湖北省, China 中国;武汉市;关东街道;湖北省;430050;China 中国
天河街, 黄陂区, 武汉市, 湖北省, China 中国;武汉市;关东街道;湖北省;430050;China 中国
辛安渡办事处, 东西湖区, 武汉市, 湖北省, China 中国;武汉市;辛安渡办事处;湖北省;430050;China 中国
蔡甸区, 武汉市, 湖北省, 430100, China 中国;武汉市;蔡甸区;湖北省;430100;China 中国
大广高速, 新洲区, 武汉市, 湖北省, China 中国;武汉市;新洲区;湖北省;430050;China 中国
五里界街, 江夏区, 武汉市, 湖北省, China 中国;武汉市;关东街道;湖北省;430050;China 中国
奓山街, 蔡甸区, 武汉市, 湖北省, China 中国;武汉市;关东街道;湖北省;430050;China 中国
关东街道, 东湖新技术开发区（托管）, 江夏区, 武汉市, 湖北省, China 中国;武汉市;关东街道;湖北省;430050;China 中国
湖泗街道, 江夏区, 武汉市, 湖北省, China 中国;武汉市;湖泗街道;湖北省;430050;China 中国
楼子湾, 黄陂区, 武汉市, 湖北省, China 中国;武汉市;关东街道;湖北省;430050;China 中国
蔡甸区, 武汉市, 湖北省, China 中国;武汉市;蔡甸区;湖北省;430050;China 中国
涨渡湖街, 新洲区, 武汉市, 湖北省, China 中国;武汉市;关东街道;湖北省;430050;China 中国
双柳街, 新洲区, 武汉市, 湖北省, China 中国;武汉市;关东街道;湖北省;430050;China 中国
木兰乡, 黄陂区, 武汉市, 湖北省, China 中国;武汉市;关东街道;湖北省;430050;China 中国
黄陂区, 武汉市, 湖北省, China 中国;武汉市;关东街道;湖北省;430050;China 中国
蔡家榨街道, 黄陂区, 武汉市, 湖北省, China 中国;武汉市;关东街道;湖北省;430050;China 中国
新洲区, 武汉市, 湖北省, China 中国;武汉市;新洲区;湖北省;430050;China 中国
惠安大道, 辛安渡办事处, 东西湖区, 武汉市, 湖北省, China 中国;武汉市;关东街道;湖北省;430050;China 中国
李集街, 新洲区, 武汉市, 湖北省, China 中国;武汉市;关东街道;湖北省;430050;China 中国
金口街, 江夏区, 武汉市, 湖北省, China 中国;武汉市;关东街道;湖北省;430050;China 中国
蔡店街道, 黄陂区, 武汉市, 湖北省, China 中国;武汉市;关东街道;湖北省;430050;China 中国
黄陂区, 武汉市, 湖北省, China 中国;武汉市;黄陂区;湖北省;430050;China 中国
横店街道, 黄陂区, 武汉市, 湖北省, China 中国;武汉市;关东街道;湖北省;430050;China 中国
木兰乡, 黄陂区, 武汉市, 湖北省, China 中国;武汉市;关东街道;湖北省;430050;China 中国
姚家集街道, 黄陂区, 武汉市, 湖北省, China 中国;武汉市;关东街道;湖北省;430050;China 中国
硃山湖大道, 常福新城, 蔡甸区, 武汉市, 湖北省, China 中国;武汉市;关东街道;湖北省;430050;China 中国
X030, 银莲社区, 湘口街道, 汉南区, 武汉市, 湖北省, China 中国;武汉市;关东街道;湖北省;430050;China 中国
大冶市, 黄石市, 湖北省, China 中国;武汉市;黄石市;湖北省;430050;China 中国
军山街道, 武汉经济技术开发区（托管）, 蔡甸区, 武汉市, 湖北省, China 中国;武汉市;军山街道;湖北省;430050;China 中国
三店街, 新洲区, 武汉市, 湖北省, China 中国;武汉市;关东街道;湖北省;430050;China 中国
汪集街, 新洲区, 武汉市, 湖北省, China 中国;武汉市;关东街道;湖北省;430050;China 中国
X018, 洪北管委会, 蔡甸区, 武汉市, 湖北省, China 中国;武汉市;关东街道;湖北省;430050;China 中国
祁家湾街道, 黄陂区, 武汉市, 湖北省, China 中国;武汉市;关东街道;湖北省;430050;China 中国
百曲公路, 消泗乡, 蔡甸区, 武汉市, 湖北省, China 中国;武汉市;关东街道;湖北省;430050;China 中国
惠安大道, 慈惠街道, 东西湖区, 武汉市, 湖北省, 430101, China 中国;武汉市;慈惠街道;湖北省;430101;China 中国
武湖街道, 黄陂区, 武汉市, 湖北省, China 中国;武汉市;关东街道;湖北省;430050;China 中国
新洲区, 武汉市, 湖北省, China 中国;武汉市;新洲区;湖北省;430050;China 中国
仓埠街, 新洲区, 武汉市, 湖北省, China 中国;武汉市;关东街道;湖北省;430050;China 中国
柏银路, 金银湖街道, 东西湖区, 武汉市, 湖北省, China 中国;武汉市;金银湖街道;湖北省;430050;China 中国
玉贤镇, 蔡甸区, 武汉市, 湖北省, China 中国;武汉市;关东街道;湖北省;430050;China 中国
乌龙泉街, 江夏区, 武汉市, 湖北省, China 中国;武汉市;关东街道;湖北省;430050;China 中国
湖泗街道, 江夏区, 武汉市, 湖北省, China 中国;武汉市;关东街道;湖北省;430050;China 中国
安山街, 江夏区, 武汉市, 湖北省, China 中国;武汉市;关东街道;湖北省;430050;China 中国
大潭原种场, 黄陂区, 武汉市, 湖北省, China 中国;武汉市;关东街道;湖北省;430050;China 中国
清潭湖街道, 武汉化学工业新区（托管）, 洪山区, 武汉市, 湖北省, China 中国;武汉市;清潭湖街道;湖北省;430050;China 中国
汉南区, 武汉市, 湖北省, China 中国;武汉市;汉南区;湖北省;430050;China 中国
武汉绕城高速公路, 黄陂区, 武汉市, 湖北省, China 中国;武汉市;黄陂区;湖北省;430050;China 中国
汉施公路, 武湖街道, 黄陂区, 武汉市, 湖北省, China 中国;武汉市;关东街道;湖北省;430050;China 中国
舒安街道, 江夏区, 武汉市, 湖北省, China 中国;武汉市;关东街道;湖北省;430050;China 中国
李家集街道, 黄陂区, 武汉市, 湖北省, China 中国;武汉市;关东街道;湖北省;430050;China 中国
楼子湾, 黄陂区, 武汉市, 湖北省, China 中国;武汉市;关东街道;湖北省;430050;China 中国
湘口街道, 汉南区, 武汉市, 湖北省, China 中国;武汉市;关东街道;湖北省;430050;China 中国
乌龙泉街, 江夏区, 武汉市, 湖北省, China 中国;武汉市;关东街道;湖北省;430050;China 中国
洪北管委会, 蔡甸区, 武汉市, 湖北省, China 中国;武汉市;关东街道;湖北省;430050;China 中国
China Rehabilitation Education Center of Disabled Children, 80, 汉江大道, 月湖街道, 汉阳区, 武汉市, 湖北省, 430050, China 中国;武汉市;月湖街道;湖北省;430050;China 中国
六指街道, 黄陂区, 武汉市, 湖北省, China 中国;武汉市;关东街道;湖北省;430050;China 中国
蔡甸区, 武汉市, 湖北省, China 中国;武汉市;关东街道;湖北省;430050;China 中国
汉施公路, 武湖街道, 黄陂区, 武汉市, 湖北省, China 中国;武汉市;关东街道;湖北省;430050;China 中国
洪北管委会, 蔡甸区, 武汉市, 湖北省, China 中国;武汉市;关东街道;湖北省;430050;China 中国
新沟镇街道, 东西湖区, 武汉市, 湖北省, China 中国;武汉市;关东街道;湖北省;430050;China 中国
黄陂区, 武汉市, 湖北省, China 中国;武汉市;黄陂区;湖北省;430050;China 中国
S109, 新洲区, 武汉市, 湖北省, China 中国;武汉市;关东街道;湖北省;430050;China 中国
东荆街, 汉南区, 武汉市, 湖北省, China 中国;武汉市;关东街道;湖北省;430050;China 中国
五大路, 大屋陈集镇, 滨湖街道, 东湖新技术开发区（托管）, 江夏区, 武汉市, 湖北省, China 中国;武汉市;滨湖街道;湖北省;430050;China 中国
京港澳高速公路, 东山办事处, 东西湖区, 武汉市, 湖北省, China 中国;武汉市;关东街道;湖北省;430050;China 中国
祁家湾街道, 黄陂区, 武汉市, 湖北省, China 中国;武汉市;关东街道;湖北省;430050;China 中国
楼子湾, 黄陂区, 武汉市, 湖北省, 420112, China 中国;武汉市;关东街道;湖北省;420112;China 中国
军山街道, 武汉经济技术开发区（托管）, 蔡甸区, 武汉市, 湖北省, China 中国;武汉市;军山街道;湖北省;430050;China 中国
X008, 湖泗街道, 江夏区, 武汉市, 湖北省, China 中国;武汉市;关东街道;湖北省;430050;China 中国
沌口街道, 武汉经济技术开发区（托管）, 蔡甸区, 武汉市, 湖北省, 430056, China 中国;武汉市;沌口街道;湖北省;430056;China 中国
罗中线, 张家冲, 黄陂区, 武汉市, 湖北省, China 中国;武汉市;黄陂区;湖北省;430050;China 中国
京港澳高速公路, 东西湖区, 武汉市, 湖北省, China 中国;武汉市;东西湖区;湖北省;430050;China 中国
百曲公路, 消泗乡, 蔡甸区, 武汉市, 湖北省, China 中国;武汉市;关东街道;湖北省;430050;China 中国
李集街, 新洲区, 武汉市, 湖北省, China 中国;武汉市;关东街道;湖北省;430050;China 中国
辛安渡办事处, 东西湖区, 武汉市, 湖北省, China 中国;武汉市;辛安渡办事处;湖北省;430050;China 中国
邾城街, 新洲区, 武汉市, 湖北省, China 中国;武汉市;关东街道;湖北省;430050;China 中国
姚家集街道, 黄陂区, 武汉市, 湖北省, China 中国;武汉市;关东街道;湖北省;430050;China 中国
青菱街道, 洪山区, 武汉市, 湖北省, 460065, China 中国;武汉市;青菱街道;湖北省;460065;China 中国
新洲区, 武汉市, 湖北省, China 中国;武汉市;新洲区;湖北省;430050;China 中国
S314, 湖泗街道, 江夏区, 黄石市, 湖北省, China 中国;武汉市;黄石市;湖北省;430050;China 中国
山坡街道, 江夏区, 武汉市, 湖北省, China 中国;武汉市;关东街道;湖北省;430050;China 中国
S5G42S, 汪集街, 新洲区, 武汉市, 湖北省, China 中国;武汉市;关东街道;湖北省;430050;China 中国
新洲区, 武汉市, 湖北省, China 中国;武汉市;关东街道;湖北省;430050;China 中国
蔡店街道, 黄陂区, 武汉市, 湖北省, China 中国;武汉市;关东街道;湖北省;430050;China 中国
木兰大道, 张家冲, 黄陂区, 武汉市, 湖北省, China 中国;武汉市;黄陂区;湖北省;430050;China 中国
新洲区, 武汉市, 湖北省, China 中国;武汉市;关东街道;湖北省;430050;China 中国
径河街道 (Jinghe), 东西湖区, 武汉市, 湖北省, China 中国;武汉市;径河街道 (Jinghe);湖北省;430050;China 中国
大学园路, 关东街道, 东湖新技术开发区（托管）, 江夏区, 武汉市, 湖北省, China 中国;武汉市;关东街道;湖北省;430050;China 中国
纸贺线, 乌龙泉街, 江夏区, 武汉市, 湖北省, China 中国;武汉市;关东街道;湖北省;430050;China 中国
黄陂区, 武汉市, 湖北省, China 中国;武汉市;黄陂区;湖北省;430050;China 中国
新洲原种场, 新洲区, 武汉市, 湖北省, China 中国;武汉市;关东街道;湖北省;430050;China 中国
金港新区, 江夏区, 武汉市, 湖北省, China 中国;武汉市;关东街道;湖北省;430050;China 中国
惠安大道, 慈惠街道, 东西湖区, 武汉市, 湖北省, 430101, China 中国;武汉市;慈惠街道;湖北省;430101;China 中国
花山街道, 东湖新技术开发区（托管）, 洪山区, 武汉市, 湖北省, 430075, China 中国;武汉市;花山街道;湖北省;430075;China 中国
徐古街道, 新洲区, 武汉市, 湖北省, China 中国;武汉市;关东街道;湖北省;430050;China 中国
沪蓉高速公路, 东西湖区, 武汉市, 湖北省, China 中国;武汉市;东西湖区;湖北省;430050;China 中国
青山镇街道, 青山区, 武汉市, 湖北省, China 中国;武汉市;青山镇街道;湖北省;430050;China 中国
后官胡大道, 沌口街道, 武汉经济技术开发区（托管）, 蔡甸区, 武汉市, 湖北省, China 中国;武汉市;沌口街道;湖北省;430050;China 中国
四新管委会, 汉阳区, 武汉市, 湖北省, 430050, China 中国;武汉市;四新管委会;湖北省;430050;China 中国
新洲区, 武汉市, 湖北省, China 中国;武汉市;关东街道;湖北省;430050;China 中国
八吉府街道, 武汉化学工业新区（托管）, 洪山区, 武汉市, 湖北省, China 中国;武汉市;八吉府街道;湖北省;430050;China 中国
八吉府街道, 武汉化学工业新区（托管）, 青山区, 武汉市, 湖北省, China 中国;武汉市;八吉府街道;湖北省;430050;China 中国
S310, 鲁台, 黄陂区, 武汉市, 湖北省, China 中国;武汉市;黄陂区;湖北省;430050;China 中国
山湖路, 江夏区, 武汉市, 湖北省, China 中国;武汉市;江夏区;湖北省;430050;China 中国
吴泗村, 江夏区, 武汉市, 湖北省, China 中国;武汉市;关东街道;湖北省;430050;China 中国
百曲公路, 消泗乡, 蔡甸区, 武汉市, 湖北省, China 中国;武汉市;关东街道;湖北省;430050;China 中国
三店街, 新洲区, 武汉市, 湖北省, China 中国;武汉市;关东街道;湖北省;430050;China 中国
孝昌县, 孝感市, 湖北省, China 中国;武汉市;关东街道;湖北省;430050;China 中国
索河镇, 蔡甸区, 武汉市, 湖北省, China 中国;武汉市;关东街道;湖北省;430050;China 中国
永丰街道, 汉阳区, 武汉市, 湖北省, China 中国;武汉市;永丰街道;湖北省;430050;China 中国
玉贤镇, 蔡甸区, 武汉市, 湖北省, China 中国;武汉市;关东街道;湖北省;430050;China 中国
蔡店街道, 黄陂区, 武汉市, 湖北省, China 中国;武汉市;关东街道;湖北省;430050;China 中国
东湖生态旅游风景区（托管）, 洪山区, 武汉市, 湖北省, China 中国;武汉市;关东街道;湖北省;430050;China 中国
武湖街道, 黄陂区, 武汉市, 湖北省, China 中国;武汉市;关东街道;湖北省;430050;China 中国
汉南区, 武汉市, 湖北省, China 中国;武汉市;汉南区;湖北省;430050;China 中国
新洲原种场, 新洲区, 武汉市, 湖北省, China 中国;武汉市;关东街道;湖北省;430050;China 中国
永安街, 蔡甸区, 武汉市, 湖北省, China 中国;武汉市;关东街道;湖北省;430050;China 中国
平江大道, 阳逻街, 新洲区, 武汉市, 湖北省, China 中国;武汉市;关东街道;湖北省;430050;China 中国
楼子湾, 黄陂区, 武汉市, 湖北省, China 中国;武汉市;关东街道;湖北省;430050;China 中国
黄孝河路, 花桥街道, 江岸区, 武汉市, 湖北省, 430015, China 中国;武汉市;花桥街道;湖北省;430015;China 中国
东湖生态旅游风景区（托管）, 洪山区, 武汉市, 湖北省, 430074, China 中国;武汉市;关东街道;湖北省;430074;China 中国
九峰街道, 东湖新技术开发区（托管）, 洪山区, 武汉市, 湖北省, 430075, China 中国;武汉市;关东街道;湖北省;430075;China 中国
S109, 阳逻街, 新洲区, 武汉市, 湖北省, China 中国;武汉市;关东街道;湖北省;430050;China 中国
柏银路, 金银湖街道, 东西湖区, 武汉市, 湖北省, China 中国;武汉市;金银湖街道;湖北省;430050;China 中国
李集街, 新洲区, 武汉市, 湖北省, China 中国;武汉市;关东街道;湖北省;430050;China 中国
湖泗街道, 江夏区, 武汉市, 湖北省, China 中国;武汉市;湖泗街道;湖北省;430050;China 中国
祁家湾街道, 黄陂区, 武汉市, 湖北省, China 中国;武汉市;关东街道;湖北省;430050;China 中国
舒安街道, 江夏区, 武汉市, 湖北省, China 中国;武汉市;关东街道;湖北省;430050;China 中国
楼子湾, 黄陂区, 武汉市, 湖北省, China 中国;武汉市;关东街道;湖北省;430050;China 中国
湖泗街道, 江夏区, 武汉市, 湖北省, China 中国;武汉市;湖泗街道;湖北省;430050;China 中国
李家集街道, 黄陂区, 武汉市, 湖北省, China 中国;武汉市;关东街道;湖北省;430050;China 中国
八吉府街道, 武汉化学工业新区（托管）, 洪山区, 武汉市, 湖北省, China 中国;武汉市;八吉府街道;湖北省;430050;China 中国
京港澳高速公路, 东西湖区, 武汉市, 湖北省, China 中国;武汉市;东西湖区;湖北省;430050;China 中国
S310, 鲁台, 黄陂区, 武汉市, 湖北省, China 中国;武汉市;黄陂区;湖北省;430050;China 中国
金台, 汉施公路, 新洲区, 武汉市, 湖北省, China 中国;武汉市;新洲区;湖北省;430050;China 中国
黄陂区, 武汉市, 湖北省, China 中国;武汉市;黄陂区;湖北省;430050;China 中国
东西湖区, 武汉市, 湖北省, China 中国;武汉市;东西湖区;湖北省;430050;China 中国
徐古街道, 新洲区, 武汉市, 湖北省, China 中国;武汉市;关东街道;湖北省;430050;China 中国
洪北管委会, 蔡甸区, 武汉市, 湖北省, China 中国;武汉市;关东街道;湖北省;430050;China 中国
祁家湾街道, 黄陂区, 武汉市, 湖北省, China 中国;武汉市;关东街道;湖北省;430050;China 中国
慈惠街道, 东西湖区, 武汉市, 湖北省, 430101, China 中国;武汉市;慈惠街道;湖北省;430101;China 中国
武湖街道, 黄陂区, 武汉市, 湖北省, China 中国;武汉市;关东街道;湖北省;430050;China 中国
潘塘街, 新洲区, 武汉市, 湖北省, China 中国;武汉市;关东街道;湖北省;430050;China 中国
汪集街, 新洲区, 武汉市, 湖北省, China 中国;武汉市;关东街道;湖北省;430050;China 中国
蔡店街道, 黄陂区, 武汉市, 湖北省, China 中国;武汉市;关东街道;湖北省;430050;China 中国
滨湖街道, 东湖新技术开发区（托管）, 江夏区, 武汉市, 湖北省, China 中国;武汉市;滨湖街道;湖北省;430050;China 中国
辛冲镇, 新洲区, 武汉市, 湖北省, China 中国;武汉市;关东街道;湖北省;430050;China 中国
武钢集团, 厂前街道, 青山区, 武汉市, 湖北省, China 中国;武汉市;厂前街道;湖北省;430050;China 中国
李家集街道, 黄陂区, 武汉市, 湖北省, China 中国;武汉市;关东街道;湖北省;430050;China 中国
祁家湾街道, 黄陂区, 武汉市, 湖北省, China 中国;武汉市;关东街道;湖北省;430050;China 中国
蔡店街道, 黄陂区, 武汉市, 湖北省, China 中国;武汉市;关东街道;湖北省;430050;China 中国
仓埠街, 新洲区, 武汉市, 湖北省, China 中国;武汉市;关东街道;湖北省;430050;China 中国
新洲区, 武汉市, 湖北省, China 中国;武汉市;新洲区;湖北省;430050;China 中国
X007, 湖泗街道, 江夏区, 武汉市, 湖北省, China 中国;武汉市;关东街道;湖北省;430050;China 中国
梁子湖大道, 滨湖街道, 东湖新技术开发区（托管）, 江夏区, 武汉市, 湖北省, China 中国;武汉市;滨湖街道;湖北省;430050;China 中国
双柳街, 新洲区, 武汉市, 湖北省, China 中国;武汉市;关东街道;湖北省;430050;China 中国
东荆街, 汉南区, 武汉市, 湖北省, China 中国;武汉市;关东街道;湖北省;430050;China 中国
武汉绕城高速公路, 柏泉办事处, 东西湖区, 武汉市, 湖北省, China 中国;武汉市;关东街道;湖北省;430050;China 中国
张辛路, 辛安渡办事处, 东西湖区, 武汉市, 湖北省, China 中国;武汉市;关东街道;湖北省;430050;China 中国
G318, 李集街, 新洲区, 武汉市, 湖北省, China 中国;武汉市;关东街道;湖北省;430050;China 中国
东西湖区, 武汉市, 湖北省, China 中国;武汉市;东西湖区;湖北省;430050;China 中国
107国道, 贺胜桥镇, 咸安区, 咸宁市, 湖北省, China 中国;武汉市;关东街道;湖北省;430050;China 中国
侏儒街, 蔡甸区, 武汉市, 湖北省, China 中国;武汉市;关东街道;湖北省;430050;China 中国
徐古街道, 新洲区, 武汉市, 湖北省, China 中国;武汉市;关东街道;湖北省;430050;China 中国
何家湖北街, 江夏区, 武汉市, 湖北省, China 中国;武汉市;江夏区;湖北省;430050;China 中国
新洲区, 武汉市, 湖北省, China 中国;武汉市;关东街道;湖北省;430050;China 中国
汉十高速, 黄陂区, 武汉市, 湖北省, China 中国;武汉市;关东街道;湖北省;430050;China 中国
金口街, 江夏区, 武汉市, 湖北省, China 中国;武汉市;关东街道;湖北省;430050;China 中国
永丰街道, 汉阳区, 武汉市, 湖北省, China 中国;武汉市;永丰街道;湖北省;430050;China 中国
九峰街道, 东湖新技术开发区（托管）, 洪山区, 武汉市, 湖北省, 430075, China 中国;武汉市;关东街道;湖北省;430075;China 中国
黄陂区, 武汉市, 湖北省, China 中国;武汉市;黄陂区;湖北省;430050;China 中国
罗汉寺街道, 黄陂区, 武汉市, 湖北省, China 中国;武汉市;关东街道;湖北省;430050;China 中国
辛冲镇, 新洲区, 武汉市, 湖北省, China 中国;武汉市;关东街道;湖北省;430050;China 中国
王家河街, 黄陂区, 武汉市, 湖北省, China 中国;武汉市;关东街道;湖北省;430050;China 中国
沪渝高速, 永安街, 蔡甸区, 武汉市, 湖北省, China 中国;武汉市;关东街道;湖北省;430050;China 中国
三环线, 江汉经济开发区, 硚口区, 武汉市, 湖北省, WUHAN HANKOU, China 中国;武汉市;江汉经济开发区;湖北省;WUHAN HANKOU;China 中国
军山街道, 武汉经济技术开发区（托管）, 汉南区, 武汉市, 湖北省, China 中国;武汉市;军山街道;湖北省;430050;China 中国
侏儒街, 蔡甸区, 武汉市, 湖北省, China 中国;武汉市;关东街道;湖北省;430050;China 中国
豹澥街道, 东湖新技术开发区（托管）, 江夏区, 武汉市, 湖北省, China 中国;武汉市;豹澥街道;湖北省;430050;China 中国
滨湖街道, 东湖新技术开发区（托管）, 江夏区, 武汉市, 湖北省, China 中国;武汉市;滨湖街道;湖北省;430050;China 中国
蔡甸区, 武汉市, 湖北省, China 中国;武汉市;蔡甸区;湖北省;430050;China 中国
洪北管委会, 蔡甸区, 武汉市, 湖北省, China 中国;武汉市;关东街道;湖北省;430050;China 中国
安山街, 江夏区, 武汉市, 湖北省, China 中国;武汉市;关东街道;湖北省;430050;China 中国
李集街, 新洲区, 武汉市, 湖北省, China 中国;武汉市;关东街道;湖北省;430050;China 中国
张湾街, 蔡甸区, 武汉市, 湖北省, China 中国;武汉市;关东街道;湖北省;430050;China 中国
芷岸龙庭, 南湖大道, 狮子山街道, 洪山区, 武汉市, 湖北省, 430068, China 中国;武汉市;狮子山街道;湖北省;430068;China 中国
武汉绕城高速公路, 黄陂区, 武汉市, 湖北省, China 中国;武汉市;黄陂区;湖北省;430050;China 中国
阳逻长江大桥, 八吉府街道, 武汉化学工业新区（托管）, 洪山区, 武汉市, 湖北省, China 中国;武汉市;八吉府街道;湖北省;430050;China 中国
黄陂区, 武汉市, 湖北省, China 中国;武汉市;关东街道;湖北省;430050;China 中国
江夏区, 武汉市, 湖北省, China 中国;武汉市;江夏区;湖北省;430050;China 中国
柏泉办事处, 东西湖区, 武汉市, 湖北省, China 中国;武汉市;关东街道;湖北省;430050;China 中国
金银湖街道, 东西湖区, 武汉市, 湖北省, China 中国;武汉市;金银湖街道;湖北省;430050;China 中国
乌龙泉街, 江夏区, 武汉市, 湖北省, China 中国;武汉市;关东街道;湖北省;430050;China 中国
木兰乡, 黄陂区, 武汉市, 湖北省, China 中国;武汉市;关东街道;湖北省;430050;China 中国
黄陂区, 武汉市, 湖北省, China 中国;武汉市;黄陂区;湖北省;430050;China 中国
汪集街, 新洲区, 武汉市, 湖北省, China 中国;武汉市;关东街道;湖北省;430050;China 中国
汪集街, 新洲区, 武汉市, 湖北省, China 中国;武汉市;关东街道;湖北省;430050;China 中国
G42, 黄陂区, 武汉市, 湖北省, China 中国;武汉市;黄陂区;湖北省;430050;China 中国
武汉市后官湖绿道, 蔡甸区, 武汉市, 湖北省, 430101, China 中国;武汉市;蔡甸区;湖北省;430101;China 中国
武汉绕城高速公路, 东西湖区, 武汉市, 湖北省, China 中国;武汉市;东西湖区;湖北省;430050;China 中国
六指街道, 黄陂区, 武汉市, 湖北省, China 中国;武汉市;关东街道;湖北省;430050;China 中国
武汉 - 大理, 新沟镇街道, 东西湖区, 武汉市, 湖北省, China 中国;武汉市;关东街道;湖北省;430050;China 中国
团结大道, 和平街道, 洪山区, 武汉市, 湖北省, 430080, China 中国;武汉市;和平街道;湖北省;430080;China 中国
黄陂区, 武汉市, 湖北省, China 中国;武汉市;黄陂区;湖北省;430050;China 中国
东山办事处, 东西湖区, 武汉市, 湖北省, China 中国;武汉市;关东街道;湖北省;430050;China 中国
天河街, 黄陂区, 武汉市, 湖北省, China 中国;武汉市;关东街道;湖北省;430050;China 中国
金水办事处, 江夏区, 武汉市, 湖北省, China 中国;武汉市;关东街道;湖北省;430050;China 中国
常福新城, 蔡甸区, 武汉市, 湖北省, China 中国;武汉市;关东街道;湖北省;430050;China 中国
枫树三路, 沌口街道, 武汉经济技术开发区（托管）, 蔡甸区, 武汉市, 湖北省, China 中国;武汉市;沌口街道;湖北省;430050;China 中国
慈惠街道, 东西湖区, 武汉市, 湖北省, 430101, China 中国;武汉市;慈惠街道;湖北省;430101;China 中国
汪集街, 新洲区, 武汉市, 湖北省, China 中国;武汉市;关东街道;湖北省;430050;China 中国
黄陂区, 武汉市, 湖北省, China 中国;武汉市;黄陂区;湖北省;430050;China 中国
三环线, 丹水池街道, 江岸区, 武汉市, 湖北省, 420112, China 中国;武汉市;丹水池街道;湖北省;420112;China 中国
涨渡湖街, 新洲区, 武汉市, 湖北省, China 中国;武汉市;关东街道;湖北省;430050;China 中国
新洲原种场, 新洲区, 武汉市, 湖北省, China 中国;武汉市;关东街道;湖北省;430050;China 中国
索河镇, 蔡甸区, 武汉市, 湖北省, China 中国;武汉市;关东街道;湖北省;430050;China 中国
G318, 李集街, 新洲区, 武汉市, 湖北省, China 中国;武汉市;关东街道;湖北省;430050;China 中国
金水办事处, 江夏区, 武汉市, 湖北省, China 中国;武汉市;关东街道;湖北省;430050;China 中国
夹套河路, 张家湾街道, 洪山区, 武汉市, 湖北省, 460065, China 中国;武汉市;关东街道;湖北省;460065;China 中国
永丰街道, 汉阳区, 武汉市, 湖北省, 430056, China 中国;武汉市;永丰街道;湖北省;430056;China 中国
华中科技大学, 1037号, 珞喻路, 东湖新技术开发区, 关东街道, 东湖新技术开发区（托管）, 洪山区, 武汉市, 湖北省, 430074, China 中国;武汉市;关东街道;湖北省;430074;China 中国
G318, 新洲区, 武汉市, 湖北省, China 中国;武汉市;新洲区;湖北省;430050;China 中国
消泗乡, 蔡甸区, 武汉市, 湖北省, China 中国;武汉市;关东街道;湖北省;430050;China 中国
木兰乡, 黄陂区, 武汉市, 湖北省, China 中国;武汉市;关东街道;湖北省;430050;China 中国
黄陂区, 武汉市, 湖北省, China 中国;武汉市;关东街道;湖北省;430050;China 中国
徐古街道, 新洲区, 武汉市, 湖北省, China 中国;武汉市;关东街道;湖北省;430050;China 中国
东山办事处, 东西湖区, 武汉市, 湖北省, China 中国;武汉市;关东街道;湖北省;430050;China 中国
军山街道, 武汉经济技术开发区（托管）, 蔡甸区, 武汉市, 湖北省, China 中国;武汉市;军山街道;湖北省;430050;China 中国
湘口街道, 汉南区, 武汉市, 湖北省, China 中国;武汉市;湘口街道;湖北省;430050;China 中国
湖泗街道, 江夏区, 武汉市, 湖北省, China 中国;武汉市;湖泗街道;湖北省;430050;China 中国
东荆街, 汉南区, 武汉市, 湖北省, China 中国;武汉市;关东街道;湖北省;430050;China 中国
黄陂区, 武汉市, 湖北省, China 中国;武汉市;关东街道;湖北省;430050;China 中国
X007, 湖泗街道, 江夏区, 武汉市, 湖北省, China 中国;武汉市;关东街道;湖北省;430050;China 中国
慈惠街道, 东西湖区, 武汉市, 湖北省, 430101, China 中国;武汉市;慈惠街道;湖北省;430101;China 中国
南湖大道, 东湖新技术开发区, 关东街道, 东湖新技术开发区（托管）, 洪山区, 武汉市, 湖北省, 430070, China 中国;武汉市;关东街道;湖北省;430070;China 中国
大潭原种场, 黄陂区, 武汉市, 湖北省, China 中国;武汉市;关东街道;湖北省;430050;China 中国
花山街, 东湖新技术开发区（托管）, 洪山区, 武汉市, 湖北省, 430075, China 中国;武汉市;关东街道;湖北省;430075;China 中国
汪集街, 新洲区, 武汉市, 湖北省, China 中国;武汉市;关东街道;湖北省;430050;China 中国
2号航站楼, 机场二通道, 天河街, 黄陂区, 武汉市, 湖北省, China 中国;武汉市;关东街道;湖北省;430050;China 中国
蔡店街道, 黄陂区, 武汉市, 湖北省, China 中国;武汉市;关东街道;湖北省;430050;China 中国
徐古街道, 新洲区, 武汉市, 湖北省, China 中国;武汉市;关东街道;湖北省;430050;China 中国
黄陂区, 武汉市, 湖北省, China 中国;武汉市;黄陂区;湖北省;430050;China 中国
郑店街, 江夏区, 武汉市, 湖北省, China 中国;武汉市;关东街道;湖北省;430050;China 中国
六指街道, 黄陂区, 武汉市, 湖北省, China 中国;武汉市;关东街道;湖北省;430050;China 中国
蔡甸区, 武汉市, 湖北省, 430101, China 中国;武汉市;蔡甸区;湖北省;430101;China 中国
新洲区, 武汉市, 湖北省, China 中国;武汉市;关东街道;湖北省;430050;China 中国
金水办事处, 江夏区, 武汉市, 湖北省, China 中国;武汉市;关东街道;湖北省;430050;China 中国
五里界街, 江夏区, 武汉市, 湖北省, China 中国;武汉市;关东街道;湖北省;430050;China 中国
青化路, 白玉山街道, 青山区, 武汉市, 湖北省, China 中国;武汉市;白玉山街道;湖北省;430050;China 中国
祁家湾街道, 黄陂区, 武汉市, 湖北省, China 中国;武汉市;关东街道;湖北省;430050;China 中国
王家河街, 黄陂区, 武汉市, 湖北省, China 中国;武汉市;关东街道;湖北省;430050;China 中国
汪集街, 新洲区, 武汉市, 湖北省, China 中国;武汉市;关东街道;湖北省;430050;China 中国
黄陂区, 武汉市, 湖北省, China 中国;武汉市;关东街道;湖北省;430050;China 中国
江夏区, 武汉市, 湖北省, China 中国;武汉市;江夏区;湖北省;430050;China 中国
王家河街, 黄陂区, 武汉市, 湖北省, China 中国;武汉市;关东街道;湖北省;430050;China 中国
黄陂区, 武汉市, 湖北省, China 中国;武汉市;黄陂区;湖北省;430050;China 中国
慈惠街道, 东西湖区, 武汉市, 湖北省, 430101, China 中国;武汉市;慈惠街道;湖北省;430101;China 中国
107国道, 安山街, 江夏区, 武汉市, 湖北省, China 中国;武汉市;关东街道;湖北省;430050;China 中国
硚孝高速, 径河街道 (Jinghe), 东西湖区, 武汉市, 湖北省, China 中国;武汉市;径河街道 (Jinghe);湖北省;430050;China 中国
九峰街道, 东湖新技术开发区（托管）, 洪山区, 武汉市, 湖北省, 430073, China 中国;武汉市;关东街道;湖北省;430073;China 中国
新洲原种场, 新洲区, 武汉市, 湖北省, China 中国;武汉市;关东街道;湖北省;430050;China 中国
湖泗街道, 江夏区, 武汉市, 湖北省, China 中国;武汉市;湖泗街道;湖北省;430050;China 中国
京港澳高速公路, 东山办事处, 东西湖区, 武汉市, 湖北省, China 中国;武汉市;关东街道;湖北省;430050;China 中国
军山街道, 武汉经济技术开发区（托管）, 蔡甸区, 武汉市, 湖北省, China 中国;武汉市;军山街道;湖北省;430050;China 中国
红旗渠路, 汉兴街道, 江汉区, 武汉市, 湖北省, 430015, China 中国;武汉市;汉兴街道;湖北省;430015;China 中国
硚孝高速, 东山办事处, 东西湖区, 武汉市, 湖北省, China 中国;武汉市;关东街道;湖北省;430050;China 中国
三店街, 新洲区, 武汉市, 湖北省, China 中国;武汉市;关东街道;湖北省;430050;China 中国
姚家集街道, 黄陂区, 武汉市, 湖北省, China 中国;武汉市;关东街道;湖北省;430050;China 中国
王家河街, 黄陂区, 武汉市, 湖北省, China 中国;武汉市;关东街道;湖北省;430050;China 中国
木兰乡, 黄陂区, 武汉市, 湖北省, China 中国;武汉市;关东街道;湖北省;430050;China 中国
新洲区, 武汉市, 湖北省, China 中国;武汉市;新洲区;湖北省;430050;China 中国
王家河街, 黄陂区, 武汉市, 湖北省, China 中国;武汉市;关东街道;湖北省;430050;China 中国
黄陂区, 武汉市, 湖北省, China 中国;武汉市;关东街道;湖北省;430050;China 中国
4th Ring Road, 沌口街道, 武汉经济技术开发区（托管）, 蔡甸区, 武汉市, 湖北省, 430056, China 中国;武汉市;沌口街道;湖北省;430056;China 中国
千家街, 首义路街道, 武昌区, 武汉市, 湖北省, 230060, China 中国;武汉市;首义路街道;湖北省;230060;China 中国
豹澥街道, 东湖新技术开发区（托管）, 江夏区, 武汉市, 湖北省, 430075, China 中国;武汉市;豹澥街道;湖北省;430075;China 中国
李家集街道, 黄陂区, 武汉市, 湖北省, China 中国;武汉市;关东街道;湖北省;430050;China 中国
武湖街道, 黄陂区, 武汉市, 湖北省, China 中国;武汉市;关东街道;湖北省;430050;China 中国
蔡甸区, 武汉市, 湖北省, China 中国;武汉市;关东街道;湖北省;430050;China 中国
博物大道, 新洲区, 武汉市, 湖北省, China 中国;武汉市;新洲区;湖北省;430050;China 中国
慈惠街道, 东西湖区, 武汉市, 湖北省, 430101, China 中国;武汉市;慈惠街道;湖北省;430101;China 中国
沌口街道, 武汉经济技术开发区（托管）, 蔡甸区, 武汉市, 湖北省, 430056, China 中国;武汉市;沌口街道;湖北省;430056;China 中国
黄陂区, 武汉市, 湖北省, China 中国;武汉市;黄陂区;湖北省;430050;China 中国
湖泗街道, 江夏区, 武汉市, 湖北省, China 中国;武汉市;湖泗街道;湖北省;430050;China 中国
军山街道, 武汉经济技术开发区（托管）, 蔡甸区, 武汉市, 湖北省, China 中国;武汉市;军山街道;湖北省;430050;China 中国
江夏区, 武汉市, 湖北省, 430073, China 中国;武汉市;关东街道;湖北省;430073;China 中国
张杨湾, 黄陂区, 武汉市, 湖北省, China 中国;武汉市;关东街道;湖北省;430050;China 中国
江夏区, 武汉市, 湖北省, China 中国;武汉市;江夏区;湖北省;430050;China 中国
滠口街道, 黄陂区, 武汉市, 湖北省, China 中国;武汉市;关东街道;湖北省;430050;China 中国
江夏区, 武汉市, 湖北省, China 中国;武汉市;江夏区;湖北省;430050;China 中国
草塘角, 滠口街道, 黄陂区, 武汉市, 湖北省, China 中国;武汉市;关东街道;湖北省;430050;China 中国
草塘角, 黄陂区, 武汉市, 湖北省, China 中国;武汉市;黄陂区;湖北省;430050;China 中国
滨湖街道, 东湖新技术开发区（托管）, 江夏区, 武汉市, 湖北省, China 中国;武汉市;滨湖街道;湖北省;430050;China 中国
索河镇, 蔡甸区, 武汉市, 湖北省, China 中国;武汉市;关东街道;湖北省;430050;China 中国
武汉绕城高速公路, 黄陂区, 武汉市, 湖北省, China 中国;武汉市;黄陂区;湖北省;430050;China 中国
张辛路, 辛安渡办事处, 东西湖区, 武汉市, 湖北省, China 中国;武汉市;关东街道;湖北省;430050;China 中国
S13, 湘口街道, 汉南区, 武汉市, 湖北省, China 中国;武汉市;关东街道;湖北省;430050;China 中国
罗汉寺街道, 黄陂区, 武汉市, 湖北省, China 中国;武汉市;关东街道;湖北省;430050;China 中国
S101, 江夏区, 郑店街, 江夏区, 武汉市, 湖北省, China 中国;武汉市;关东街道;湖北省;430050;China 中国
罗汉寺街道, 黄陂区, 武汉市, 湖北省, China 中国;武汉市;关东街道;湖北省;430050;China 中国
汉南区, 武汉市, 湖北省, China 中国;武汉市;汉南区;湖北省;430050;China 中国
金口街, 江夏区, 武汉市, 湖北省, China 中国;武汉市;关东街道;湖北省;430050;China 中国
工人村街道, 青山区, 武汉市, 湖北省, 430080, China 中国;武汉市;工人村街道;湖北省;430080;China 中国
江夏区, 武汉市, 湖北省, China 中国;武汉市;江夏区;湖北省;430050;China 中国
楼子湾, 黄陂区, 武汉市, 湖北省, China 中国;武汉市;关东街道;湖北省;430050;China 中国
罗汉寺街道, 黄陂区, 武汉市, 湖北省, China 中国;武汉市;关东街道;湖北省;430050;China 中国
团风县, 黄冈市, 湖北省, China 中国;武汉市;关东街道;湖北省;430050;China 中国
武汉绕城高速公路, 黄陂区, 武汉市, 湖北省, China 中国;武汉市;黄陂区;湖北省;430050;China 中国
汪集街, 新洲区, 武汉市, 湖北省, China 中国;武汉市;关东街道;湖北省;430050;China 中国
黄陂区, 武汉市, 湖北省, China 中国;武汉市;黄陂区;湖北省;430050;China 中国
江夏区, 武汉市, 湖北省, China 中国;武汉市;江夏区;湖北省;430050;China 中国
檀树岭村, 东湖新技术开发区（托管）, 江夏区, 武汉市, 湖北省, China 中国;武汉市;关东街道;湖北省;430050;China 中国
蔡店街道, 黄陂区, 武汉市, 湖北省, China 中国;武汉市;关东街道;湖北省;430050;China 中国
江夏区, 武汉市, 湖北省, China 中国;武汉市;江夏区;湖北省;430050;China 中国
双柳街, 新洲区, 武汉市, 湖北省, China 中国;武汉市;关东街道;湖北省;430050;China 中国
王家河街, 黄陂区, 武汉市, 湖北省, China 中国;武汉市;关东街道;湖北省;430050;China 中国
南太子湖, 江城大道, 四新管委会, 汉阳区, 武汉市, 湖北省, 430056, China 中国;武汉市;四新管委会;湖北省;430056;China 中国
梅店水库, HuangTu Road, 小陈家湾, 黄陂区, 武汉市, 湖北省, China 中国;武汉市;关东街道;湖北省;430050;China 中国
红安县, 黄冈市, 湖北省, China 中国;武汉市;红安县;湖北省;430050;China 中国
新洲区, 武汉市, 湖北省, 438803, China 中国;武汉市;新洲区;湖北省;438803;China 中国
鲁台, 黄陂区, 武汉市, 湖北省, China 中国;武汉市;黄陂区;湖北省;430050;China 中国
发展大道, 常青街道, 江汉区, 武汉市, 湖北省, WUHAN HANKOU, China 中国;武汉市;常青街道;湖北省;WUHAN HANKOU;China 中国
北京 - 香港, 长青街道 (Changking), 东西湖区, 武汉市, 湖北省, China 中国;武汉市;长青街道 (Changking);湖北省;430050;China 中国
横店街道, 黄陂区, 武汉市, 湖北省, China 中国;武汉市;关东街道;湖北省;430050;China 中国
邓南街, 汉南区, 武汉市, 湖北省, China 中国;武汉市;关东街道;湖北省;430050;China 中国
新洲区, 武汉市, 湖北省, China 中国;武汉市;关东街道;湖北省;430050;China 中国
梁子湖风景区, 江夏区, 武汉市, 湖北省, China 中国;武汉市;关东?
蔡甸区, 武汉市, 湖北省, 430101, China 中国;武汉市;蔡甸区;湖北省;430101;China 中国
江夏区, 武汉市, 湖北省, China 中国;武汉市;江夏区;湖北省;430050;China 中国
白玉山街道, 青山区, 武汉市, 湖北省, China 中国;武汉市;白玉山街道;湖北省;430050;China 中国
三环线, 易家墩街道, 硚口区, 武汉市, 湖北省, China 中国;武汉市;易家墩街道;湖北省;430050;China 中国
栗庙路, 滨湖街道, 东湖新技术开发区（托管）, 江夏区, 武汉市, 湖北省, China 中国;武汉市;滨湖街道;湖北省;430050;China 中国
新洲区, 武汉市, 湖北省, China 中国;武汉市;新洲区;湖北省;430050;China 中国
王家河街, 黄陂区, 武汉市, 湖北省, China 中国;武汉市;关东街道;湖北省;430050;China 中国
李集街, 新洲区, 武汉市, 湖北省, China 中国;武汉市;关东街道;湖北省;430050;China 中国
白玉山街道, 武汉化学工业新区（托管）, 青山区, 武汉市, 湖北省, China 中国;武汉市;白玉山街道;湖北省;430050;China 中国
4th Ring Road, 径河街道 (Jinghe), 东西湖区, 武汉市, 湖北省, China 中国;武汉市;径河街道 (Jinghe);湖北省;430050;China 中国
李集街, 新洲区, 武汉市, 湖北省, China 中国;武汉市;关东街道;湖北省;430050;China 中国
白沙洲街道, 武昌区, 武汉市, 湖北省, 430064, China 中国;武汉市;白沙洲街道;湖北省;430064;China 中国
黄陂区, 武汉市, 湖北省, China 中国;武汉市;关东街道;湖北省;430050;China 中国
山坡街道, 江夏区, 武汉市, 湖北省, China 中国;武汉市;关东街道;湖北省;430050;China 中国
沿江大道, 二七街道, 江岸区, 武汉市, 湖北省, 430015, China 中国;武汉市;二七街道;湖北省;430015;China 中国
新洲区, 武汉市, 湖北省, China 中国;武汉市;新洲区;湖北省;430050;China 中国
郭茨口路, 江汉二桥街道, 汉阳区, 武汉市, 湖北省, 430034, China 中国;武汉市;江汉二桥街道;湖北省;430034;China 中国
长轩岭街道, 黄陂区, 武汉市, 湖北省, China 中国;武汉市;关东街道;湖北省;430050;China 中国
金口街, 江夏区, 武汉市, 湖北省, China 中国;武汉市;关东街道;湖北省;430050;China 中国
张湾街, 蔡甸区, 武汉市, 湖北省, China 中国;武汉市;关东街道;湖北省;430050;China 中国
天兴乡, 洪山区, 武汉市, 湖北省, China 中国;武汉市;天兴乡;湖北省;430050;China 中国
桐湖办事处, 蔡甸区, 武汉市, 湖北省, China 中国;武汉市;关东街道;湖北省;430050;China 中国
纱帽街, 汉南区, 武汉市, 湖北省, China 中国;武汉市;关东街道;湖北省;430050;China 中国
天河街, 黄陂区, 武汉市, 湖北省, China 中国;武汉市;关东街道;湖北省;430050;China 中国
江夏区, 武汉市, 湖北省, China 中国;武汉市;江夏区;湖北省;430050;China 中国
六指街道, 黄陂区, 武汉市, 湖北省, China 中国;武汉市;关东街道;湖北省;430050;China 中国
大桥新区, 江夏区, 武汉市, 湖北省, China 中国;武汉市;关东街道;湖北省;430050;China 中国
谌家矶街道, 江岸区, 武汉市, 湖北省, China 中国;武汉市;谌家矶街道;湖北省;430050;China 中国
新洲区, 武汉市, 湖北省, China 中国;武汉市;关东街道;湖北省;430050;China 中国
消泗乡, 蔡甸区, 武汉市, 湖北省, China 中国;武汉市;关东街道;湖北省;430050;China 中国
花桥街道, 江岸区, 武汉市, 湖北省, 430015, China 中国;武汉市;花桥街道;湖北省;430015;China 中国
S112, 新洲原种场, 新洲区, 武汉市, 湖北省, 438800, China 中国;武汉市;关东街道;湖北省;438800;China 中国
蔡家榨街道, 黄陂区, 武汉市, 湖北省, China 中国;武汉市;关东街道;湖北省;430050;China 中国
旧街街道, 新洲区, 武汉市, 湖北省, China 中国;武汉市;关东街道;湖北省;430050;China 中国
木兰乡, 黄陂区, 武汉市, 湖北省, China 中国;武汉市;关东街道;湖北省;430050;China 中国
钢花村街道, 青山区, 武汉市, 湖北省, 430080, China 中国;武汉市;钢花村街道;湖北省;430080;China 中国
楼子湾, 黄陂区, 武汉市, 湖北省, China 中国;武汉市;关东街道;湖北省;430050;China 中国
黄陂区, 武汉市, 湖北省, China 中国;武汉市;关东街道;湖北省;430050;China 中国
新洲原种场, 新洲区, 武汉市, 湖北省, China 中国;武汉市;关东街道;湖北省;430050;China 中国
黄陂区, 武汉市, 湖北省, China 中国;武汉市;黄陂区;湖北省;430050;China 中国
侏儒街, 蔡甸区, 武汉市, 湖北省, China 中国;武汉市;关东街道;湖北省;430050;China 中国
法泗街, 江夏区, 武汉市, 湖北省, China 中国;武汉市;关东街道;湖北省;430050;China 中国
S122, 湖泗街道, 江夏区, 咸宁市, 湖北省, China 中国;武汉市;关东街道;湖北省;430050;China 中国
东校区教工活动中心, 珞喻东路, 东湖新技术开发区, 关东街道, 东湖生态旅游风景区（托管）, 洪山区, 武汉市, 湖北省, 430074, China 中国;武汉市;关东街道;湖北省;430074;China 中国
田文街, 古田街道, 硚口区, 武汉市, 湖北省, 430034, China 中国;武汉市;古田街道;湖北省;430034;China 中国
留学生公寓, 中原大道, 东湖新技术开发区, 关东街道, 东湖新技术开发区（托管）, 江夏区, 武汉市, 湖北省, 430070, China 中国;武汉市;关东街道;湖北省;430070;China 中国
大广高速, 新洲区, 武汉市, 湖北省, China 中国;武汉市;新洲区;湖北省;430050;China 中国
长轩岭街道, 黄陂区, 武汉市, 湖北省, China 中国;武汉市;关东街道;湖北省;430050;China 中国
蔡甸区, 武汉市, 湖北省, China 中国;武汉市;蔡甸区;湖北省;430050;China 中国
蔡甸区, 武汉市, 湖北省, China 中国;武汉市;关东街道;湖北省;430050;China 中国
蔡甸区, 武汉市, 湖北省, China 中国;武汉市;关东街道;湖北省;430050;China 中国
G42, 黄陂区, 武汉市, 湖北省, China 中国;武汉市;黄陂区;湖北省;430050;China 中国
百曲公路, 消泗乡, 蔡甸区, 武汉市, 湖北省, China 中国;武汉市;关东街道;湖北省;430050;China 中国
柏银路, 金银湖街道, 东西湖区, 武汉市, 湖北省, China 中国;武汉市;金银湖街道;湖北省;430050;China 中国
李家集街道, 黄陂区, 武汉市, 湖北省, China 中国;武汉市;关东街道;湖北省;430050;China 中国
消泗乡, 蔡甸区, 武汉市, 湖北省, China 中国;武汉市;关东街道;湖北省;430050;China 中国
G318, 新洲区, 武汉市, 湖北省, China 中国;武汉市;新洲区;湖北省;430050;China 中国
沌口街道, 武汉经济技术开发区（托管）, 蔡甸区, 武汉市, 湖北省, China 中国;武汉市;沌口街道;湖北省;430050;China 中国
新洲区, 武汉市, 湖北省, China 中国;武汉市;新洲区;湖北省;430050;China 中国
汤逊湖村, 洪山区, 武汉市, 湖北省, 430070, China 中国;武汉市;关东街道;湖北省;430070;China 中国
湖泗街道, 江夏区, 武汉市, 湖北省, China 中国;武汉市;湖泗街道;湖北省;430050;China 中国
蔡家榨街道, 黄陂区, 武汉市, 湖北省, China 中国;武汉市;关东街道;湖北省;430050;China 中国
蔡甸区, 武汉市, 湖北省, China 中国;武汉市;关东街道;湖北省;430050;China 中国
四環線 4the Ring Road, 北湖管委会, 武汉化学工业新区（托管）, 青山区, 武汉市, 湖北省, China 中国;武汉市;北湖管委会;湖北省;430050;China 中国
李家集街道, 黄陂区, 武汉市, 湖北省, China 中国;武汉市;关东街道;湖北省;430050;China 中国
黄陂区, 武汉市, 湖北省, China 中国;武汉市;关东街道;湖北省;430050;China 中国
邾城街, 新洲区, 武汉市, 湖北省, China 中国;武汉市;关东街道;湖北省;430050;China 中国
柏银路, 柏泉办事处, 东西湖区, 武汉市, 湖北省, China 中国;武汉市;关东街道;湖北省;430050;China 中国
山坡街道, 江夏区, 武汉市, 湖北省, China 中国;武汉市;关东街道;湖北省;430050;China 中国
王家河街, 黄陂区, 武汉市, 湖北省, China 中国;武汉市;关东街道;湖北省;430050;China 中国
团结街, 慈惠街道, 东西湖区, 武汉市, 湖北省, China 中国;武汉市;慈惠街道;湖北省;430050;China 中国
仓埠街, 新洲区, 武汉市, 湖北省, China 中国;武汉市;关东街道;湖北省;430050;China 中国
沌口街道, 武汉经济技术开发区（托管）, 蔡甸区, 武汉市, 湖北省, China 中国;武汉市;沌口街道;湖北省;430050;China 中国
黄陂区, 武汉市, 湖北省, China 中国;武汉市;黄陂区;湖北省;430050;China 中国
乌龙泉街, 江夏区, 武汉市, 湖北省, China 中国;武汉市;关东街道;湖北省;430050;China 中国
凤凰镇, 新洲区, 武汉市, 湖北省, China 中国;武汉市;关东街道;湖北省;430050;China 中国
丁字桥南路, 南湖街道, 武昌区, 武汉市, 湖北省, 430064, China 中国;武汉市;南湖街道;湖北省;430064;China 中国
天河街, 黄陂区, 武汉市, 湖北省, China 中国;武汉市;关东街道;湖北省;430050;China 中国
青菱街道, 洪山区, 武汉市, 湖北省, China 中国;武汉市;青菱街道;湖北省;430050;China 中国
李家集街道, 黄陂区, 武汉市, 湖北省, China 中国;武汉市;关东街道;湖北省;430050;China 中国
蔡店街道, 黄陂区, 武汉市, 湖北省, China 中国;武汉市;关东街道;湖北省;430050;China 中国
新洲区, 武汉市, 湖北省, China 中国;武汉市;新洲区;湖北省;430050;China 中国
HuangTu Road, 长轩岭街道, 黄陂区, 武汉市, 湖北省, China 中国;武汉市;关东街道;湖北省;430050;China 中国
旧街街道, 新洲区, 武汉市, 湖北省, China 中国;武汉市;关东街道;湖北省;430050;China 中国
蔡家榨街道, 黄陂区, 武汉市, 湖北省, China 中国;武汉市;关东街道;湖北省;430050;China 中国
临江大道, 红卫路街道, 青山区, 武汉市, 湖北省, 430080, China 中国;武汉市;红卫路街道;湖北省;430080;China 中国
G318, 永安街, 蔡甸区, 武汉市, 湖北省, China 中国;武汉市;关东街道;湖北省;430050;China 中国
走马岭街道, 东西湖区, 武汉市, 湖北省, China 中国;武汉市;关东街道;湖北省;430050;China 中国
沙湖路, 水岸国际·澜桥公馆1期, 徐家棚街道, 武昌区, 武汉市, 湖北省, 430062, China 中国;武汉市;徐家棚街道;湖北省;430062;China 中国
木兰乡, 黄陂区, 武汉市, 湖北省, China 中国;武汉市;关东街道;湖北省;430050;China 中国
木兰乡, 黄陂区, 武汉市, 湖北省, China 中国;武汉市;关东街道;湖北省;430050;China 中国
李集街, 新洲区, 武汉市, 湖北省, China 中国;武汉市;关东街道;湖北省;430050;China 中国
武汉绕城高速公路, 北湖管委会, 武汉化学工业新区（托管）, 青山区, 武汉市, 湖北省, China 中国;武汉市;北湖管委会;湖北省;430050;China 中国
李集街, 新洲区, 武汉市, 湖北省, China 中国;武汉市;关东街道;湖北省;430050;China 中国
新洲区, 武汉市, 湖北省, China 中国;武汉市;新洲区;湖北省;430050;China 中国
小陈家湾, 黄陂区, 武汉市, 湖北省, China 中国;武汉市;关东街道;湖北省;430050;China 中国
汪集街, 新洲区, 武汉市, 湖北省, China 中国;武汉市;关东街道;湖北省;430050;China 中国
天河街, 黄陂区, 武汉市, 湖北省, China 中国;武汉市;关东街道;湖北省;430050;China 中国
天河街, 黄陂区, 武汉市, 湖北省, China 中国;武汉市;关东街道;湖北省;430050;China 中国
草塘角, 滠口街道, 黄陂区, 武汉市, 湖北省, China 中国;武汉市;关东街道;湖北省;430050;China 中国
流芳街道, 东湖新技术开发区（托管）, 江夏区, 武汉市, 湖北省, China 中国;武汉市;流芳街道;湖北省;430050;China 中国
东湖生态旅游风景区（托管）, 洪山区, 武汉市, 湖北省, 430074, China 中国;武汉市;关东街道;湖北省;430074;China 中国
武湖街道, 黄陂区, 武汉市, 湖北省, China 中国;武汉市;关东街道;湖北省;430050;China 中国
蔡店街道, 黄陂区, 武汉市, 湖北省, China 中国;武汉市;关东街道;湖北省;430050;China 中国
x009, 法泗街, 江夏区, 武汉市, 湖北省, China 中国;武汉市;关东街道;湖北省;430050;China 中国
蔡家榨街道, 黄陂区, 武汉市, 湖北省, China 中国;武汉市;关东街道;湖北省;430050;China 中国
侏儒街, 蔡甸区, 武汉市, 湖北省, China 中国;武汉市;关东街道;湖北省;430050;China 中国
黄陂区, 武汉市, 湖北省, China 中国;武汉市;黄陂区;湖北省;430050;China 中国
蔡店街道, 黄陂区, 武汉市, 湖北省, China 中国;武汉市;关东街道;湖北省;430050;China 中国
鲁台, 黄陂区, 武汉市, 湖北省, China 中国;武汉市;黄陂区;湖北省;430050;China 中国
万家湖, 万家湖路, 沌口街道, 武汉经济技术开发区（托管）, 蔡甸区, 武汉市, 湖北省, 430056, China 中国;武汉市;沌口街道;湖北省;430056;China 中国
高新四路, 豹澥街道, 东湖新技术开发区（托管）, 江夏区, 武汉市, 湖北省, 430073, China 中国;武汉市;豹澥街道;湖北省;430073;China 中国
蔡店街道, 黄陂区, 武汉市, 湖北省, China 中国;武汉市;关东街道;湖北省;430050;China 中国
G318, 新洲区, 武汉市, 湖北省, China 中国;武汉市;新洲区;湖北省;430050;China 中国
金龙大街, 江夏区, 武汉市, 湖北省, China 中国;武汉市;江夏区;湖北省;430050;China 中国
G318, 李集街, 新洲区, 武汉市, 湖北省, China 中国;武汉市;关东街道;湖北省;430050;China 中国
龚侏线, 侏儒街, 蔡甸区, 武汉市, 湖北省, China 中国;武汉市;关东街道;湖北省;430050;China 中国
李家集街道, 黄陂区, 武汉市, 湖北省, China 中国;武汉市;关东街道;湖北省;430050;China 中国
黄陂区, 武汉市, 湖北省, China 中国;武汉市;关东街道;湖北省;430050;China 中国
南湖北路, 保利蓝海郡, 卓刀泉街道, 东湖新技术开发区（托管）, 洪山区, 武汉市, 湖北省, 430070, China 中国;武汉市;卓刀泉街道;湖北省;430070;China 中国
武汉绕城高速公路, 黄陂区, 武汉市, 湖北省, China 中国;武汉市;黄陂区;湖北省;430050;China 中国
光谷创业街, 东湖新技术开发区, 关东街道, 东湖新技术开发区（托管）, 洪山区, 武汉市, 湖北省, 430074, China 中国;武汉市;关东街道;湖北省;430074;China 中国
东西湖区, 武汉市, 湖北省, China 中国;武汉市;东西湖区;湖北省;430050;China 中国
沌口街道, 武汉经济技术开发区（托管）, 蔡甸区, 武汉市, 湖北省, China 中国;武汉市;沌口街道;湖北省;430050;China 中国
江夏区, 武汉市, 湖北省, China 中国;武汉市;江夏区;湖北省;430050;China 中国
黄陂区, 武汉市, 湖北省, China 中国;武汉市;关东街道;湖北省;430050;China 中国
新洲区, 武汉市, 湖北省, China 中国;武汉市;新洲区;湖北省;430050;China 中国
新洲区, 武汉市, 湖北省, China 中国;武汉市;新洲区;湖北省;430050;China 中国
黄陂区, 武汉市, 湖北省, China 中国;武汉市;黄陂区;湖北省;430050;China 中国
张湾街, 蔡甸区, 武汉市, 湖北省, China 中国;武汉市;关东街道;湖北省;430050;China 中国
走马岭街道, 东西湖区, 武汉市, 湖北省, China 中国;武汉市;关东街道;湖北省;430050;China 中国
S5G42S, 汪集街, 新洲区, 武汉市, 湖北省, China 中国;武汉市;关东街道;湖北省;430050;China 中国
双柳街, 新洲区, 武汉市, 湖北省, China 中国;武汉市;关东街道;湖北省;430050;China 中国
牛山湖养殖场, 东湖新技术开发区（托管）, 江夏区, 武汉市, 湖北省, China 中国;武汉市;牛山湖养殖场;湖北省;430050;China 中国
旧街街道, 新洲区, 武汉市, 湖北省, China 中国;武汉市;关东街道;湖北省;430050;China 中国
山坡街道, 江夏区, 武汉市, 湖北省, China 中国;武汉市;关东街道;湖北省;430050;China 中国
何家湖南街, 江夏区, 武汉市, 湖北省, China 中国;武汉市;江夏区;湖北省;430050;China 中国
新洲区, 武汉市, 湖北省, China 中国;武汉市;新洲区;湖北省;430050;China 中国
S234, 蔡家榨街道, 黄陂区, 武汉市, 湖北省, China 中国;武汉市;关东街道;湖北省;430050;China 中国
安山街, 江夏区, 武汉市, 湖北省, China 中国;武汉市;关东街道;湖北省;430050;China 中国
洪北管委会, 蔡甸区, 武汉市, 湖北省, China 中国;武汉市;关东街道;湖北省;430050;China 中国
东湖生态旅游风景区（托管）, 洪山区, 武汉市, 湖北省, 430074, China 中国;武汉市;关东街道;湖北省;430074;China 中国
解放大道, 丹水池街道, 江岸区, 武汉市, 湖北省, 430015, China 中国;武汉市;丹水池街道;湖北省;430015;China 中国
青菱街道, 洪山区, 武汉市, 湖北省, China 中国;武汉市;青菱街道;湖北省;430050;China 中国
舒安街道, 江夏区, 武汉市, 湖北省, China 中国;武汉市;关东街道;湖北省;430050;China 中国
李集街, 新洲区, 武汉市, 湖北省, China 中国;武汉市;关东街道;湖北省;430050;China 中国
S5G42S, 三里桥街道, 黄陂区, 武汉市, 湖北省, China 中国;武汉市;关东街道;湖北省;430050;China 中国
长轩岭街道, 黄陂区, 武汉市, 湖北省, China 中国;武汉市;关东街道;湖北省;430050;China 中国
旧街街道, 新洲区, 武汉市, 湖北省, China 中国;武汉市;关东街道;湖北省;430050;China 中国
新洲区, 武汉市, 湖北省, China 中国;武汉市;新洲区;湖北省;430050;China 中国
双柳街, 新洲区, 武汉市, 湖北省, China 中国;武汉市;关东街道;湖北省;430050;China 中国
新洲区, 武汉市, 湖北省, China 中国;武汉市;关东街道;湖北省;430050;China 中国
朱山湖, 硃山湖大道, 常福新城, 蔡甸区, 武汉市, 湖北省, China 中国;武汉市;关东街道;湖北省;430050;China 中国
S314, 湖泗街道, 江夏区, 黄石市, 湖北省, China 中国;武汉市;黄石市;湖北省;430050;China 中国
姚家集街道, 黄陂区, 武汉市, 湖北省, China 中国;武汉市;关东街道;湖北省;430050;China 中国
六指街道, 黄陂区, 武汉市, 湖北省, China 中国;武汉市;关东街道;湖北省;430050;China 中国
黄陂区, 武汉市, 湖北省, China 中国;武汉市;黄陂区;湖北省;430050;China 中国
鲁台街, 草塘角, 火庙村, 黄陂区, 武汉市, 湖北省, China 中国;武汉市;关东街道;湖北省;430050;China 中国
新洲区, 武汉市, 湖北省, China 中国;武汉市;新洲区;湖北省;430050;China 中国
李集街, 新洲区, 武汉市, 湖北省, China 中国;武汉市;关东街道;湖北省;430050;China 中国
元宝山学生宿舍三栋, 梅园路, 华中师范大学, 珞南街道, 洪山区, 武汉市, 湖北省, 430079, China 中国;武汉市;珞南街道;湖北省;430079;China 中国
金口街, 江夏区, 武汉市, 湖北省, China 中国;武汉市;关东街道;湖北省;430050;China 中国
孝昌县, 孝感市, 湖北省, China 中国;武汉市;关东街道;湖北省;430050;China 中国
汉南区, 武汉市, 湖北省, China 中国;武汉市;汉南区;湖北省;430050;China 中国
安山街, 江夏区, 武汉市, 湖北省, China 中国;武汉市;关东街道;湖北省;430050;China 中国
江堤街道, 汉阳区, 武汉市, 湖北省, 430050, China 中国;武汉市;江堤街道;湖北省;430050;China 中国
金水办事处, 江夏区, 武汉市, 湖北省, China 中国;武汉市;关东街道;湖北省;430050;China 中国
东湖生态旅游风景区（托管）, 洪山区, 武汉市, 湖北省, China 中国;武汉市;关东街道;湖北省;430050;China 中国
石洞街, 江夏区, 武汉市, 湖北省, China 中国;武汉市;关东街道;湖北省;430050;China 中国
法泗街, 江夏区, 武汉市, 湖北省, China 中国;武汉市;关东街道;湖北省;430050;China 中国
东湖生态旅游风景区（托管）, 洪山区, 武汉市, 湖北省, China 中国;武汉市;关东街道;湖北省;430050;China 中国
S234, 蔡家榨街道, 黄陂区, 武汉市, 湖北省, China 中国;武汉市;关东街道;湖北省;430050;China 中国
G318, 蔡甸区, 武汉市, 湖北省, China 中国;武汉市;蔡甸区;湖北省;430050;China 中国
侏儒街, 蔡甸区, 武汉市, 湖北省, China 中国;武汉市;关东街道;湖北省;430050;China 中国
奓山街, 蔡甸区, 武汉市, 湖北省, China 中国;武汉市;关东街道;湖北省;430050;China 中国
长轩岭街道, 黄陂区, 武汉市, 湖北省, China 中国;武汉市;关东街道;湖北省;430050;China 中国
黄陂区, 武汉市, 湖北省, China 中国;武汉市;黄陂区;湖北省;430050;China 中国
双柳街, 新洲区, 武汉市, 湖北省, China 中国;武汉市;关东街道;湖北省;430050;China 中国
阳逻街, 新洲区, 武汉市, 湖北省, China 中国;武汉市;关东街道;湖北省;430050;China 中国
王家河街, 黄陂区, 武汉市, 湖北省, China 中国;武汉市;关东街道;湖北省;430050;China 中国
永丰街道, 汉阳区, 武汉市, 湖北省, 430034, China 中国;武汉市;永丰街道;湖北省;430034;China 中国
法泗街, 江夏区, 武汉市, 湖北省, China 中国;武汉市;关东街道;湖北省;430050;China 中国
未来二路, 左岭街道, 东湖新技术开发区（托管）, 洪山区, 武汉市, 湖北省, China 中国;武汉市;左岭街道;湖北省;430050;China 中国
107国道, 安山街, 江夏区, 武汉市, 湖北省, China 中国;武汉市;关东街道;湖北省;430050;China 中国
S122, 江夏区, 武汉市, 湖北省, China 中国;武汉市;江夏区;湖北省;430050;China 中国
团结街, 慈惠街道, 东西湖区, 武汉市, 湖北省, China 中国;武汉市;慈惠街道;湖北省;430050;China 中国
六指街道, 黄陂区, 武汉市, 湖北省, China 中国;武汉市;关东街道;湖北省;430050;China 中国
黄陂区, 武汉市, 湖北省, China 中国;武汉市;黄陂区;湖北省;430050;China 中国
王家河街, 黄陂区, 武汉市, 湖北省, China 中国;武汉市;关东街道;湖北省;430050;China 中国
豹澥街道, 东湖新技术开发区（托管）, 江夏区, 武汉市, 湖北省, 430073, China 中国;武汉市;豹澥街道;湖北省;430073;China 中国
罗汉寺街道, 黄陂区, 武汉市, 湖北省, China 中国;武汉市;关东街道;湖北省;430050;China 中国
涨渡湖街, 新洲区, 武汉市, 湖北省, China 中国;武汉市;关东街道;湖北省;430050;China 中国
三店街, 新洲区, 武汉市, 湖北省, China 中国;武汉市;关东街道;湖北省;430050;China 中国
S13, 沌口街道, 武汉经济技术开发区（托管）, 蔡甸区, 武汉市, 湖北省, China 中国;武汉市;沌口街道;湖北省;430050;China 中国
索河镇, 蔡甸区, 武汉市, 湖北省, China 中国;武汉市;关东街道;湖北省;430050;China 中国
徐古街道, 新洲区, 武汉市, 湖北省, China 中国;武汉市;关东街道;湖北省;430050;China 中国
永安街, 蔡甸区, 武汉市, 湖北省, China 中国;武汉市;关东街道;湖北省;430050;China 中国
慈惠街道, 东西湖区, 武汉市, 湖北省, China 中国;武汉市;慈惠街道;湖北省;430050;China 中国
玉贤镇, 蔡甸区, 武汉市, 湖北省, 430100, China 中国;武汉市;关东街道;湖北省;430100;China 中国
G318, 李集街, 新洲区, 武汉市, 湖北省, China 中国;武汉市;关东街道;湖北省;430050;China 中国
军山街道, 武汉经济技术开发区（托管）, 蔡甸区, 武汉市, 湖北省, China 中国;武汉市;军山街道;湖北省;430050;China 中国
民权街道, 江汉区, 武汉市, 湖北省, 430022, China 中国;武汉市;民权街道;湖北省;430022;China 中国
黄陂区, 武汉市, 湖北省, China 中国;武汉市;关东街道;湖北省;430050;China 中国
蔡甸区, 武汉市, 湖北省, 430101, China 中国;武汉市;蔡甸区;湖北省;430101;China 中国
徐古街道, 新洲区, 武汉市, 湖北省, China 中国;武汉市;关东街道;湖北省;430050;China 中国
黄陂区, 武汉市, 湖北省, China 中国;武汉市;关东街道;湖北省;430050;China 中国
木兰乡, 黄陂区, 武汉市, 湖北省, China 中国;武汉市;关东街道;湖北省;430050;China 中国
蔡甸区, 武汉市, 湖北省, 430100, China 中国;武汉市;蔡甸区;湖北省;430100;China 中国
流芳园北路, 佛祖岭街道, 东湖新技术开发区（托管）, 江夏区, 武汉市, 湖北省, China 中国;武汉市;佛祖岭街道;湖北省;430050;China 中国
红钢城街道, 青山区, 武汉市, 湖北省, 430080, China 中国;武汉市;红钢城街道;湖北省;430080;China 中国
李集街, 新洲区, 武汉市, 湖北省, China 中国;武汉市;关东街道;湖北省;430050;China 中国
新洲区, 武汉市, 湖北省, China 中国;武汉市;新洲区;湖北省;430050;China 中国
江夏区, 武汉市, 湖北省, China 中国;武汉市;江夏区;湖北省;430050;China 中国
江北快速路, 阳逻街, 新洲区, 武汉市, 湖北省, China 中国;武汉市;关东街道;湖北省;430050;China 中国
x009, 法泗街, 江夏区, 武汉市, 湖北省, China 中国;武汉市;关东街道;湖北省;430050;China 中国
江夏区, 武汉市, 湖北省, China 中国;武汉市;江夏区;湖北省;430050;China 中国
四環線 4the Ring Road, 北湖管委会, 武汉化学工业新区（托管）, 青山区, 武汉市, 湖北省, China 中国;武汉市;北湖管委会;湖北省;430050;China 中国
江堤街道, 汉阳区, 武汉市, 湖北省, 430050, China 中国;武汉市;江堤街道;湖北省;430050;China 中国
新洲区, 武汉市, 湖北省, China 中国;武汉市;新洲区;湖北省;430050;China 中国
团风县, 黄冈市, 湖北省, China 中国;武汉市;关东街道;湖北省;430050;China 中国
江北快速路, 黄陂区, 武汉市, 湖北省, China 中国;武汉市;关东街道;湖北省;430050;China 中国
港边田路, 佛祖岭街道, 东湖新技术开发区（托管）, 江夏区, 武汉市, 湖北省, 430073, China 中国;武汉市;佛祖岭街道;湖北省;430073;China 中国
小陈家湾, 黄陂区, 武汉市, 湖北省, China 中国;武汉市;关东街道;湖北省;430050;China 中国
消泗乡, 蔡甸区, 武汉市, 湖北省, China 中国;武汉市;关东街道;湖北省;430050;China 中国
汉十高速, 黄陂区, 武汉市, 湖北省, China 中国;武汉市;黄陂区;湖北省;430050;China 中国
双柳街, 新洲区, 武汉市, 湖北省, China 中国;武汉市;关东街道;湖北省;430050;China 中国
武汉绕城高速公路, 蔡甸区, 武汉市, 湖北省, 430100, China 中国;武汉市;蔡甸区;湖北省;430100;China 中国
黄陂区, 武汉市, 湖北省, China 中国;武汉市;黄陂区;湖北省;430050;China 中国
蔡店街道, 黄陂区, 武汉市, 湖北省, China 中国;武汉市;关东街道;湖北省;430050;China 中国
姚家集街道, 黄陂区, 武汉市, 湖北省, China 中国;武汉市;关东街道;湖北省;430050;China 中国
罗中线, 张家冲, 黄陂区, 武汉市, 湖北省, China 中国;武汉市;黄陂区;湖北省;430050;China 中国
舵落口大市场, 易家墩街道, 硚口区, 武汉市, 湖北省, China 中国;武汉市;易家墩街道;湖北省;430050;China 中国
G318, 张家冲, 韩家院, 黄陂区, 武汉市, 湖北省, China 中国;武汉市;关东街道;湖北省;430050;China 中国
双柳街, 新洲区, 武汉市, 湖北省, China 中国;武汉市;关东街道;湖北省;430050;China 中国
法泗街, 江夏区, 武汉市, 湖北省, China 中国;武汉市;关东街道;湖北省;430050;China 中国
姚家集街道, 黄陂区, 武汉市, 湖北省, China 中国;武汉市;关东街道;湖北省;430050;China 中国
汉南区, 武汉市, 湖北省, China 中国;武汉市;汉南区;湖北省;430050;China 中国
李家集街道, 黄陂区, 武汉市, 湖北省, China 中国;武汉市;关东街道;湖北省;430050;China 中国
科技一路, 鲍家村, 左岭街道, 东湖新技术开发区（托管）, 洪山区, 武汉市, 湖北省, 430075, China 中国;武汉市;左岭街道;湖北省;430075;China 中国
安山街, 江夏区, 武汉市, 湖北省, China 中国;武汉市;关东街道;湖北省;430050;China 中国
东山办事处, 东西湖区, 武汉市, 湖北省, China 中国;武汉市;东山办事处;湖北省;430050;China 中国
S111, 汪集街, 新洲区, 武汉市, 湖北省, China 中国;武汉市;关东街道;湖北省;430050;China 中国
汉南区, 武汉市, 湖北省, China 中国;武汉市;汉南区;湖北省;430050;China 中国
玉贤镇, 蔡甸区, 武汉市, 湖北省, 430100, China 中国;武汉市;关东街道;湖北省;430100;China 中国
滠口街道, 黄陂区, 武汉市, 湖北省, China 中国;武汉市;关东街道;湖北省;430050;China 中国
佛祖岭街道, 东湖新技术开发区（托管）, 江夏区, 武汉市, 湖北省, 430075, China 中国;武汉市;佛祖岭街道;湖北省;430075;China 中国
新洲区, 武汉市, 湖北省, 438803, China 中国;武汉市;新洲区;湖北省;438803;China 中国
李家集街道, 黄陂区, 武汉市, 湖北省, China 中国;武汉市;关东街道;湖北省;430050;China 中国
光谷三路, 佛祖岭街道, 东湖新技术开发区（托管）, 江夏区, 武汉市, 湖北省, 430073, China 中国;武汉市;佛祖岭街道;湖北省;430073;China 中国
李家集街道, 黄陂区, 武汉市, 湖北省, China 中国;武汉市;关东街道;湖北省;430050;China 中国
王家河街, 黄陂区, 武汉市, 湖北省, China 中国;武汉市;关东街道;湖北省;430050;China 中国
姚家集街道, 黄陂区, 武汉市, 湖北省, China 中国;武汉市;关东街道;湖北省;430050;China 中国
慈惠街道, 东西湖区, 武汉市, 湖北省, 430101, China 中国;武汉市;慈惠街道;湖北省;430101;China 中国
4th Ring Road, 径河街道 (Jinghe), 东西湖区, 武汉市, 湖北省, China 中国;武汉市;径河街道 (Jinghe);湖北省;430050;China 中国
X033, 旧街街道, 新洲区, 武汉市, 湖北省, China 中国;武汉市;关东街道;湖北省;430050;China 中国
新洲原种场, 新洲区, 武汉市, 湖北省, China 中国;武汉市;关东街道;湖北省;430050;China 中国
新洲区, 武汉市, 湖北省, China 中国;武汉市;关东街道;湖北省;430050;China 中国
新洲区, 武汉市, 湖北省, China 中国;武汉市;关东街道;湖北省;430050;China 中国
江夏区, 武汉市, 湖北省, China 中国;武汉市;江夏区;湖北省;430050;China 中国
蔡甸区, 武汉市, 湖北省, China 中国;武汉市;关东街道;湖北省;430050;China 中国
新洲区, 武汉市, 湖北省, China 中国;武汉市;新洲区;湖北省;430050;China 中国
金山大道, 长青街道 (Changking), 东西湖区, 武汉市, 湖北省, China 中国;武汉市;长青街道 (Changking);湖北省;430050;China 中国
李集街, 新洲区, 武汉市, 湖北省, China 中国;武汉市;关东街道;湖北省;430050;China 中国
左岭街道, 东湖新技术开发区（托管）, 洪山区, 武汉市, 湖北省, China 中国;武汉市;左岭街道;湖北省;430050;China 中国
新洲区, 武汉市, 湖北省, China 中国;武汉市;新洲区;湖北省;430050;China 中国
永安街, 蔡甸区, 武汉市, 湖北省, China 中国;武汉市;关东街道;湖北省;430050;China 中国
西院足球场, 洪达巷, 武汉理工大学西院校区, 珞南街道, 洪山区, 武汉市, 湖北省, 430079, China 中国;武汉市;珞南街道;湖北省;430079;China 中国
安山街, 江夏区, 武汉市, 湖北省, China 中国;武汉市;关东街道;湖北省;430050;China 中国
玉贤镇, 蔡甸区, 武汉市, 湖北省, 430100, China 中国;武汉市;关东街道;湖北省;430100;China 中国
江夏区, 纸坊街, 江夏区, 武汉市, 湖北省, China 中国;武汉市;关东街道;湖北省;430050;China 中国
新洲区, 武汉市, 湖北省, China 中国;武汉市;新洲区;湖北省;430050;China 中国
丹水池街道, 江岸区, 武汉市, 湖北省, China 中国;武汉市;丹水池街道;湖北省;430050;China 中国
新洲区, 武汉市, 湖北省, China 中国;武汉市;关东街道;湖北省;430050;China 中国
青菱街道, 洪山区, 武汉市, 湖北省, China 中国;武汉市;青菱街道;湖北省;430050;China 中国
李家集街道, 黄陂区, 武汉市, 湖北省, China 中国;武汉市;关东街道;湖北省;430050;China 中国
东西湖区, 武汉市, 湖北省, China 中国;武汉市;东西湖区;湖北省;430050;China 中国
蔡甸区汉新街, 蔡甸区, 武汉市, 湖北省, 430101, China 中国;武汉市;蔡甸区;湖北省;430101;China 中国
107国道, 安山街, 江夏区, 武汉市, 湖北省, China 中国;武汉市;关东街道;湖北省;430050;China 中国
仓埠街, 新洲区, 武汉市, 湖北省, China 中国;武汉市;关东街道;湖北省;430050;China 中国
巴山水库, 黄陂区, 武汉市, 湖北省, China 中国;武汉市;关东街道;湖北省;430050;China 中国
韩家墩街道, 硚口区, 武汉市, 湖北省, 430034, China 中国;武汉市;韩家墩街道;湖北省;430034;China 中国
江夏区, 武汉市, 湖北省, China 中国;武汉市;江夏区;湖北省;430050;China 中国
舒安街道, 江夏区, 武汉市, 湖北省, China 中国;武汉市;关东街道;湖北省;430050;China 中国
G106, 新洲区, 武汉市, 湖北省, China 中国;武汉市;新洲区;湖北省;430050;China 中国
汉南区, 武汉市, 湖北省, China 中国;武汉市;汉南区;湖北省;430050;China 中国
黄陂区, 武汉市, 湖北省, China 中国;武汉市;黄陂区;湖北省;430050;China 中国
火庙村, 黄陂区, 武汉市, 湖北省, China 中国;武汉市;黄陂区;湖北省;430050;China 中国
桐湖办事处, 蔡甸区, 武汉市, 湖北省, China 中国;武汉市;关东街道;湖北省;430050;China 中国
蔡甸区, 武汉市, 湖北省, China 中国;武汉市;关东街道;湖北省;430050;China 中国
蔡甸区, 武汉市, 湖北省, China 中国;武汉市;蔡甸区;湖北省;430050;China 中国
张家湾村, 东湖新技术开发区（托管）, 江夏区, 武汉市, 湖北省, China 中国;武汉市;关东街道;湖北省;430050;China 中国
S5G42S, 新洲区, 武汉市, 湖北省, China 中国;武汉市;新洲区;湖北省;430050;China 中国
蔡店街道, 黄陂区, 武汉市, 湖北省, China 中国;武汉市;关东街道;湖北省;430050;China 中国
汪集街, 新洲区, 武汉市, 湖北省, China 中国;武汉市;关东街道;湖北省;430050;China 中国
和平街道, 洪山区, 武汉市, 湖北省, 430080, China 中国;武汉市;和平街道;湖北省;430080;China 中国
黄陂区, 武汉市, 湖北省, China 中国;武汉市;黄陂区;湖北省;430050;China 中国
汪集街, 新洲区, 武汉市, 湖北省, China 中国;武汉市;关东街道;湖北省;430050;China 中国
东西湖区, 武汉市, 湖北省, China 中国;武汉市;东西湖区;湖北省;430050;China 中国
径河街道 (Jinghe), 东西湖区, 武汉市, 湖北省, China 中国;武汉市;径河街道 (Jinghe);湖北省;430050;China 中国
新洲区, 武汉市, 湖北省, China 中国;武汉市;新洲区;湖北省;430050;China 中国
鹦鹉街道, 汉阳区, 武汉市, 湖北省, 430050, China 中国;武汉市;鹦鹉街道;湖北省;430050;China 中国
三秀路, 吴家山街道, 东西湖区, 武汉市, 湖北省, China 中国;武汉市;吴家山街道;湖北省;430050;China 中国
环湖路, 金银湖街道, 东西湖区, 武汉市, 湖北省, China 中国;武汉市;金银湖街道;湖北省;430050;China 中国
新洲原种场, 新洲区, 武汉市, 湖北省, China 中国;武汉市;关东街道;湖北省;430050;China 中国
湖泗街道, 江夏区, 武汉市, 湖北省, China 中国;武汉市;关东街道;湖北省;430050;China 中国
山坡街道, 江夏区, 武汉市, 湖北省, China 中国;武汉市;关东街道;湖北省;430050;China 中国
桐湖办事处, 蔡甸区, 武汉市, 湖北省, China 中国;武汉市;关东街道;湖北省;430050;China 中国
李集街, 新洲区, 武汉市, 湖北省, China 中国;武汉市;关东街道;湖北省;430050;China 中国
徐古街道, 新洲区, 武汉市, 湖北省, China 中国;武汉市;关东街道;湖北省;430050;China 中国
新洲区, 武汉市, 湖北省, China 中国;武汉市;关东街道;湖北省;430050;China 中国
蔡家榨街道, 黄陂区, 武汉市, 湖北省, China 中国;武汉市;关东街道;湖北省;430050;China 中国
蔡甸区, 武汉市, 湖北省, China 中国;武汉市;蔡甸区;湖北省;430050;China 中国
饶子庄, 江夏区, 武汉市, 湖北省, China 中国;武汉市;关东街道;湖北省;430050;China 中国
小陈家湾, 黄陂区, 武汉市, 湖北省, China 中国;武汉市;关东街道;湖北省;430050;China 中国
青菱街道, 江夏区, 武汉市, 湖北省, China 中国;武汉市;青菱街道;湖北省;430050;China 中国
S110, 孝南区, 武汉市, 湖北省, China 中国;武汉市;关东街道;湖北省;430050;China 中国
木兰乡, 黄陂区, 武汉市, 湖北省, China 中国;武汉市;关东街道;湖北省;430050;China 中国
张家冲, 黄陂区, 武汉市, 湖北省, China 中国;武汉市;黄陂区;湖北省;430050;China 中国
走马岭街道, 东西湖区, 武汉市, 湖北省, China 中国;武汉市;关东街道;湖北省;430050;China 中国
新洲区, 武汉市, 湖北省, China 中国;武汉市;新洲区;湖北省;430050;China 中国
木兰山风景区, 黄陂区, 武汉市, 湖北省, China 中国;武汉市;关东街道;湖北省;430050;China 中国
金龙大街, 江夏区, 武汉市, 湖北省, China 中国;武汉市;江夏区;湖北省;430050;China 中国
黄陂区, 武汉市, 湖北省, China 中国;武汉市;黄陂区;湖北省;430050;China 中国
木兰乡, 黄陂区, 武汉市, 湖北省, China 中国;武汉市;关东街道;湖北省;430050;China 中国
武汉绕城高速公路, 江夏区, 郑店街, 江夏区, 武汉市, 湖北省, China 中国;武汉市;关东街道;湖北省;430050;China 中国
洪山街道, 洪山区, 武汉市, 湖北省, 430068, China 中国;武汉市;洪山街道;湖北省;430068;China 中国
蔡甸区, 武汉市, 湖北省, 430101, China 中国;武汉市;蔡甸区;湖北省;430101;China 中国
左岭街道, 东湖新技术开发区（托管）, 洪山区, 武汉市, 湖北省, China 中国;武汉市;左岭街道;湖北省;430050;China 中国
李集街, 新洲区, 武汉市, 湖北省, China 中国;武汉市;关东街道;湖北省;430050;China 中国
涨渡湖街, 新洲区, 武汉市, 湖北省, China 中国;武汉市;关东街道;湖北省;430050;China 中国
两湖隧道（东湖段）, 珞珈山街道, 东湖生态旅游风景区（托管）, 武昌区, 武汉市, 湖北省, 430072, China 中国;武汉市;珞珈山街道;湖北省;430072;China 中国
法泗街, 江夏区, 武汉市, 湖北省, China 中国;武汉市;关东街道;湖北省;430050;China 中国
木兰山风景区, 黄陂区, 武汉市, 湖北省, China 中国;武汉市;关东街道;湖北省;430050;China 中国
辛冲镇, 新洲区, 武汉市, 湖北省, China 中国;武汉市;关东街道;湖北省;430050;China 中国
新洲区, 武汉市, 湖北省, 438803, China 中国;武汉市;新洲区;湖北省;438803;China 中国
天兴村, 洪山区, 武汉市, 湖北省, 430080, China 中国;武汉市;关东街道;湖北省;430080;China 中国
军山街道, 武汉经济技术开发区（托管）, 蔡甸区, 武汉市, 湖北省, China 中国;武汉市;军山街道;湖北省;430050;China 中国
桐湖办事处, 蔡甸区, 武汉市, 湖北省, China 中国;武汉市;关东街道;湖北省;430050;China 中国
蔡甸区, 武汉市, 湖北省, China 中国;武汉市;蔡甸区;湖北省;430050;China 中国
黄陂区, 武汉市, 湖北省, China 中国;武汉市;关东街道;湖北省;430050;China 中国
X053, 新洲区, 武汉市, 湖北省, China 中国;武汉市;新洲区;湖北省;430050;China 中国
蔡家榨街道, 黄陂区, 武汉市, 湖北省, China 中国;武汉市;关东街道;湖北省;430050;China 中国
涨渡湖街, 新洲区, 武汉市, 湖北省, China 中国;武汉市;关东街道;湖北省;430050;China 中国
涨渡湖街, 新洲区, 武汉市, 湖北省, China 中国;武汉市;关东街道;湖北省;430050;China 中国
江夏区, 武汉市, 湖北省, China 中国;武汉市;江夏区;湖北省;430050;China 中国
X019, 消泗乡, 蔡甸区, 武汉市, 湖北省, China 中国;武汉市;关东街道;湖北省;430050;China 中国
新洲区, 武汉市, 湖北省, China 中国;武汉市;新洲区;湖北省;430050;China 中国
黄陂区, 武汉市, 湖北省, China 中国;武汉市;黄陂区;湖北省;430050;China 中国
X030, 银莲社区, 湘口街道, 汉南区, 武汉市, 湖北省, China 中国;武汉市;关东街道;湖北省;430050;China 中国
蔡甸区, 武汉市, 湖北省, China 中国;武汉市;蔡甸区;湖北省;430050;China 中国
东湖新技术开发区, 关东街道, 东湖新技术开发区（托管）, 洪山区, 武汉市, 湖北省, 430074, China 中国;武汉市;关东街道;湖北省;430074;China 中国
法泗街, 江夏区, 武汉市, 湖北省, China 中国;武汉市;关东街道;湖北省;430050;China 中国
东吴大道, 吴家山街道, 硚口区, 武汉市, 湖北省, China 中国;武汉市;吴家山街道;湖北省;430050;China 中国
汉十高速, 祁家湾街道, 黄陂区, 武汉市, 湖北省, China 中国;武汉市;关东街道;湖北省;430050;China 中国
永丰街道, 汉阳区, 武汉市, 湖北省, China 中国;武汉市;永丰街道;湖北省;430050;China 中国
吴游山湾, 新洲区, 武汉市, 湖北省, China 中国;武汉市;关东街道;湖北省;430050;China 中国
夏家寺水库, 69, 木兰乡, 黄陂区, 武汉市, 湖北省, China 中国;武汉市;关东街道;湖北省;430050;China 中国
涨渡湖街, 新洲区, 武汉市, 湖北省, China 中国;武汉市;关东街道;湖北省;430050;China 中国
蔡店街道, 黄陂区, 武汉市, 湖北省, China 中国;武汉市;关东街道;湖北省;430050;China 中国
蔡甸区, 武汉市, 湖北省, 430100, China 中国;武汉市;蔡甸区;湖北省;430100;China 中国
径河街, 东西湖区, 武汉市, 湖北省, China 中国;武汉市;关东街道;湖北省;430050;China 中国
武汉体育学院, 两湖隧道（南湖段）, 金桥社区, 卓刀泉街道, 东湖生态旅游风景区（托管）, 洪山区, 武汉市, 湖北省, 430079, China 中国;武汉市;卓刀泉街道;湖北省;430079;China 中国
天河街, 黄陂区, 武汉市, 湖北省, China 中国;武汉市;关东街道;湖北省;430050;China 中国
军山街道, 武汉经济技术开发区（托管）, 汉南区, 武汉市, 湖北省, China 中国;武汉市;军山街道;湖北省;430050;China 中国
G318, 蔡甸区, 武汉市, 湖北省, China 中国;武汉市;蔡甸区;湖北省;430050;China 中国
丹水池街道, 江岸区, 武汉市, 湖北省, 420112, China 中国;武汉市;丹水池街道;湖北省;420112;China 中国
郑店街, 江夏区, 武汉市, 湖北省, China 中国;武汉市;关东街道;湖北省;430050;China 中国
汤逊湖村, 洪山区, 武汉市, 湖北省, 430070, China 中国;武汉市;关东街道;湖北省;430070;China 中国
吴游山湾, 新洲区, 武汉市, 湖北省, China 中国;武汉市;关东街道;湖北省;430050;China 中国
新洲区, 武汉市, 湖北省, China 中国;武汉市;新洲区;湖北省;430050;China 中国
消泗乡, 蔡甸区, 武汉市, 湖北省, China 中国;武汉市;关东街道;湖北省;430050;China 中国
金银湖街道, 东西湖区, 武汉市, 湖北省, China 中国;武汉市;金银湖街道;湖北省;430050;China 中国
金水办事处, 江夏区, 武汉市, 湖北省, China 中国;武汉市;关东街道;湖北省;430050;China 中国
罗立村, 东湖新技术开发区（托管）, 江夏区, 武汉市, 湖北省, China 中国;武汉市;关东街道;湖北省;430050;China 中国
三里桥街道, 黄陂区, 武汉市, 湖北省, China 中国;武汉市;关东街道;湖北省;430050;China 中国
江夏区, 武汉市, 湖北省, China 中国;武汉市;江夏区;湖北省;430050;China 中国
白沙洲大道, 龚家铺, 青菱街道, 江夏区, 武汉市, 湖北省, 460065, China 中国;武汉市;青菱街道;湖北省;460065;China 中国
S108, 鲁台, 黄陂区, 武汉市, 湖北省, China 中国;武汉市;黄陂区;湖北省;430050;China 中国
新洲区, 武汉市, 湖北省, China 中国;武汉市;新洲区;湖北省;430050;China 中国
新洲区, 武汉市, 湖北省, China 中国;武汉市;新洲区;湖北省;430050;China 中国
蔡甸区, 武汉市, 湖北省, 430101, China 中国;武汉市;蔡甸区;湖北省;430101;China 中国
太平桥镇, 红安县, 黄冈市, 湖北省, China 中国;武汉市;关东街道;湖北省;430050;China 中国
江夏区, 武汉市, 湖北省, China 中国;武汉市;江夏区;湖北省;430050;China 中国
武汉绕城高速公路, 江夏区, 郑店街, 江夏区, 武汉市, 湖北省, China 中国;武汉市;关东街道;湖北省;430050;China 中国
祁家湾街道, 黄陂区, 武汉市, 湖北省, China 中国;武汉市;关东街道;湖北省;430050;China 中国
青菱街道, 江夏区, 武汉市, 湖北省, China 中国;武汉市;青菱街道;湖北省;430050;China 中国
长轩岭街道, 黄陂区, 武汉市, 湖北省, China 中国;武汉市;关东街道;湖北省;430050;China 中国
天兴乡, 洪山区, 武汉市, 湖北省, 430080, China 中国;武汉市;关东街道;湖北省;430080;China 中国
新洲区, 武汉市, 湖北省, China 中国;武汉市;关东街道;湖北省;430050;China 中国
大桥新区, 江夏区, 武汉市, 湖北省, China 中国;武汉市;关东街道;湖北省;430050;China 中国
乌龙泉街, 江夏区, 武汉市, 湖北省, China 中国;武汉市;关东街道;湖北省;430050;China 中国
江夏区, 武汉市, 湖北省, China 中国;武汉市;江夏区;湖北省;430050;China 中国
八吉府街道, 武汉化学工业新区（托管）, 洪山区, 武汉市, 湖北省, China 中国;武汉市;八吉府街道;湖北省;430050;China 中国
六指街道, 黄陂区, 武汉市, 湖北省, China 中国;武汉市;关东街道;湖北省;430050;China 中国
兴苑街, 江夏区, 武汉市, 湖北省, China 中国;武汉市;江夏区;湖北省;430050;China 中国
长轩岭街道, 黄陂区, 武汉市, 湖北省, China 中国;武汉市;关东街道;湖北省;430050;China 中国
S234, 黄陂区, 武汉市, 湖北省, China 中国;武汉市;黄陂区;湖北省;430050;China 中国
养殖场, 东湖新技术开发区（托管）, 江夏区, 武汉市, 湖北省, China 中国;武汉市;养殖场;湖北省;430050;China 中国
江夏区, 武汉市, 湖北省, China 中国;武汉市;江夏区;湖北省;430050;China 中国
嘉鱼县, 武汉市, 湖北省, China 中国;武汉市;关东街道;湖北省;430050;China 中国
潘塘街, 新洲区, 武汉市, 湖北省, China 中国;武汉市;关东街道;湖北省;430050;China 中国
舒安街道, 江夏区, 武汉市, 湖北省, China 中国;武汉市;关东街道;湖北省;430050;China 中国
武湖街道, 黄陂区, 武汉市, 湖北省, China 中国;武汉市;关东街道;湖北省;430050;China 中国
军山街道, 武汉经济技术开发区（托管）, 蔡甸区, 武汉市, 湖北省, China 中国;武汉市;军山街道;湖北省;430050;China 中国
东湖生态旅游风景区（托管）, 洪山区, 武汉市, 湖北省, China 中国;武汉市;关东街道;湖北省;430050;China 中国
郑店街, 江夏区, 武汉市, 湖北省, China 中国;武汉市;关东街道;湖北省;430050;China 中国
黄陂区, 武汉市, 湖北省, China 中国;武汉市;关东街道;湖北省;430050;China 中国
三环线, 后湖街道, 江岸区, 武汉市, 湖北省, 420112, China 中国;武汉市;后湖街道;湖北省;420112;China 中国
金银湖街道, 东西湖区, 武汉市, 湖北省, China 中国;武汉市;金银湖街道;湖北省;430050;China 中国
山坡街道, 江夏区, 武汉市, 湖北省, China 中国;武汉市;关东街道;湖北省;430050;China 中国
金色港灣, 沌口街道, 武汉经济技术开发区（托管）, 蔡甸区, 武汉市, 湖北省, 430056, China 中国;武汉市;沌口街道;湖北省;430056;China 中国
五里界街, 江夏区, 武汉市, 湖北省, China 中国;武汉市;关东街道;湖北省;430050;China 中国
S310, 鲁台, 黄陂区, 武汉市, 湖北省, China 中国;武汉市;黄陂区;湖北省;430050;China 中国
S5G42S, 新洲区, 武汉市, 湖北省, China 中国;武汉市;新洲区;湖北省;430050;China 中国
解放大道, 吴家山街道, 东西湖区, 武汉市, 湖北省, China 中国;武汉市;吴家山街道;湖北省;430050;China 中国
S112, 新洲原种场, 新洲区, 武汉市, 湖北省, 438800, China 中国;武汉市;关东街道;湖北省;438800;China 中国
武湖街道, 黄陂区, 武汉市, 湖北省, China 中国;武汉市;关东街道;湖北省;430050;China 中国
新洲区, 武汉市, 湖北省, China 中国;武汉市;新洲区;湖北省;430050;China 中国
长轩岭街道, 黄陂区, 武汉市, 湖北省, China 中国;武汉市;关东街道;湖北省;430050;China 中国
潘塘街, 新洲区, 武汉市, 湖北省, China 中国;武汉市;关东街道;湖北省;430050;China 中国
草塘角, 滠口街道, 黄陂区, 武汉市, 湖北省, China 中国;武汉市;关东街道;湖北省;430050;China 中国
贺胜桥镇, 咸安区, 咸宁市, 湖北省, China 中国;武汉市;关东街道;湖北省;430050;China 中国
消泗乡, 蔡甸区, 武汉市, 湖北省, China 中国;武汉市;关东街道;湖北省;430050;China 中国
八吉府街道, 武汉化学工业新区（托管）, 洪山区, 武汉市, 湖北省, China 中国;武汉市;八吉府街道;湖北省;430050;China 中国
六指街道, 黄陂区, 武汉市, 湖北省, China 中国;武汉市;关东街道;湖北省;430050;China 中国
团风县, 黄冈市, 湖北省, China 中国;武汉市;关东街道;湖北省;430050;China 中国
东山办事处, 东西湖区, 武汉市, 湖北省, China 中国;武汉市;关东街道;湖北省;430050;China 中国
奓山街, 蔡甸区, 武汉市, 湖北省, China 中国;武汉市;关东街道;湖北省;430050;China 中国
X030, 银莲社区, 湘口街道, 汉南区, 武汉市, 湖北省, China 中国;武汉市;关东街道;湖北省;430050;China 中国
奓山街, 蔡甸区, 武汉市, 湖北省, China 中国;武汉市;关东街道;湖北省;430050;China 中国
月湖街道, 汉阳区, 武汉市, 湖北省, 430030, China 中国;武汉市;月湖街道;湖北省;430030;China 中国
凤凰镇, 新洲区, 武汉市, 湖北省, China 中国;武汉市;关东街道;湖北省;430050;China 中国
九峰街道, 东湖新技术开发区（托管）, 洪山区, 武汉市, 湖北省, 430075, China 中国;武汉市;关东街道;湖北省;430075;China 中国
江夏区, 武汉市, 湖北省, China 中国;武汉市;江夏区;湖北省;430050;China 中国
桐湖办事处, 蔡甸区, 武汉市, 湖北省, China 中国;武汉市;关东街道;湖北省;430050;China 中国
横店街道, 黄陂区, 武汉市, 湖北省, China 中国;武汉市;关东街道;湖北省;430050;China 中国
佛祖岭三路, 佛祖岭街道, 东湖新技术开发区（托管）, 江夏区, 武汉市, 湖北省, 430073, China 中国;武汉市;佛祖岭街道;湖北省;430073;China 中国
草塘角, 滠口街道, 黄陂区, 武汉市, 湖北省, China 中国;武汉市;关东街道;湖北省;430050;China 中国
4th Ring Road, 径河街道 (Jinghe), 东西湖区, 武汉市, 湖北省, China 中国;武汉市;径河街道 (Jinghe);湖北省;430050;China 中国
武金堤, 青菱街道, 洪山区, 武汉市, 湖北省, 460065, China 中国;武汉市;青菱街道;湖北省;460065;China 中国
江北快速路, 武湖街道, 黄陂区, 武汉市, 湖北省, China 中国;武汉市;关东街道;湖北省;430050;China 中国
李家集街道, 黄陂区, 武汉市, 湖北省, China 中国;武汉市;关东街道;湖北省;430050;China 中国
运铎公园路, 蔡甸街, 蔡甸区, 武汉市, 湖北省, 430100, China 中国;武汉市;关东街道;湖北省;430100;China 中国
汪集街, 新洲区, 武汉市, 湖北省, China 中国;武汉市;关东街道;湖北省;430050;China 中国
江夏区, 武汉市, 湖北省, China 中国;武汉市;江夏区;湖北省;430050;China 中国
汉南区, 武汉市, 湖北省, China 中国;武汉市;汉南区;湖北省;430050;China 中国
潘塘街, 新洲区, 武汉市, 湖北省, China 中国;武汉市;关东街道;湖北省;430050;China 中国
环湖路, 金银湖街道, 东西湖区, 武汉市, 湖北省, China 中国;武汉市;金银湖街道;湖北省;430050;China 中国
长轩岭街道, 黄陂区, 武汉市, 湖北省, China 中国;武汉市;关东街道;湖北省;430050;China 中国
S13, 汉南区, 武汉市, 湖北省, China 中国;武汉市;汉南区;湖北省;430050;China 中国
S110, 孝南区, 武汉市, 湖北省, China 中国;武汉市;关东街道;湖北省;430050;China 中国
银莲社区, 湘口街道, 汉南区, 武汉市, 湖北省, China 中国;武汉市;关东街道;湖北省;430050;China 中国
滠口街道, 黄陂区, 武汉市, 湖北省, China 中国;武汉市;关东街道;湖北省;430050;China 中国
东湖生态旅游风景区（托管）, 洪山区, 武汉市, 湖北省, China 中国;武汉市;关东街道;湖北省;430050;China 中国
黄陂区, 武汉市, 湖北省, China 中国;武汉市;黄陂区;湖北省;430050;China 中国
北京 - 香港, 长青街道 (Changking), 东西湖区, 武汉市, 湖北省, China 中国;武汉市;长青街道 (Changking);湖北省;430050;China 中国
江夏区, 武汉市, 湖北省, China 中国;武汉市;江夏区;湖北省;430050;China 中国
法泗街, 江夏区, 武汉市, 湖北省, China 中国;武汉市;关东街道;湖北省;430050;China 中国
金水办事处, 江夏区, 武汉市, 湖北省, China 中国;武汉市;关东街道;湖北省;430050;China 中国
黄陂区, 武汉市, 湖北省, China 中国;武汉市;黄陂区;湖北省;430050;China 中国
徐古街道, 新洲区, 武汉市, 湖北省, China 中国;武汉市;关东街道;湖北省;430050;China 中国
张家湾村, 东湖新技术开发区（托管）, 江夏区, 武汉市, 湖北省, China 中国;武汉市;关东街道;湖北省;430050;China 中国
永安街, 蔡甸区, 武汉市, 湖北省, China 中国;武汉市;关东街道;湖北省;430050;China 中国
武汉绕城高速公路, 金港新区, 江夏区, 武汉市, 湖北省, China 中国;武汉市;关东街道;湖北省;430050;China 中国
蔡家榨街道, 黄陂区, 武汉市, 湖北省, China 中国;武汉市;关东街道;湖北省;430050;China 中国
武汉绕城高速公路, 黄陂区, 武汉市, 湖北省, China 中国;武汉市;黄陂区;湖北省;430050;China 中国
黄陂区, 武汉市, 湖北省, China 中国;武汉市;关东街道;湖北省;430050;China 中国
小陈家湾, 黄陂区, 武汉市, 湖北省, China 中国;武汉市;关东街道;湖北省;430050;China 中国
黄陂区, 武汉市, 湖北省, China 中国;武汉市;黄陂区;湖北省;430050;China 中国
消泗乡, 蔡甸区, 武汉市, 湖北省, China 中国;武汉市;关东街道;湖北省;430050;China 中国
火庙村, 黄陂区, 武汉市, 湖北省, China 中国;武汉市;黄陂区;湖北省;430050;China 中国
新洲区, 武汉市, 湖北省, China 中国;武汉市;关东街道;湖北省;430050;China 中国
安山街, 江夏区, 武汉市, 湖北省, China 中国;武汉市;关东街道;湖北省;430050;China 中国
徐古街道, 新洲区, 武汉市, 湖北省, China 中国;武汉市;关东街道;湖北省;430050;China 中国
S109, 新洲区, 武汉市, 湖北省, China 中国;武汉市;关东街道;湖北省;430050;China 中国
湘口街道, 汉南区, 武汉市, 湖北省, China 中国;武汉市;湘口街道;湖北省;430050;China 中国
S104, 玉贤镇, 蔡甸区, 武汉市, 湖北省, 430100, China 中国;武汉市;关东街道;湖北省;430100;China 中国
X008, 湖泗街道, 江夏区, 武汉市, 湖北省, China 中国;武汉市;关东街道;湖北省;430050;China 中国
九峰街道, 东湖新技术开发区（托管）, 洪山区, 武汉市, 湖北省, 430073, China 中国;武汉市;关东街道;湖北省;430073;China 中国
京珠高速, 江夏区, 武汉市, 湖北省, China 中国;武汉市;关东街道;湖北省;430050;China 中国
磨山景区, 鲁磨路, 东湖生态旅游风景区（托管）, 武昌区, 武汉市, 湖北省, 430074, China 中国;武汉市;武昌区;湖北省;430074;China 中国
黄陂区, 武汉市, 湖北省, China 中国;武汉市;关东街道;湖北省;430050;China 中国
木兰山风景区, 黄陂区, 武汉市, 湖北省, China 中国;武汉市;关东街道;湖北省;430050;China 中国
水果湖街道, 武昌区, 武汉市, 湖北省, 430000, China 中国;武汉市;水果湖街道;湖北省;430000;China 中国
蔡甸区, 武汉市, 湖北省, China 中国;武汉市;关东街道;湖北省;430050;China 中国
沿江大道, 民族街道, 江汉区, 武汉市, 湖北省, 230060, China 中国;武汉市;民族街道;湖北省;230060;China 中国
九康路, 大集街, 蔡甸区, 武汉市, 湖北省, 430100, China 中国;武汉市;关东街道;湖北省;430100;China 中国
S108, 黄陂区, 武汉市, 湖北省, China 中国;武汉市;黄陂区;湖北省;430050;China 中国
乌龙泉街, 江夏区, 武汉市, 湖北省, China 中国;武汉市;关东街道;湖北省;430050;China 中国
S310, 鲁台, 黄陂区, 武汉市, 湖北省, China 中国;武汉市;黄陂区;湖北省;430050;China 中国
G106, 新洲区, 武汉市, 湖北省, China 中国;武汉市;关东街道;湖北省;430050;China 中国
新洲原种场, 新洲区, 武汉市, 湖北省, China 中国;武汉市;关东街道;湖北省;430050;China 中国
李家集街道, 黄陂区, 武汉市, 湖北省, China 中国;武汉市;关东街道;湖北省;430050;China 中国
杜皮乡, 团风县, 黄冈市, 湖北省, 438808, China 中国;武汉市;关东街道;湖北省;438808;China 中国
百曲公路, 消泗乡, 蔡甸区, 武汉市, 湖北省, China 中国;武汉市;关东街道;湖北省;430050;China 中国
黄陂区, 武汉市, 湖北省, China 中国;武汉市;关东街道;湖北省;430050;China 中国
四新管委会, 汉阳区, 武汉市, 湖北省, 430056, China 中国;武汉市;四新管委会;湖北省;430056;China 中国
方家咀村, 东湖新技术开发区（托管）, 江夏区, 武汉市, 湖北省, China 中国;武汉市;关东街道;湖北省;430050;China 中国
江夏区, 武汉市, 湖北省, 430073, China 中国;武汉市;关东街道;湖北省;430073;China 中国
S112, 新洲原种场, 新洲区, 武汉市, 湖北省, 438800, China 中国;武汉市;关东街道;湖北省;438800;China 中国
涨渡湖街, 新洲区, 武汉市, 湖北省, China 中国;武汉市;关东街道;湖北省;430050;China 中国
黄陂区, 武汉市, 湖北省, China 中国;武汉市;黄陂区;湖北省;430050;China 中国
天河街, 黄陂区, 武汉市, 湖北省, China 中国;武汉市;关东街道;湖北省;430050;China 中国
山坡街道, 江夏区, 武汉市, 湖北省, China 中国;武汉市;关东街道;湖北省;430050;China 中国
武汉财政学校, 玫瑰街, 江汉二桥街道, 汉阳区, 武汉市, 湖北省, 430034, China 中国;武汉市;江汉二桥街道;湖北省;430034;China 中国
徐古街道, 新洲区, 武汉市, 湖北省, China 中国;武汉市;关东街道;湖北省;430050;China 中国
九峰街道, 东湖新技术开发区（托管）, 洪山区, 武汉市, 湖北省, 430073, China 中国;武汉市;关东街道;湖北省;430073;China 中国
八吉府街, 武汉化学工业新区（托管）, 洪山区, 武汉市, 湖北省, China 中国;武汉市;关东街道;湖北省;430050;China 中国
文化大道, 洪山街道, 洪山区, 武汉市, 湖北省, 430068, China 中国;武汉市;洪山街道;湖北省;430068;China 中国
金水办事处, 江夏区, 武汉市, 湖北省, China 中国;武汉市;关东街道;湖北省;430050;China 中国
武汉绕城高速公路, 草塘角, 火庙村, 黄陂区, 武汉市, 湖北省, China 中国;武汉市;关东街道;湖北省;430050;China 中国
黄陂区, 武汉市, 湖北省, China 中国;武汉市;关东街道;湖北省;430050;China 中国
谌家矶街道, 江岸区, 武汉市, 湖北省, 430080, China 中国;武汉市;谌家矶街道;湖北省;430080;China 中国
大桥新区, 江夏区, 武汉市, 湖北省, China 中国;武汉市;关东街道;湖北省;430050;China 中国
G42, 黄陂区, 武汉市, 湖北省, China 中国;武汉市;黄陂区;湖北省;430050;China 中国
木兰山风景区, 黄陂区, 武汉市, 湖北省, China 中国;武汉市;关东街道;湖北省;430050;China 中国
武湖街道, 黄陂区, 武汉市, 湖北省, China 中国;武汉市;关东街道;湖北省;430050;China 中国
牛山湖养殖场, 东湖新技术开发区（托管）, 江夏区, 武汉市, 湖北省, China 中国;武汉市;牛山湖养殖场;湖北省;430050;China 中国
X019, 消泗乡, 蔡甸区, 武汉市, 湖北省, China 中国;武汉市;关东街道;湖北省;430050;China 中国
黄陂区, 武汉市, 湖北省, China 中国;武汉市;黄陂区;湖北省;430050;China 中国
新洲区, 武汉市, 湖北省, China 中国;武汉市;关东街道;湖北省;430050;China 中国
团风县, 黄冈市, 湖北省, China 中国;武汉市;关东街道;湖北省;430050;China 中国
玉兰苑北区, 珞南街道, 洪山区, 武汉市, 湖北省, 430079, China 中国;武汉市;珞南街道;湖北省;430079;China 中国
X019, 消泗乡, 蔡甸区, 武汉市, 湖北省, China 中国;武汉市;关东街道;湖北省;430050;China 中国
新洲原种场, 新洲区, 武汉市, 湖北省, China 中国;武汉市;关东街道;湖北省;430050;China 中国
牛山湖养殖场, 东湖新技术开发区（托管）, 江夏区, 武汉市, 湖北省, China 中国;武汉市;牛山湖养殖场;湖北省;430050;China 中国
涨渡湖街, 新洲区, 武汉市, 湖北省, China 中国;武汉市;关东街道;湖北省;430050;China 中国
黄陂区, 武汉市, 湖北省, China 中国;武汉市;关东街道;湖北省;430050;China 中国
流芳街道, 东湖新技术开发区（托管）, 江夏区, 武汉市, 湖北省, 430073, China 中国;武汉市;流芳街道;湖北省;430073;China 中国
军山街道, 武汉经济技术开发区（托管）, 蔡甸区, 武汉市, 湖北省, China 中国;武汉市;军山街道;湖北省;430050;China 中国
沪渝高速, 永安街, 蔡甸区, 武汉市, 湖北省, China 中国;武汉市;关东街道;湖北省;430050;China 中国
东西湖大堤, 东山办事处, 东西湖区, 武汉市, 湖北省, China 中国;武汉市;关东街道;湖北省;430050;China 中国
武汉绕城高速公路, 军山街道, 武汉经济技术开发区（托管）, 蔡甸区, 武汉市, 湖北省, China 中国;武汉市;军山街道;湖北省;430050;China 中国
舒安街道, 江夏区, 武汉市, 湖北省, China 中国;武汉市;关东街道;湖北省;430050;China 中国
武汉绕城高速公路, 黄陂区, 武汉市, 湖北省, China 中国;武汉市;黄陂区;湖北省;430050;China 中国
新洲区, 武汉市, 湖北省, China 中国;武汉市;关东街道;湖北省;430050;China 中国
湖泗街道, 江夏区, 武汉市, 湖北省, China 中国;武汉市;湖泗街道;湖北省;430050;China 中国
新洲区, 武汉市, 湖北省, China 中国;武汉市;新洲区;湖北省;430050;China 中国
蔡甸区, 武汉市, 湖北省, China 中国;武汉市;关东街道;湖北省;430050;China 中国
永安街, 蔡甸区, 武汉市, 湖北省, China 中国;武汉市;关东街道;湖北省;430050;China 中国
安山街, 江夏区, 武汉市, 湖北省, China 中国;武汉市;关东街道;湖北省;430050;China 中国
涨渡湖街, 新洲区, 武汉市, 湖北省, China 中国;武汉市;关东街道;湖北省;430050;China 中国
四新管委会, 武汉经济技术开发区（托管）, 汉阳区, 武汉市, 湖北省, 430056, China 中国;武汉市;四新管委会;湖北省;430056;China 中国
蔡甸区, 武汉市, 湖北省, China 中国;武汉市;蔡甸区;湖北省;430050;China 中国
金水办事处, 江夏区, 武汉市, 湖北省, China 中国;武汉市;关东街道;湖北省;430050;China 中国
S234, 蔡家榨街道, 黄陂区, 武汉市, 湖北省, China 中国;武汉市;关东街道;湖北省;430050;China 中国
G318, 新洲区, 武汉市, 湖北省, China 中国;武汉市;新洲区;湖北省;430050;China 中国
武汉绕城高速公路, 仓埠街, 新洲区, 武汉市, 湖北省, China 中国;武汉市;关东街道;湖北省;430050;China 中国
左岭街道, 东湖新技术开发区（托管）, 洪山区, 武汉市, 湖北省, China 中国;武汉市;左岭街道;湖北省;430050;China 中国
常福新城, 蔡甸区, 武汉市, 湖北省, China 中国;武汉市;关东街道;湖北省;430050;China 中国
祁家湾街道, 黄陂区, 武汉市, 湖北省, China 中国;武汉市;关东街道;湖北省;430050;China 中国
六指街道, 黄陂区, 武汉市, 湖北省, China 中国;武汉市;关东街道;湖北省;430050;China 中国
纸贺线, 江夏区, 乌龙泉街, 江夏区, 武汉市, 湖北省, China 中国;武汉市;关东街道;湖北省;430050;China 中国
武湖街道, 黄陂区, 武汉市, 湖北省, China 中国;武汉市;关东街道;湖北省;430050;China 中国
消泗乡, 蔡甸区, 武汉市, 湖北省, China 中国;武汉市;关东街道;湖北省;430050;China 中国
八吉府街道, 武汉化学工业新区（托管）, 洪山区, 武汉市, 湖北省, China 中国;武汉市;八吉府街道;湖北省;430050;China 中国
大潭原种场, 黄陂区, 武汉市, 湖北省, China 中国;武汉市;关东街道;湖北省;430050;China 中国
军山街道, 武汉经济技术开发区（托管）, 蔡甸区, 武汉市, 湖北省, China 中国;武汉市;军山街道;湖北省;430050;China 中国
双柳街, 新洲区, 武汉市, 湖北省, China 中国;武汉市;关东街道;湖北省;430050;China 中国
六指街道, 黄陂区, 武汉市, 湖北省, China 中国;武汉市;关东街道;湖北省;430050;China 中国
双柳街, 新洲区, 武汉市, 湖北省, China 中国;武汉市;关东街道;湖北省;430050;China 中国
山坡街道, 江夏区, 武汉市, 湖北省, China 中国;武汉市;关东街道;湖北省;430050;China 中国
长轩岭街道, 黄陂区, 武汉市, 湖北省, China 中国;武汉市;关东街道;湖北省;430050;China 中国
徐古街道, 新洲区, 武汉市, 湖北省, China 中国;武汉市;关东街道;湖北省;430050;China 中国
郑店街, 江夏区, 武汉市, 湖北省, China 中国;武汉市;关东街道;湖北省;430050;China 中国
新洲区, 武汉市, 湖北省, China 中国;武汉市;关东街道;湖北省;430050;China 中国
张家湾街道, 洪山区, 武汉市, 湖北省, 460065, China 中国;武汉市;关东街道;湖北省;460065;China 中国
祁家湾街道, 黄陂区, 武汉市, 湖北省, China 中国;武汉市;关东街道;湖北省;430050;China 中国
李家集街道, 黄陂区, 武汉市, 湖北省, China 中国;武汉市;关东街道;湖北省;430050;China 中国
山湖村, 东湖新技术开发区（托管）, 洪山区, 武汉市, 湖北省, China 中国;武汉市;关东街道;湖北省;430050;China 中国
107国道, 安山街, 江夏区, 武汉市, 湖北省, China 中国;武汉市;关东街道;湖北省;430050;China 中国
军山街道, 武汉经济技术开发区（托管）, 蔡甸区, 武汉市, 湖北省, China 中国;武汉市;军山街道;湖北省;430050;China 中国
双柳街, 新洲区, 武汉市, 湖北省, China 中国;武汉市;关东街道;湖北省;430050;China 中国
沿河大道, 汉中街道, 硚口区, 武汉市, 湖北省, 430030, China 中国;武汉市;汉中街道;湖北省;430030;China 中国
杨桥湖北路, 江夏区, 武汉市, 湖北省, China 中国;武汉市;江夏区;湖北省;430050;China 中国
三店街, 新洲区, 武汉市, 湖北省, China 中国;武汉市;关东街道;湖北省;430050;China 中国
涨渡湖街, 新洲区, 武汉市, 湖北省, China 中国;武汉市;关东街道;湖北省;430050;China 中国
庙岭镇, 鄂州市, 华容区, 湖北省, China 中国;武汉市;鄂州市;湖北省;430050;China 中国
消泗乡, 蔡甸区, 武汉市, 湖北省, China 中国;武汉市;关东街道;湖北省;430050;China 中国
惠安大道, 辛安渡办事处, 东西湖区, 武汉市, 湖北省, China 中国;武汉市;关东街道;湖北省;430050;China 中国
五里界街, 江夏区, 武汉市, 湖北省, China 中国;武汉市;关东街道;湖北省;430050;China 中国
武金堤, 张家湾街道, 洪山区, 武汉市, 湖北省, 460065, China 中国;武汉市;关东街道;湖北省;460065;China 中国
蔡店街道, 黄陂区, 武汉市, 湖北省, China 中国;武汉市;关东街道;湖北省;430050;China 中国
新洲区, 武汉市, 湖北省, China 中国;武汉市;新洲区;湖北省;430050;China 中国
徐古街道, 新洲区, 武汉市, 湖北省, China 中国;武汉市;关东街道;湖北省;430050;China 中国
郑店街, 江夏区, 武汉市, 湖北省, China 中国;武汉市;关东街道;湖北省;430050;China 中国
姚家集街道, 黄陂区, 武汉市, 湖北省, China 中国;武汉市;关东街道;湖北省;430050;China 中国
梁子湖风景区, 江夏区, 武汉市, 湖北省, China 中国;武汉市;关东街道;湖北省;430050;China 中国
飞虹大道, 沌口街道, 武汉经济技术开发区（托管）, 蔡甸区, 武汉市, 湖北省, 430056, China 中国;武汉市;沌口街道;湖北省;430056;China 中国
张湾街, 蔡甸区, 武汉市, 湖北省, China 中国;武汉市;关东街道;湖北省;430050;China 中国
新洲区, 武汉市, 湖北省, 438803, China 中国;武汉市;新洲区;湖北省;438803;China 中国
凤凰镇, 新洲区, 武汉市, 湖北省, China 中国;武汉市;关东街道;湖北省;430050;China 中国
金水办事处, 江夏区, 武汉市, 湖北省, China 中国;武汉市;关东街道;湖北省;430050;China 中国
吴泗村, 江夏区, 武汉市, 湖北省, China 中国;武汉市;关东街道;湖北省;430050;China 中国
S314, 湖泗街道, 江夏区, 黄石市, 湖北省, China 中国;武汉市;黄石市;湖北省;430050;China 中国
金口街, 江夏区, 武汉市, 湖北省, China 中国;武汉市;关东街道;湖北省;430050;China 中国
S314, 湖泗街道, 江夏区, 黄石市, 湖北省, China 中国;武汉市;黄石市;湖北省;430050;China 中国
东湖生态旅游风景区（托管）, 洪山区, 武汉市, 湖北省, China 中国;武汉市;关东街道;湖北省;430050;China 中国
蔡甸区, 武汉市, 湖北省, 430100, China 中国;武汉市;蔡甸区;湖北省;430100;China 中国
G318, 蔡甸区, 武汉市, 湖北省, China 中国;武汉市;蔡甸区;湖北省;430050;China 中国
4th Ring Road, 沌口街道, 武汉经济技术开发区（托管）, 蔡甸区, 武汉市, 湖北省, 430056, China 中国;武汉市;沌口街道;湖北省;430056;China 中国
武钢集团, 厂前街道, 青山区, 武汉市, 湖北省, China 中国;武汉市;厂前街道;湖北省;430050;China 中国
安山街, 江夏区, 武汉市, 湖北省, China 中国;武汉市;关东街道;湖北省;430050;China 中国
桐湖办事处, 蔡甸区, 武汉市, 湖北省, China 中国;武汉市;关东街道;湖北省;430050;China 中国
硚孝高速, 径河街道 (Jinghe), 东西湖区, 武汉市, 湖北省, China 中国;武汉市;径河街道 (Jinghe);湖北省;430050;China 中国
张湾街, 蔡甸区, 武汉市, 湖北省, China 中国;武汉市;关东街道;湖北省;430050;China 中国
柏泉办事处, 东西湖区, 武汉市, 湖北省, China 中国;武汉市;关东街道;湖北省;430050;China 中国
侏儒街, 蔡甸区, 武汉市, 湖北省, China 中国;武汉市;关东街道;湖北省;430050;China 中国
罗汉寺街道, 黄陂区, 武汉市, 湖北省, China 中国;武汉市;关东街道;湖北省;430050;China 中国
江夏区, 武汉市, 湖北省, China 中国;武汉市;关东街道;湖北省;430050;China 中国
涨渡湖街, 新洲区, 武汉市, 湖北省, China 中国;武汉市;关东街道;湖北省;430050;China 中国
山坡街道, 江夏区, 武汉市, 湖北省, China 中国;武汉市;关东街道;湖北省;430050;China 中国
潘塘街, 新洲区, 武汉市, 湖北省, China 中国;武汉市;关东街道;湖北省;430050;China 中国
辛安渡办事处, 东西湖区, 武汉市, 湖北省, China 中国;武汉市;关东街道;湖北省;430050;China 中国
辛冲镇, 新洲区, 武汉市, 湖北省, China 中国;武汉市;关东街道;湖北省;430050;China 中国
涨渡湖街, 新洲区, 武汉市, 湖北省, 438800, China 中国;武汉市;关东街道;湖北省;438800;China 中国
武汉-深圳高速公路, 法泗街, 江夏区, 武汉市, 湖北省, China 中国;武汉市;关东街道;湖北省;430050;China 中国
江家畈, 江夏区, 武汉市, 湖北省, China 中国;武汉市;关东街道;湖北省;430050;China 中国
王家河街, 黄陂区, 武汉市, 湖北省, China 中国;武汉市;关东街道;湖北省;430050;China 中国
东西湖区, 黄陂区, 武汉市, 湖北省, China 中国;武汉市;东西湖区;湖北省;430050;China 中国
罗汉寺街道, 黄陂区, 武汉市, 湖北省, China 中国;武汉市;关东街道;湖北省;430050;China 中国
武汉绕城高速公路, 黄陂区, 武汉市, 湖北省, China 中国;武汉市;黄陂区;湖北省;430050;China 中国
黄陂区, 武汉市, 湖北省, China 中国;武汉市;黄陂区;湖北省;430050;China 中国
白玉山街道, 青山区, 武汉市, 湖北省, China 中国;武汉市;白玉山街道;湖北省;430050;China 中国
六指街道, 黄陂区, 武汉市, 湖北省, China 中国;武汉市;关东街道;湖北省;430050;China 中国
凤凰镇, 新洲区, 武汉市, 湖北省, China 中国;武汉市;关东街道;湖北省;430050;China 中国
汉南区, 武汉市, 湖北省, China 中国;武汉市;汉南区;湖北省;430050;China 中国
机场二通道, 楼子湾, 黄陂区, 武汉市, 湖北省, China 中国;武汉市;关东街道;湖北省;430050;China 中国
双柳街, 新洲区, 武汉市, 湖北省, China 中国;武汉市;关东街道;湖北省;430050;China 中国
S102, 金港新区, 江夏区, 武汉市, 湖北省, China 中国;武汉市;关东街道;湖北省;430050;China 中国
S122, 江夏区, 武汉市, 湖北省, China 中国;武汉市;江夏区;湖北省;430050;China 中国
汪集街, 新洲区, 武汉市, 湖北省, China 中国;武汉市;关东街道;湖北省;430050;China 中国
X053, 新洲区, 武汉市, 湖北省, China 中国;武汉市;新洲区;湖北省;430050;China 中国
庙岭镇, 鄂州市, 华容区, 湖北省, China 中国;武汉市;鄂州市;湖北省;430050;China 中国
东荆街, 汉南区, 武汉市, 湖北省, China 中国;武汉市;关东街道;湖北省;430050;China 中国
蔡甸区, 武汉市, 湖北省, China 中国;武汉市;关东街道;湖北省;430050;China 中国
六指街道, 黄陂区, 武汉市, 湖北省, China 中国;武汉市;关东街道;湖北省;430050;China 中国
新洲区, 武汉市, 湖北省, China 中国;武汉市;新洲区;湖北省;430050;China 中国
江夏区, 武汉市, 湖北省, China 中国;武汉市;江夏区;湖北省;430050;China 中国
滠口线路所, 三环线, 谌家矶街道, 江岸区, 武汉市, 湖北省, China 中国;武汉市;谌家矶街道;湖北省;430050;China 中国
长轩岭街道, 黄陂区, 武汉市, 湖北省, China 中国;武汉市;关东街道;湖北省;430050;China 中国
李家集街道, 黄陂区, 武汉市, 湖北省, China 中国;武汉市;关东街道;湖北省;430050;China 中国
新洲区, 武汉市, 湖北省, China 中国;武汉市;关东街道;湖北省;430050;China 中国
花山街道, 东湖新技术开发区（托管）, 洪山区, 武汉市, 湖北省, China 中国;武汉市;花山街道;湖北省;430050;China 中国
左岭街道, 东湖新技术开发区（托管）, 洪山区, 武汉市, 湖北省, China 中国;武汉市;左岭街道;湖北省;430050;China 中国
京珠高速, 安山街, 江夏区, 武汉市, 湖北省, China 中国;武汉市;关东街道;湖北省;430050;China 中国
纸坊大街, 江夏区, 石洞街, 江夏区, 武汉市, 湖北省, China 中国;武汉市;关东街道;湖北省;430050;China 中国
横店街道, 黄陂区, 武汉市, 湖北省, China 中国;武汉市;关东街道;湖北省;430050;China 中国
徐古街道, 新洲区, 武汉市, 湖北省, China 中国;武汉市;关东街道;湖北省;430050;China 中国
科技三路, 豹澥街道, 东湖新技术开发区（托管）, 洪山区, 武汉市, 湖北省, China 中国;武汉市;豹澥街道;湖北省;430050;China 中国
旧街街道, 新洲区, 武汉市, 湖北省, China 中国;武汉市;关东街道;湖北省;430050;China 中国
韵苑, 东湖新技术开发区, 关东街道, 东湖新技术开发区（托管）, 洪山区, 武汉市, 湖北省, 430074, China 中国;武汉市;关东街道;湖北省;430074;China 中国
侏儒街, 蔡甸区, 武汉市, 湖北省, China 中国;武汉市;关东街道;湖北省;430050;China 中国
金港新区, 江夏区, 武汉市, 湖北省, China 中国;武汉市;关东街道;湖北省;430050;China 中国
牛山湖养殖场, 东湖新技术开发区（托管）, 江夏区, 武汉市, 湖北省, China 中国;武汉市;牛山湖养殖场;湖北省;430050;China 中国
金水办事处, 江夏区, 武汉市, 湖北省, China 中国;武汉市;关东街道;湖北省;430050;China 中国
科技五路, 豹澥街道, 东湖新技术开发区（托管）, 洪山区, 武汉市, 湖北省, China 中国;武汉市;豹澥街道;湖北省;430050;China 中国
江北快速路, 丹水池街道, 江岸区, 武汉市, 湖北省, 430080, China 中国;武汉市;丹水池街道;湖北省;430080;China 中国
S5G42S, 黄陂区, 武汉市, 湖北省, China 中国;武汉市;黄陂区;湖北省;430050;China 中国
武汉科技大学附属汉阳医院, 二环线, 五里墩街道, 汉阳区, 武汉市, 湖北省, 430030, China 中国;武汉市;五里墩街道;湖北省;430030;China 中国
武汉市后官湖绿道, 蔡甸区, 武汉市, 湖北省, 430101, China 中国;武汉市;蔡甸区;湖北省;430101;China 中国
红安县, 黄冈市, 湖北省, China 中国;武汉市;关东街道;湖北省;430050;China 中国
新洲区, 武汉市, 湖北省, China 中国;武汉市;关东街道;湖北省;430050;China 中国
徐古街道, 新洲区, 武汉市, 湖北省, China 中国;武汉市;关东街道;湖北省;430050;China 中国
湘口街道, 汉南区, 武汉市, 湖北省, China 中国;武汉市;湘口街道;湖北省;430050;China 中国
新洲区, 武汉市, 湖北省, China 中国;武汉市;新洲区;湖北省;430050;China 中国
木兰山风景区, 黄陂区, 武汉市, 湖北省, China 中国;武汉市;关东街道;湖北省;430050;China 中国
长轩岭街道, 黄陂区, 武汉市, 湖北省, China 中国;武汉市;关东街道;湖北省;430050;China 中国
走马岭街道, 东西湖区, 武汉市, 湖北省, China 中国;武汉市;关东街道;湖北省;430050;China 中国
光霞路, 张家湾街道, 洪山区, 武汉市, 湖北省, 460065, China 中国;武汉市;关东街道;湖北省;460065;China 中国
潘塘街, 新洲区, 武汉市, 湖北省, China 中国;武汉市;关东街道;湖北省;430050;China 中国
潘塘街, 新洲区, 武汉市, 湖北省, China 中国;武汉市;关东街道;湖北省;430050;China 中国
金水办事处, 江夏区, 武汉市, 湖北省, China 中国;武汉市;关东街道;湖北省;430050;China 中国
草塘角, 火庙村, 黄陂区, 武汉市, 湖北省, China 中国;武汉市;关东街道;湖北省;430050;China 中国
百曲公路, 消泗乡, 蔡甸区, 武汉市, 湖北省, China 中国;武汉市;关东街道;湖北省;430050;China 中国
江夏区, 武汉市, 湖北省, China 中国;武汉市;关东街道;湖北省;430050;China 中国
蔡家榨街道, 黄陂区, 武汉市, 湖北省, China 中国;武汉市;关东街道;湖北省;430050;China 中国
东荆街, 汉南区, 武汉市, 湖北省, China 中国;武汉市;关东街道;湖北省;430050;China 中国
新洲区, 黄冈市, 湖北省, China 中国;武汉市;新洲区;湖北省;430050;China 中国
金银湖街, 东西湖区, 武汉市, 湖北省, China 中国;武汉市;关东街道;湖北省;430050;China 中国
中国地质大学逸夫博物馆, 鲁磨路, 关山街道, 东湖新技术开发区（托管）, 洪山区, 武汉市, 湖北省, 430074, China 中国;武汉市;关山街道;湖北省;430074;China 中国
索河镇, 蔡甸区, 武汉市, 湖北省, China 中国;武汉市;关东街道;湖北省;430050;China 中国
楼子湾, 黄陂区, 武汉市, 湖北省, China 中国;武汉市;关东街道;湖北省;430050;China 中国
军山街道, 武汉经济技术开发区（托管）, 汉南区, 武汉市, 湖北省, China 中国;武汉市;军山街道;湖北省;430050;China 中国
江夏区, 武汉市, 湖北省, China 中国;武汉市;关东街道;湖北省;430050;China 中国
径河街道 (Jinghe), 东西湖区, 武汉市, 湖北省, China 中国;武汉市;径河街道 (Jinghe);湖北省;430050;China 中国
长轩岭街道, 黄陂区, 武汉市, 湖北省, China 中国;武汉市;关东街道;湖北省;430050;China 中国
安山街, 江夏区, 武汉市, 湖北省, China 中国;武汉市;关东街道;湖北省;430050;China 中国
邾城街, 新洲区, 武汉市, 湖北省, China 中国;武汉市;关东街道;湖北省;430050;China 中国
蔡家榨街道, 黄陂区, 武汉市, 湖北省, China 中国;武汉市;关东街道;湖北省;430050;China 中国
法泗街, 江夏区, 武汉市, 湖北省, China 中国;武汉市;关东街道;湖北省;430050;China 中国
八吉府街道, 武汉化学工业新区（托管）, 洪山区, 武汉市, 湖北省, China 中国;武汉市;八吉府街道;湖北省;430050;China 中国
径河街道 (Jinghe), 东西湖区, 武汉市, 湖北省, China 中国;武汉市;径河街道 (Jinghe);湖北省;430050;China 中国
罗汉寺街道, 黄陂区, 武汉市, 湖北省, China 中国;武汉市;关东街道;湖北省;430050;China 中国
李家集街道, 黄陂区, 武汉市, 湖北省, China 中国;武汉市;关东街道;湖北省;430050;China 中国
涨渡湖街, 新洲区, 武汉市, 湖北省, China 中国;武汉市;关东街道;湖北省;430050;China 中国
沪蓉高速公路, 东西湖区, 武汉市, 湖北省, China 中国;武汉市;东西湖区;湖北省;430050;China 中国
法泗街, 江夏区, 武汉市, 湖北省, China 中国;武汉市;关东街道;湖北省;430050;China 中国
纱帽街, 汉南区, 武汉市, 湖北省, China 中国;武汉市;关东街道;湖北省;430050;China 中国
新洲区, 武汉市, 湖北省, China 中国;武汉市;新洲区;湖北省;430050;China 中国
花山街道, 东湖新技术开发区（托管）, 洪山区, 武汉市, 湖北省, China 中国;武汉市;花山街道;湖北省;430050;China 中国
乌龙泉街, 江夏区, 武汉市, 湖北省, China 中国;武汉市;关东街道;湖北省;430050;China 中国
汪集街, 新洲区, 武汉市, 湖北省, China 中国;武汉市;关东街道;湖北省;430050;China 中国
黄陂区, 武汉市, 湖北省, China 中国;武汉市;黄陂区;湖北省;430050;China 中国
木兰乡, 黄陂区, 武汉市, 湖北省, China 中国;武汉市;关东街道;湖北省;430050;China 中国
黄陂区, 武汉市, 湖北省, China 中国;武汉市;黄陂区;湖北省;430050;China 中国
杜皮乡, 团风县, 黄冈市, 湖北省, 438808, China 中国;武汉市;关东街道;湖北省;438808;China 中国
黄陂区, 武汉市, 湖北省, China 中国;武汉市;黄陂区;湖北省;430050;China 中国
三里桥街道, 黄陂区, 武汉市, 湖北省, China 中国;武汉市;关东街道;湖北省;430050;China 中国
江夏区, 武汉市, 湖北省, China 中国;武汉市;江夏区;湖北省;430050;China 中国
狮子山街道, 洪山区, 武汉市, 湖北省, 430064, China 中国;武汉市;狮子山街道;湖北省;430064;China 中国
辛安渡办事处, 东西湖区, 武汉市, 湖北省, China 中国;武汉市;辛安渡办事处;湖北省;430050;China 中国
黄陂区, 武汉市, 湖北省, China 中国;武汉市;关东街道;湖北省;430050;China 中国
龙泉集镇, 流芳街道, 东湖新技术开发区（托管）, 江夏区, 武汉市, 湖北省, China 中国;武汉市;流芳街道;湖北省;430050;China 中国
八吉府街道, 武汉化学工业新区（托管）, 洪山区, 武汉市, 湖北省, China 中国;武汉市;八吉府街道;湖北省;430050;China 中国
洪北管委会, 蔡甸区, 武汉市, 湖北省, China 中国;武汉市;关东街道;湖北省;430050;China 中国
长轩岭街道, 黄陂区, 武汉市, 湖北省, China 中国;武汉市;关东街道;湖北省;430050;China 中国
八吉府街道, 武汉化学工业新区（托管）, 青山区, 武汉市, 湖北省, China 中国;武汉市;八吉府街道;湖北省;430050;China 中国
常福新城, 蔡甸区, 武汉市, 湖北省, China 中国;武汉市;关东街道;湖北省;430050;China 中国
滠口街道, 黄陂区, 武汉市, 湖北省, China 中国;武汉市;关东街道;湖北省;430050;China 中国
郑店街, 江夏区, 武汉市, 湖北省, China 中国;武汉市;关东街道;湖北省;430050;China 中国
潘塘街, 新洲区, 武汉市, 湖北省, China 中国;武汉市;关东街道;湖北省;430050;China 中国
法泗街, 江夏区, 武汉市, 湖北省, China 中国;武汉市;关东街道;湖北省;430050;China 中国
S122, 湖泗街道, 江夏区, 咸宁市, 湖北省, China 中国;武汉市;关东街道;湖北省;430050;China 中国
祁家湾街道, 黄陂区, 武汉市, 湖北省, China 中国;武汉市;关东街道;湖北省;430050;China 中国
武鄂高速公路, 白玉山街道, 青山区, 武汉市, 湖北省, China 中国;武汉市;白玉山街道;湖北省;430050;China 中国
青郑高速公路, 郑店街, 江夏区, 武汉市, 湖北省, China 中国;武汉市;关东街道;湖北省;430050;China 中国
九峰街道, 东湖新技术开发区（托管）, 洪山区, 武汉市, 湖北省, 430075, China 中国;武汉市;关东街道;湖北省;430075;China 中国
汪集街, 新洲区, 武汉市, 湖北省, China 中国;武汉市;关东街道;湖北省;430050;China 中国
索河镇, 蔡甸区, 武汉市, 湖北省, China 中国;武汉市;关东街道;湖北省;430050;China 中国
东湖新技术开发区, 关东街道, 东湖新技术开发区（托管）, 江夏区, 武汉市, 湖北省, 430070, China 中国;武汉市;关东街道;湖北省;430070;China 中国
仓埠街, 新洲区, 武汉市, 湖北省, China 中国;武汉市;关东街道;湖北省;430050;China 中国
金山大道, 吴家山街道, 东西湖区, 武汉市, 湖北省, China 中国;武汉市;吴家山街道;湖北省;430050;China 中国
武湖街道, 黄陂区, 武汉市, 湖北省, China 中国;武汉市;关东街道;湖北省;430050;China 中国
机场二通道, 楼子湾, 黄陂区, 武汉市, 湖北省, China 中国;武汉市;关东街道;湖北省;430050;China 中国
潘塘街, 新洲区, 武汉市, 湖北省, China 中国;武汉市;关东街道;湖北省;430050;China 中国
武汉绕城高速公路, 黄陂区, 武汉市, 湖北省, China 中国;武汉市;黄陂区;湖北省;430050;China 中国
蔡店街道, 黄陂区, 武汉市, 湖北省, China 中国;武汉市;关东街道;湖北省;430050;China 中国
汪集街, 新洲区, 武汉市, 湖北省, China 中国;武汉市;关东街道;湖北省;430050;China 中国
长轩岭街道, 黄陂区, 武汉市, 湖北省, China 中国;武汉市;关东街道;湖北省;430050;China 中国
木兰山风景区, 黄陂区, 武汉市, 湖北省, China 中国;武汉市;关东街道;湖北省;430050;China 中国
桐湖办事处, 蔡甸区, 武汉市, 湖北省, China 中国;武汉市;关东街道;湖北省;430050;China 中国
舒安街道, 江夏区, 武汉市, 湖北省, China 中国;武汉市;关东街道;湖北省;430050;China 中国
武汉华侨城生态文化乐园, 仁和路, 和平街道, 东湖生态旅游风景区（托管）, 洪山区, 武汉市, 湖北省, 430080, China 中国;武汉市;和平街道;湖北省;430080;China 中国
祁家湾街道, 黄陂区, 武汉市, 湖北省, China 中国;武汉市;关东街道;湖北省;430050;China 中国
三环线, 洪山街道, 洪山区, 武汉市, 湖北省, 430068, China 中国;武汉市;洪山街道;湖北省;430068;China 中国
金山大道, 金银湖街道, 东西湖区, 武汉市, 湖北省, China 中国;武汉市;金银湖街道;湖北省;430050;China 中国
六指街道, 黄陂区, 武汉市, 湖北省, China 中国;武汉市;关东街道;湖北省;430050;China 中国
发展大道, 新村街道, 江岸区, 武汉市, 湖北省, 430015, China 中国;武汉市;新村街道;湖北省;430015;China 中国
光谷二路, 佛祖岭街道, 东湖新技术开发区（托管）, 江夏区, 武汉市, 湖北省, China 中国;武汉市;佛祖岭街道;湖北省;430050;China 中国
金银湖街道, 东西湖区, 武汉市, 湖北省, China 中国;武汉市;金银湖街道;湖北省;430050;China 中国
关豹高速, 豹澥街道, 东湖新技术开发区（托管）, 洪山区, 武汉市, 湖北省, 430073, China 中国;武汉市;豹澥街道;湖北省;430073;China 中国
李集街, 新洲区, 武汉市, 湖北省, China 中国;武汉市;关东街道;湖北省;430050;China 中国
奓山街, 蔡甸区, 武汉市, 湖北省, China 中国;武汉市;关东街道;湖北省;430050;China 中国
白玉山街道, 青山区, 武汉市, 湖北省, China 中国;武汉市;白玉山街道;湖北省;430050;China 中国
阳逻街, 新洲区, 武汉市, 湖北省, China 中国;武汉市;关东街道;湖北省;430050;China 中国
洪北管委会, 蔡甸区, 武汉市, 湖北省, China 中国;武汉市;关东街道;湖北省;430050;China 中国
汪集街, 新洲区, 武汉市, 湖北省, China 中国;武汉市;关东街道;湖北省;430050;China 中国
永安街, 蔡甸区, 武汉市, 湖北省, China 中国;武汉市;关东街道;湖北省;430050;China 中国
祁家湾街道, 黄陂区, 武汉市, 湖北省, China 中国;武汉市;关东街道;湖北省;430050;China 中国
武汉绕城高速公路, 郑店街, 江夏区, 武汉市, 湖北省, China 中国;武汉市;关东街道;湖北省;430050;China 中国
东西湖大堤, 辛安渡办事处, 东西湖区, 武汉市, 湖北省, China 中国;武汉市;关东街道;湖北省;430050;China 中国
东湖东路, 东湖生态旅游风景区（托管）, 洪山区, 武汉市, 湖北省, 430072, China 中国;武汉市;关东街道;湖北省;430072;China 中国
湖泗街道, 江夏区, 武汉市, 湖北省, China 中国;武汉市;关东街道;湖北省;430050;China 中国
索河镇, 蔡甸区, 武汉市, 湖北省, China 中国;武汉市;关东街道;湖北省;430050;China 中国
罗汉寺街道, 黄陂区, 武汉市, 湖北省, China 中国;武汉市;关东街道;湖北省;430050;China 中国
和平街道, 洪山区, 武汉市, 湖北省, 430080, China 中国;武汉市;和平街道;湖北省;430080;China 中国
江夏区, 武汉市, 湖北省, 430073, China 中国;武汉市;关东街道;湖北省;430073;China 中国
郑店街, 江夏区, 武汉市, 湖北省, China 中国;武汉市;关东街道;湖北省;430050;China 中国
蔡甸区, 武汉市, 湖北省, 430101, China 中国;武汉市;蔡甸区;湖北省;430101;China 中国
汪集街, 新洲区, 武汉市, 湖北省, China 中国;武汉市;关东街道;湖北省;430050;China 中国
S108, 鲁台, 黄陂区, 武汉市, 湖北省, China 中国;武汉市;黄陂区;湖北省;430050;China 中国
法泗街, 江夏区, 武汉市, 湖北省, China 中国;武汉市;关东街道;湖北省;430050;China 中国
姚家集街道, 黄陂区, 武汉市, 湖北省, China 中国;武汉市;关东街道;湖北省;430050;China 中国
三角湖小学, 三角湖路, 东合中心, 沌口街道, 武汉经济技术开发区（托管）, 蔡甸区, 武汉市, 湖北省, 430056, China 中国;武汉市;沌口街道;湖北省;430056;China 中国
花山街道, 东湖新技术开发区（托管）, 洪山区, 武汉市, 湖北省, 430075, China 中国;武汉市;花山街道;湖北省;430075;China 中国
山坡街道, 江夏区, 武汉市, 湖北省, China 中国;武汉市;关东街道;湖北省;430050;China 中国
木兰乡, 黄陂区, 武汉市, 湖北省, China 中国;武汉市;关东街道;湖北省;430050;China 中国
木兰山风景区, 黄陂区, 武汉市, 湖北省, China 中国;武汉市;关东街道;湖北省;430050;China 中国
黄陂区, 武汉市, 湖北省, China 中国;武汉市;关东街道;湖北省;430050;China 中国
大冶市, 黄石市, 湖北省, China 中国;武汉市;黄石市;湖北省;430050;China 中国
新洲区, 武汉市, 湖北省, China 中国;武汉市;新洲区;湖北省;430050;China 中国
豹澥街道, 东湖新技术开发区（托管）, 江夏区, 武汉市, 湖北省, 430073, China 中国;武汉市;豹澥街道;湖北省;430073;China 中国
佛祖岭街道, 东湖新技术开发区（托管）, 江夏区, 武汉市, 湖北省, China 中国;武汉市;佛祖岭街道;湖北省;430050;China 中国
军山街道, 武汉经济技术开发区（托管）, 蔡甸区, 武汉市, 湖北省, China 中国;武汉市;军山街道;湖北省;430050;China 中国
汉蔡高速, 蔡甸区, 武汉市, 湖北省, 430100, China 中国;武汉市;蔡甸区;湖北省;430100;China 中国
杨园南路, 梨园街道, 洪山区, 武汉市, 湖北省, 430080, China 中国;武汉市;梨园街道;湖北省;430080;China 中国
玉贤镇, 蔡甸区, 武汉市, 湖北省, China 中国;武汉市;关东街道;湖北省;430050;China 中国
法泗街, 江夏区, 武汉市, 湖北省, China 中国;武汉市;关东街道;湖北省;430050;China 中国
旧街街道, 新洲区, 武汉市, 湖北省, China 中国;武汉市;关东街道;湖北省;430050;China 中国
二十一号公路, 武钢集团, 工人村街道, 青山区, 武汉市, 湖北省, China 中国;武汉市;工人村街道;湖北省;430050;China 中国
张湾街, 蔡甸区, 武汉市, 湖北省, China 中国;武汉市;关东街道;湖北省;430050;China 中国
王家河街, 黄陂区, 武汉市, 湖北省, China 中国;武汉市;关东街道;湖北省;430050;China 中国
阳逻汽渡路, 八吉府街道, 武汉化学工业新区（托管）, 洪山区, 武汉市, 湖北省, China 中国;武汉市;八吉府街道;湖北省;430050;China 中国
四环线, 青菱街道, 江夏区, 武汉市, 湖北省, China 中国;武汉市;青菱街道;湖北省;430050;China 中国
洪北管委会, 蔡甸区, 武汉市, 湖北省, China 中国;武汉市;关东街道;湖北省;430050;China 中国
仓埠街, 新洲区, 武汉市, 湖北省, China 中国;武汉市;关东街道;湖北省;430050;China 中国
蔡店街道, 黄陂区, 武汉市, 湖北省, China 中国;武汉市;关东街道;湖北省;430050;China 中国
X007, 湖泗街道, 江夏区, 武汉市, 湖北省, China 中国;武汉市;关东街道;湖北省;430050;China 中国
消泗乡, 蔡甸区, 武汉市, 湖北省, China 中国;武汉市;关东街道;湖北省;430050;China 中国
木兰山风景区, 黄陂区, 武汉市, 湖北省, China 中国;武汉市;关东街道;湖北省;430050;China 中国
G318, 鲁台, 黄陂区, 武汉市, 湖北省, China 中国;武汉市;黄陂区;湖北省;430050;China 中国
汉南区, 武汉市, 湖北省, China 中国;武汉市;汉南区;湖北省;430050;China 中国
张湾街, 蔡甸区, 武汉市, 湖北省, China 中国;武汉市;关东街道;湖北省;430050;China 中国
江堤街道, 汉阳区, 武汉市, 湖北省, 430050, China 中国;武汉市;江堤街道;湖北省;430050;China 中国
黄陂区, 武汉市, 湖北省, China 中国;武汉市;黄陂区;湖北省;430050;China 中国
X008, 湖泗街道, 江夏区, 武汉市, 湖北省, China 中国;武汉市;关东街道;湖北省;430050;China 中国
京珠高速, 安山街, 江夏区, 武汉市, 湖北省, China 中国;武汉市;关东街道;湖北省;430050;China 中国
京港澳高速公路, 郑店街, 江夏区, 武汉市, 湖北省, China 中国;武汉市;关东街道;湖北省;430050;China 中国
姚家集街道, 黄陂区, 武汉市, 湖北省, China 中国;武汉市;关东街道;湖北省;430050;China 中国
工农路, 易家墩街道, 硚口区, 武汉市, 湖北省, 430034, China 中国;武汉市;易家墩街道;湖北省;430034;China 中国
邓南街, 汉南区, 武汉市, 湖北省, China 中国;武汉市;关东街道;湖北省;430050;China 中国
安山街, 江夏区, 武汉市, 湖北省, China 中国;武汉市;关东街道;湖北省;430050;China 中国
祁家湾街道, 黄陂区, 武汉市, 湖北省, China 中国;武汉市;关东街道;湖北省;430050;China 中国
S13, 汉南区, 武汉市, 湖北省, China 中国;武汉市;汉南区;湖北省;430050;China 中国
S310, 鲁台, 黄陂区, 武汉市, 湖北省, China 中国;武汉市;黄陂区;湖北省;430050;China 中国
官桥湖, 东湖东路, 东湖生态旅游风景区（托管）, 洪山区, 武汉市, 湖北省, 430079, China 中国;武汉市;关东街道;湖北省;430079;China 中国
玉贤镇, 蔡甸区, 武汉市, 湖北省, China 中国;武汉市;关东街道;湖北省;430050;China 中国
祁家湾街道, 黄陂区, 武汉市, 湖北省, China 中国;武汉市;关东街道;湖北省;430050;China 中国
青菱街道, 洪山区, 武汉市, 湖北省, China 中国;武汉市;青菱街道;湖北省;430050;China 中国
吴游山湾, 新洲区, 武汉市, 湖北省, China 中国;武汉市;关东街道;湖北省;430050;China 中国
武金堤, 张家湾街道, 洪山区, 武汉市, 湖北省, 460065, China 中国;武汉市;关东街道;湖北省;460065;China 中国
四環線 4the Ring Road, 北湖管委会, 武汉化学工业新区（托管）, 青山区, 武汉市, 湖北省, China 中国;武汉市;北湖管委会;湖北省;430050;China 中国
S111, 新洲区, 武汉市, 湖北省, China 中国;武汉市;新洲区;湖北省;430050;China 中国
唐家墩街道, 江汉区, 武汉市, 湖北省, WUHAN HANKOU, China 中国;武汉市;唐家墩街道;湖北省;WUHAN HANKOU;China 中国
张湾街, 蔡甸区, 武汉市, 湖北省, China 中国;武汉市;关东街道;湖北省;430050;China 中国
青菱街道, 洪山区, 武汉市, 湖北省, 460065, China 中国;武汉市;青菱街道;湖北省;460065;China 中国
S105, 张湾街, 蔡甸区, 武汉市, 湖北省, China 中国;武汉市;关东街道;湖北省;430050;China 中国
郑店街, 江夏区, 武汉市, 湖北省, China 中国;武汉市;关东街道;湖北省;430050;China 中国
罗汉寺街道, 黄陂区, 武汉市, 湖北省, China 中国;武汉市;关东街道;湖北省;430050;China 中国
紫沙路, 中南路街道, 武昌区, 武汉市, 湖北省, 230060, China 中国;武汉市;中南路街道;湖北省;230060;China 中国
G106G318, 新洲区, 黄冈市, 湖北省, 438803, China 中国;武汉市;新洲区;湖北省;438803;China 中国
沌口街道, 武汉经济技术开发区（托管）, 蔡甸区, 武汉市, 湖北省, China 中国;武汉市;沌口街道;湖北省;430050;China 中国
黄陂区, 武汉市, 湖北省, China 中国;武汉市;黄陂区;湖北省;430050;China 中国
李家集街道, 黄陂区, 武汉市, 湖北省, China 中国;武汉市;关东街道;湖北省;430050;China 中国
天河街, 黄陂区, 武汉市, 湖北省, China 中国;武汉市;关东街道;湖北省;430050;China 中国
流芳街道, 东湖新技术开发区（托管）, 江夏区, 武汉市, 湖北省, China 中国;武汉市;流芳街道;湖北省;430050;China 中国
蔡甸区, 武汉市, 湖北省, China 中国;武汉市;关东街道;湖北省;430050;China 中国
蔡家榨街道, 黄陂区, 武汉市, 湖北省, China 中国;武汉市;关东街道;湖北省;430050;China 中国
汉南区, 武汉市, 湖北省, China 中国;武汉市;汉南区;湖北省;430050;China 中国
李家集街道, 黄陂区, 武汉市, 湖北省, China 中国;武汉市;关东街道;湖北省;430050;China 中国
蔡甸区, 武汉市, 湖北省, China 中国;武汉市;蔡甸区;湖北省;430050;China 中国
三店街, 新洲区, 武汉市, 湖北省, China 中国;武汉市;关东街道;湖北省;430050;China 中国
辛冲镇, 新洲区, 武汉市, 湖北省, China 中国;武汉市;关东街道;湖北省;430050;China 中国
柏泉办事处, 东西湖区, 武汉市, 湖北省, China 中国;武汉市;关东街道;湖北省;430050;China 中国
檀树岭村, 东湖新技术开发区（托管）, 江夏区, 武汉市, 湖北省, China 中国;武汉市;关东街道;湖北省;430050;China 中国
新洲区, 武汉市, 湖北省, China 中国;武汉市;新洲区;湖北省;430050;China 中国
横店街道, 黄陂区, 武汉市, 湖北省, China 中国;武汉市;关东街道;湖北省;430050;China 中国
江夏区, 武汉市, 湖北省, China 中国;武汉市;关东街道;湖北省;430050;China 中国
小陈家湾, 黄陂区, 武汉市, 湖北省, China 中国;武汉市;关东街道;湖北省;430050;China 中国
草塘角, 滠口街道, 黄陂区, 武汉市, 湖北省, China 中国;武汉市;关东街道;湖北省;430050;China 中国
侏儒街, 蔡甸区, 武汉市, 湖北省, China 中国;武汉市;关东街道;湖北省;430050;China 中国
花山街, 东湖新技术开发区（托管）, 洪山区, 武汉市, 湖北省, 430075, China 中国;武汉市;关东街道;湖北省;430075;China 中国
S5G42S, 新洲区, 武汉市, 湖北省, China 中国;武汉市;新洲区;湖北省;430050;China 中国
安山街, 江夏区, 武汉市, 湖北省, China 中国;武汉市;关东街道;湖北省;430050;China 中国
东荆街, 汉南区, 武汉市, 湖北省, China 中国;武汉市;关东街道;湖北省;430050;China 中国
江夏区, 武汉市, 湖北省, 430073, China 中国;武汉市;关东街道;湖北省;430073;China 中国
鲁台, 黄陂区, 武汉市, 湖北省, China 中国;武汉市;黄陂区;湖北省;430050;China 中国
大集街, 蔡甸区, 武汉市, 湖北省, 430100, China 中国;武汉市;关东街道;湖北省;430100;China 中国
李家集街道, 黄陂区, 武汉市, 湖北省, China 中国;武汉市;关东街道;湖北省;430050;China 中国
金水办事处, 江夏区, 武汉市, 湖北省, China 中国;武汉市;关东街道;湖北省;430050;China 中国
张湾街, 蔡甸区, 武汉市, 湖北省, China 中国;武汉市;关东街道;湖北省;430050;China 中国
佛祖岭街道, 东湖新技术开发区（托管）, 江夏区, 武汉市, 湖北省, China 中国;武汉市;佛祖岭街道;湖北省;430050;China 中国
法泗街, 江夏区, 武汉市, 湖北省, China 中国;武汉市;关东街道;湖北省;430050;China 中国
S314, 湖泗街道, 江夏区, 武汉市, 湖北省, China 中国;武汉市;关东街道;湖北省;430050;China 中国
HuangTu Road, 黄陂区, 武汉市, 湖北省, China 中国;武汉市;关东街道;湖北省;430050;China 中国
汉十高速, 黄陂区, 武汉市, 湖北省, China 中国;武汉市;关东街道;湖北省;430050;China 中国
金水办事处, 江夏区, 武汉市, 湖北省, China 中国;武汉市;关东街道;湖北省;430050;China 中国
奓山街, 蔡甸区, 武汉市, 湖北省, China 中国;武汉市;关东街道;湖北省;430050;China 中国
汉南区, 武汉市, 湖北省, China 中国;武汉市;汉南区;湖北省;430050;China 中国
S101, 江夏区, 郑店街, 江夏区, 武汉市, 湖北省, China 中国;武汉市;关东街道;湖北省;430050;China 中国
蔡店街道, 黄陂区, 武汉市, 湖北省, China 中国;武汉市;关东街道;湖北省;430050;China 中国
侏儒街, 蔡甸区, 武汉市, 湖北省, China 中国;武汉市;关东街道;湖北省;430050;China 中国
临江大道, 红卫路街道, 青山区, 武汉市, 湖北省, 430080, China 中国;武汉市;红卫路街道;湖北省;430080;China 中国
涨渡湖街, 新洲区, 武汉市, 湖北省, 438800, China 中国;武汉市;关东街道;湖北省;438800;China 中国
4th Ring Road, 径河街道 (Jinghe), 东西湖区, 武汉市, 湖北省, China 中国;武汉市;径河街道 (Jinghe);湖北省;430050;China 中国
横店街道, 黄陂区, 武汉市, 湖北省, China 中国;武汉市;关东街道;湖北省;430050;China 中国
吴家山, 团结街, 慈惠街道, 东西湖区, 武汉市, 湖北省, China 中国;武汉市;慈惠街道;湖北省;430050;China 中国
汪集街, 新洲区, 武汉市, 湖北省, China 中国;武汉市;关东街道;湖北省;430050;China 中国
洪北管委会, 蔡甸区, 武汉市, 湖北省, China 中国;武汉市;关东街道;湖北省;430050;China 中国
张杨湾, 黄陂区, 武汉市, 湖北省, China 中国;武汉市;关东街道;湖北省;430050;China 中国
S5G42S, 黄陂区, 武汉市, 湖北省, China 中国;武汉市;黄陂区;湖北省;430050;China 中国
洪北管委会, 蔡甸区, 武汉市, 湖北省, China 中国;武汉市;关东街道;湖北省;430050;China 中国
三店街, 新洲区, 武汉市, 湖北省, China 中国;武汉市;关东街道;湖北省;430050;China 中国
新洲区, 武汉市, 湖北省, China 中国;武汉市;新洲区;湖北省;430050;China 中国
东山办事处, 东西湖区, 武汉市, 湖北省, China 中国;武汉市;东山办事处;湖北省;430050;China 中国
S5G42S, 黄陂区, 武汉市, 湖北省, China 中国;武汉市;黄陂区;湖北省;430050;China 中国
蔡甸区, 武汉市, 湖北省, 430101, China 中国;武汉市;蔡甸区;湖北省;430101;China 中国
黄陂区, 武汉市, 湖北省, China 中国;武汉市;关东街道;湖北省;430050;China 中国
侏儒街, 蔡甸区, 武汉市, 湖北省, China 中国;武汉市;关东街道;湖北省;430050;China 中国
大丰路, 蔡甸区, 武汉市, 湖北省, 430100, China 中国;武汉市;蔡甸区;湖北省;430100;China 中国
纸贺线, 江夏区, 乌龙泉街, 江夏区, 武汉市, 湖北省, China 中国;武汉市;关东街道;湖北省;430050;China 中国
湖泗街道, 江夏区, 武汉市, 湖北省, China 中国;武汉市;湖泗街道;湖北省;430050;China 中国
木兰乡, 黄陂区, 武汉市, 湖北省, China 中国;武汉市;关东街道;湖北省;430050;China 中国
智慧园停车场, 藏龙大道, 佛祖岭街道, 东湖新技术开发区（托管）, 江夏区, 武汉市, 湖北省, China 中国;武汉市;佛祖岭街道;湖北省;430050;China 中国
X033, 徐古街道, 新洲区, 武汉市, 湖北省, China 中国;武汉市;关东街道;湖北省;430050;China 中国
冯老塆, 黄陂区, 武汉市, 湖北省, China 中国;武汉市;黄陂区;湖北省;430050;China 中国
张湾街, 蔡甸区, 武汉市, 湖北省, China 中国;武汉市;关东街道;湖北省;430050;China 中国
五里界街, 江夏区, 武汉市, 湖北省, China 中国;武汉市;关东街道;湖北省;430050;China 中国
梁子湖风景区, 江夏区, 武汉市, 湖北省, China 中国;武汉市;关东街道;湖北省;430050;China 中国
凤凰镇, 新洲区, 武汉市, 湖北省, China 中国;武汉市;关东街道;湖北省;430050;China 中国
涨渡湖街, 新洲区, 武汉市, 湖北省, China 中国;武汉市;关东街道;湖北省;430050;China 中国
王家河街, 黄陂区, 武汉市, 湖北省, China 中国;武汉市;关东街道;湖北省;430050;China 中国
八吉府街道, 武汉化学工业新区（托管）, 洪山区, 武汉市, 湖北省, China 中国;武汉市;八吉府街道;湖北省;430050;China 中国
百曲公路, 侏儒街, 蔡甸区, 武汉市, 湖北省, China 中国;武汉市;关东街道;湖北省;430050;China 中国
新洲区, 武汉市, 湖北省, China 中国;武汉市;新洲区;湖北省;430050;China 中国
S13, 汉南区, 武汉市, 湖北省, China 中国;武汉市;汉南区;湖北省;430050;China 中国
纸坊大街, 龙井社区, 江夏区, 武汉市, 湖北省, China 中国;武汉市;江夏区;湖北省;430050;China 中国
S109, 新洲区, 武汉市, 湖北省, China 中国;武汉市;关东街道;湖北省;430050;China 中国
乌龙泉街, 江夏区, 武汉市, 湖北省, China 中国;武汉市;关东街道;湖北省;430050;China 中国
汉南区, 武汉市, 湖北省, China 中国;武汉市;汉南区;湖北省;430050;China 中国
永安街, 蔡甸区, 武汉市, 湖北省, China 中国;武汉市;关东街道;湖北省;430050;China 中国
养殖场, 东湖新技术开发区（托管）, 江夏区, 武汉市, 湖北省, China 中国;武汉市;养殖场;湖北省;430050;China 中国
山坡街道, 江夏区, 武汉市, 湖北省, China 中国;武汉市;关东街道;湖北省;430050;China 中国
祁家湾街道, 黄陂区, 武汉市, 湖北省, China 中国;武汉市;关东街道;湖北省;430050;China 中国
汉蔡高速, 侏儒街, 蔡甸区, 武汉市, 湖北省, China 中国;武汉市;关东街道;湖北省;430050;China 中国
新洲原种场, 新洲区, 武汉市, 湖北省, China 中国;武汉市;关东街道;湖北省;430050;China 中国
八吉府街道, 武汉化学工业新区（托管）, 洪山区, 武汉市, 湖北省, China 中国;武汉市;八吉府街道;湖北省;430050;China 中国
木兰山风景区, 黄陂区, 武汉市, 湖北省, China 中国;武汉市;关东街道;湖北省;430050;China 中国
洪北管委会, 蔡甸区, 武汉市, 湖北省, China 中国;武汉市;关东街道;湖北省;430050;China 中国
四環線 4the Ring Road, 北湖管委会, 武汉化学工业新区（托管）, 青山区, 武汉市, 湖北省, China 中国;武汉市;北湖管委会;湖北省;430050;China 中国
李家集街道, 黄陂区, 武汉市, 湖北省, China 中国;武汉市;关东街道;湖北省;430050;China 中国
黄陂区, 武汉市, 湖北省, China 中国;武汉市;关东街道;湖北省;430050;China 中国
阳逻街, 新洲区, 武汉市, 湖北省, China 中国;武汉市;关东街道;湖北省;430050;China 中国
东西湖大堤, 辛安渡办事处, 东西湖区, 武汉市, 湖北省, China 中国;武汉市;关东街道;湖北省;430050;China 中国
双柳街, 新洲区, 武汉市, 湖北省, China 中国;武汉市;关东街道;湖北省;430050;China 中国
仓埠街, 新洲区, 武汉市, 湖北省, China 中国;武汉市;关东街道;湖北省;430050;China 中国
建筑物, 龙阳大道高架, 永丰街道, 武汉经济技术开发区（托管）, 汉阳区, 武汉市, 湖北省, 430056, China 中国;武汉市;永丰街道;湖北省;430056;China 中国
北湖街道, 江汉区, 武汉市, 湖北省, WUHAN HANKOU, China 中国;武汉市;北湖街道;湖北省;WUHAN HANKOU;China 中国
新洲区, 武汉市, 湖北省, China 中国;武汉市;关东街道;湖北省;430050;China 中国
阳光大道, 江夏区, 武汉市, 湖北省, China 中国;武汉市;江夏区;湖北省;430050;China 中国
军山街道, 武汉经济技术开发区（托管）, 蔡甸区, 武汉市, 湖北省, China 中国;武汉市;军山街道;湖北省;430050;China 中国
乌龙泉街, 江夏区, 武汉市, 湖北省, China 中国;武汉市;关东街道;湖北省;430050;China 中国
新洲原种场, 新洲区, 武汉市, 湖北省, China 中国;武汉市;关东街道;湖北省;430050;China 中国
武汉绕城高速公路, 江夏区, 郑店街, 江夏区, 武汉市, 湖北省, China 中国;武汉市;关东街道;湖北省;430050;China 中国
蔡甸区, 武汉市, 湖北省, China 中国;武汉市;蔡甸区;湖北省;430050;China 中国
徐古街道, 新洲区, 武汉市, 湖北省, China 中国;武汉市;关东街道;湖北省;430050;China 中国
双柳街, 新洲区, 武汉市, 湖北省, China 中国;武汉市;关东街道;湖北省;430050;China 中国
桐湖办事处, 蔡甸区, 武汉市, 湖北省, China 中国;武汉市;关东街道;湖北省;430050;China 中国
南太子湖, 江城大道, 四新管委会, 汉阳区, 武汉市, 湖北省, 430056, China 中国;武汉市;四新管委会;湖北省;430056;China 中国
新洲区, 武汉市, 湖北省, China 中国;武汉市;新洲区;湖北省;430050;China 中国
涨渡湖街, 新洲区, 武汉市, 湖北省, China 中国;武汉市;关东街道;湖北省;430050;China 中国
东西湖大堤, 金银湖街道, 东西湖区, 武汉市, 湖北省, China 中国;武汉市;金银湖街道;湖北省;430050;China 中国
徐古街道, 新洲区, 武汉市, 湖北省, China 中国;武汉市;关东街道;湖北省;430050;China 中国
梁子湖风景区, 江夏区, 武汉市, 湖北省, China 中国;武汉市;关东街道;湖北省;430050;China 中国
X030, 银莲社区, 湘口街道, 汉南区, 武汉市, 湖北省, China 中国;武汉市;关东街道;湖北省;430050;China 中国
江夏区, 武汉市, 湖北省, China 中国;武汉市;江夏区;湖北省;430050;China 中国
王家河街, 黄陂区, 武汉市, 湖北省, China 中国;武汉市;关东街道;湖北省;430050;China 中国
中芯一路, 烟卢湾, 佛祖岭街道, 东湖新技术开发区（托管）, 江夏区, 武汉市, 湖北省, China 中国;武汉市;佛祖岭街道;湖北省;430050;China 中国
新洲区, 武汉市, 湖北省, China 中国;武汉市;关东街道;湖北省;430050;China 中国
郑店街, 江夏区, 武汉市, 湖北省, China 中国;武汉市;关东街道;湖北省;430050;China 中国
祁家湾街道, 黄陂区, 武汉市, 湖北省, China 中国;武汉市;关东街道;湖北省;430050;China 中国
慈惠街道, 东西湖区, 武汉市, 湖北省, 430101, China 中国;武汉市;慈惠街道;湖北省;430101;China 中国
东湖生态旅游风景区（托管）, 洪山区, 武汉市, 湖北省, China 中国;武汉市;关东街道;湖北省;430050;China 中国
草塘角, 黄陂区, 武汉市, 湖北省, China 中国;武汉市;黄陂区;湖北省;430050;China 中国
永安街, 蔡甸区, 武汉市, 湖北省, China 中国;武汉市;关东街道;湖北省;430050;China 中国
江夏区, 武汉市, 湖北省, China 中国;武汉市;江夏区;湖北省;430050;China 中国
新洲区, 武汉市, 湖北省, China 中国;武汉市;关东街道;湖北省;430050;China 中国
仓埠街, 新洲区, 武汉市, 湖北省, China 中国;武汉市;关东街道;湖北省;430050;China 中国
索河镇, 蔡甸区, 武汉市, 湖北省, China 中国;武汉市;关东街道;湖北省;430050;China 中国
长丰街道, 硚口区, 武汉市, 湖北省, 430034, China 中国;武汉市;长丰街道;湖北省;430034;China 中国
蔡家榨街道, 黄陂区, 武汉市, 湖北省, China 中国;武汉市;关东街道;湖北省;430050;China 中国
豹澥街道, 东湖新技术开发区（托管）, 江夏区, 武汉市, 湖北省, China 中国;武汉市;豹澥街道;湖北省;430050;China 中国
汉施公路, 阳逻街, 新洲区, 武汉市, 湖北省, China 中国;武汉市;关东街道;湖北省;430050;China 中国
草塘角, 滠口街道, 黄陂区, 武汉市, 湖北省, China 中国;武汉市;关东街道;湖北省;430050;China 中国
湖泗街道, 江夏区, 武汉市, 湖北省, China 中国;武汉市;湖泗街道;湖北省;430050;China 中国
九峰街道, 东湖新技术开发区（托管）, 洪山区, 武汉市, 湖北省, 430075, China 中国;武汉市;关东街道;湖北省;430075;China 中国
双柳街, 新洲区, 武汉市, 湖北省, China 中国;武汉市;关东街道;湖北省;430050;China 中国
武汉绕城高速公路, 北湖管委会, 武汉化学工业新区（托管）, 青山区, 武汉市, 湖北省, China 中国;武汉市;北湖管委会;湖北省;430050;China 中国
汉南区, 武汉市, 湖北省, China 中国;武汉市;汉南区;湖北省;430050;China 中国
金山大道, 东西湖区, 武汉市, 湖北省, China 中国;武汉市;东西湖区;湖北省;430050;China 中国
左岭街道, 东湖新技术开发区（托管）, 洪山区, 武汉市, 湖北省, China 中国;武汉市;左岭街道;湖北省;430050;China 中国
京珠高速, 安山街, 江夏区, 武汉市, 湖北省, China 中国;武汉市;关东街道;湖北省;430050;China 中国
东西湖大堤, 东山办事处, 东西湖区, 武汉市, 湖北省, China 中国;武汉市;关东街道;湖北省;430050;China 中国
汉桥路, 五里墩街道, 汉阳区, 武汉市, 湖北省, 430034, China 中国;武汉市;五里墩街道;湖北省;430034;China 中国
六指街道, 黄陂区, 武汉市, 湖北省, China 中国;武汉市;关东街道;湖北省;430050;China 中国
汉南区, 武汉市, 湖北省, China 中国;武汉市;汉南区;湖北省;430050;China 中国
金水办事处, 江夏区, 武汉市, 湖北省, China 中国;武汉市;关东街道;湖北省;430050;China 中国
张家冲, 黄陂区, 武汉市, 湖北省, China 中国;武汉市;黄陂区;湖北省;430050;China 中国
黄陂区, 武汉市, 湖北省, China 中国;武汉市;关东街道;湖北省;430050;China 中国
黄陂区, 武汉市, 湖北省, China 中国;武汉市;关东街道;湖北省;430050;China 中国
汉南区, 武汉市, 湖北省, China 中国;武汉市;汉南区;湖北省;430050;China 中国
六指街道, 黄陂区, 武汉市, 湖北省, China 中国;武汉市;关东街道;湖北省;430050;China 中国
索河镇, 蔡甸区, 武汉市, 湖北省, China 中国;武汉市;关东街道;湖北省;430050;China 中国
X008, 湖泗街道, 江夏区, 武汉市, 湖北省, China 中国;武汉市;关东街道;湖北省;430050;China 中国
长轩岭街道, 黄陂区, 武汉市, 湖北省, China 中国;武汉市;关东街道;湖北省;430050;China 中国
巨龍大道, 滠口街道, 黄陂区, 武汉市, 湖北省, China 中国;武汉市;关东街道;湖北省;430050;China 中国
武湖街道, 黄陂区, 武汉市, 湖北省, China 中国;武汉市;关东街道;湖北省;430050;China 中国
游家田村公路, 游家田, 黄陂区, 武汉市, 湖北省, China 中国;武汉市;关东街道;湖北省;430050;China 中国
滨湖街道, 东湖新技术开发区（托管）, 江夏区, 武汉市, 湖北省, China 中国;武汉市;滨湖街道;湖北省;430050;China 中国
佛祖岭街道, 东湖新技术开发区（托管）, 江夏区, 武汉市, 湖北省, 430075, China 中国;武汉市;佛祖岭街道;湖北省;430075;China 中国
长青街, 东西湖区, 武汉市, 湖北省, China 中国;武汉市;关东街道;湖北省;430050;China 中国
长轩岭街道, 黄陂区, 武汉市, 湖北省, China 中国;武汉市;关东街道;湖北省;430050;China 中国
李家集街道, 黄陂区, 武汉市, 湖北省, China 中国;武汉市;关东街道;湖北省;430050;China 中国
东荆街, 汉南区, 武汉市, 湖北省, China 中国;武汉市;关东街道;湖北省;430050;China 中国
新洲区, 武汉市, 湖北省, China 中国;武汉市;新洲区;湖北省;430050;China 中国
徐古街道, 新洲区, 武汉市, 湖北省, China 中国;武汉市;关东街道;湖北省;430050;China 中国
徐古街道, 新洲区, 武汉市, 湖北省, China 中国;武汉市;关东街道;湖北省;430050;China 中国
王家河街, 黄陂区, 武汉市, 湖北省, China 中国;武汉市;关东街道;湖北省;430050;China 中国
金水办事处, 江夏区, 武汉市, 湖北省, China 中国;武汉市;关东街道;湖北省;430050;China 中国
新洲区, 武汉市, 湖北省, China 中国;武汉市;关东街道;湖北省;430050;China 中国
小陈家湾, 黄陂区, 武汉市, 湖北省, China 中国;武汉市;关东街道;湖北省;430050;China 中国
银莲社区, 湘口街道, 汉南区, 武汉市, 湖北省, China 中国;武汉市;关东街道;湖北省;430050;China 中国
新洲区, 武汉市, 湖北省, China 中国;武汉市;关东街道;湖北省;430050;China 中国
红光村, 东湖新技术开发区（托管）, 洪山区, 武汉市, 湖北省, China 中国;武汉市;关东街道;湖北省;430050;China 中国
星火村, 东湖新技术开发区（托管）, 江夏区, 武汉市, 湖北省, China 中国;武汉市;关东街道;湖北省;430050;China 中国
大集街, 蔡甸区, 武汉市, 湖北省, China 中国;武汉市;关东街道;湖北省;430050;China 中国
双柳街, 新洲区, 武汉市, 湖北省, China 中国;武汉市;关东街道;湖北省;430050;China 中国
岱黄高速, 黄陂区, 武汉市, 湖北省, China 中国;武汉市;黄陂区;湖北省;430050;China 中国
惠安大道, 慈惠街道, 东西湖区, 武汉市, 湖北省, 430101, China 中国;武汉市;慈惠街道;湖北省;430101;China 中国
凤凰镇, 新洲区, 武汉市, 湖北省, China 中国;武汉市;关东街道;湖北省;430050;China 中国
邓南街, 汉南区, 武汉市, 湖北省, China 中国;武汉市;关东街道;湖北省;430050;China 中国
张湾街, 蔡甸区, 武汉市, 湖北省, China 中国;武汉市;关东街道;湖北省;430050;China 中国
蔡家榨街道, 黄陂区, 武汉市, 湖北省, China 中国;武汉市;关东街道;湖北省;430050;China 中国
洪北管委会, 蔡甸区, 武汉市, 湖北省, China 中国;武汉市;关东街道;湖北省;430050;China 中国
军山街道, 武汉经济技术开发区（托管）, 蔡甸区, 武汉市, 湖北省, China 中国;武汉市;军山街道;湖北省;430050;China 中国
S5G42S, 黄陂区, 武汉市, 湖北省, China 中国;武汉市;黄陂区;湖北省;430050;China 中国
文岭办事处, 蔡甸区, 武汉市, 湖北省, China 中国;武汉市;关东街道;湖北省;430050;China 中国
北湖街道, 江汉区, 武汉市, 湖北省, 430021, China 中国;武汉市;北湖街道;湖北省;430021;China 中国
蔡店街道, 黄陂区, 武汉市, 湖北省, China 中国;武汉市;关东街道;湖北省;430050;China 中国
江夏区, 武汉市, 湖北省, 430073, China 中国;武汉市;关东街道;湖北省;430073;China 中国
旧街街道, 新洲区, 武汉市, 湖北省, China 中国;武汉市;关东街道;湖北省;430050;China 中国
小陈家湾, 黄陂区, 武汉市, 湖北省, China 中国;武汉市;关东街道;湖北省;430050;China 中国
罗汉寺街道, 黄陂区, 武汉市, 湖北省, China 中国;武汉市;关东街道;湖北省;430050;China 中国
徐古街道, 新洲区, 武汉市, 湖北省, China 中国;武汉市;关东街道;湖北省;430050;China 中国
新洲区, 武汉市, 湖北省, China 中国;武汉市;新洲区;湖北省;430050;China 中国
新洲区, 武汉市, 湖北省, China 中国;武汉市;新洲区;湖北省;430050;China 中国
大广高速, 新洲区, 武汉市, 湖北省, China 中国;武汉市;新洲区;湖北省;430050;China 中国
东荆街, 汉南区, 武汉市, 湖北省, China 中国;武汉市;关东街道;湖北省;430050;China 中国
姚家集街道, 黄陂区, 武汉市, 湖北省, China 中国;武汉市;关东街道;湖北省;430050;China 中国
南环路, 武湖街道, 黄陂区, 武汉市, 湖北省, China 中国;武汉市;关东街道;湖北省;430050;China 中国
木兰乡, 黄陂区, 武汉市, 湖北省, China 中国;武汉市;关东街道;湖北省;430050;China 中国
文化大道, 江夏区, 武汉市, 湖北省, China 中国;武汉市;江夏区;湖北省;430050;China 中国
S5G42S, 新洲区, 武汉市, 湖北省, China 中国;武汉市;新洲区;湖北省;430050;China 中国
鲁台, 黄陂区, 武汉市, 湖北省, China 中国;武汉市;黄陂区;湖北省;430050;China 中国
京珠高速, 江夏区, 武汉市, 湖北省, China 中国;武汉市;关东街道;湖北省;430050;China 中国
乌龙泉街, 江夏区, 武汉市, 湖北省, China 中国;武汉市;关东街道;湖北省;430050;China 中国
丹水池街道, 江岸区, 武汉市, 湖北省, China 中国;武汉市;丹水池街道;湖北省;430050;China 中国
涨渡湖街, 新洲区, 武汉市, 湖北省, 438800, China 中国;武汉市;关东街道;湖北省;438800;China 中国
徐古街道, 新洲区, 武汉市, 湖北省, China 中国;武汉市;关东街道;湖北省;430050;China 中国
金港新区, 江夏区, 武汉市, 湖北省, China 中国;武汉市;关东街道;湖北省;430050;China 中国
湖泗街道, 江夏区, 武汉市, 湖北省, China 中国;武汉市;关东街道;湖北省;430050;China 中国
蔡店街道, 黄陂区, 武汉市, 湖北省, China 中国;武汉市;关东街道;湖北省;430050;China 中国
白玉山街道, 青山区, 武汉市, 湖北省, China 中国;武汉市;白玉山街道;湖北省;430050;China 中国
东西湖区, 武汉市, 湖北省, China 中国;武汉市;东西湖区;湖北省;430050;China 中国
黄陂区, 武汉市, 湖北省, China 中国;武汉市;黄陂区;湖北省;430050;China 中国
山坡街道, 江夏区, 武汉市, 湖北省, China 中国;武汉市;关东街道;湖北省;430050;China 中国
中建 福地星城, 珞南街道, 洪山区, 武汉市, 湖北省, 430064, China 中国;武汉市;珞南街道;湖北省;430064;China 中国
旧街街道, 新洲区, 武汉市, 湖北省, China 中国;武汉市;关东街道;湖北省;430050;China 中国
易家墩街道, 硚口区, 武汉市, 湖北省, China 中国;武汉市;易家墩街道;湖北省;430050;China 中国
佛祖岭街道, 东湖新技术开发区（托管）, 江夏区, 武汉市, 湖北省, 430075, China 中国;武汉市;佛祖岭街道;湖北省;430075;China 中国
武鄂高速公路, 东湖生态旅游风景区（托管）, 洪山区, 武汉市, 湖北省, China 中国;武汉市;关东街道;湖北省;430050;China 中国
径河街道 (Jinghe), 东西湖区, 武汉市, 湖北省, China 中国;武汉市;径河街道 (Jinghe);湖北省;430050;China 中国
横店街道, 黄陂区, 武汉市, 湖北省, China 中国;武汉市;关东街道;湖北省;430050;China 中国
鲁台, 黄陂区, 武汉市, 湖北省, China 中国;武汉市;黄陂区;湖北省;430050;China 中国
侏儒街, 蔡甸区, 武汉市, 湖北省, China 中国;武汉市;关东街道;湖北省;430050;China 中国
蔡店街道, 黄陂区, 武汉市, 湖北省, China 中国;武汉市;关东街道;湖北省;430050;China 中国
江夏区, 武汉市, 湖北省, 430073, China 中国;武汉市;关东街道;湖北省;430073;China 中国
黄陂区, 武汉市, 湖北省, China 中国;武汉市;黄陂区;湖北省;430050;China 中国
X007, 湖泗街道, 江夏区, 武汉市, 湖北省, China 中国;武汉市;关东街道;湖北省;430050;China 中国
金水办事处, 江夏区, 武汉市, 湖北省, China 中国;武汉市;关东街道;湖北省;430050;China 中国
陈东路, 东山办事处, 东西湖区, 武汉市, 湖北省, China 中国;武汉市;关东街道;湖北省;430050;China 中国
徐古街道, 新洲区, 武汉市, 湖北省, China 中国;武汉市;关东街道;湖北省;430050;China 中国
沪渝高速, 奓山街, 蔡甸区, 武汉市, 湖北省, China 中国;武汉市;关东街道;湖北省;430050;China 中国
蔡甸区, 武汉市, 湖北省, China 中国;武汉市;蔡甸区;湖北省;430050;China 中国
黄陂区, 武汉市, 湖北省, China 中国;武汉市;黄陂区;湖北省;430050;China 中国
S109, 新洲区, 武汉市, 湖北省, China 中国;武汉市;关东街道;湖北省;430050;China 中国
X007, 湖泗街道, 江夏区, 武汉市, 湖北省, China 中国;武汉市;关东街道;湖北省;430050;China 中国
张湾街, 蔡甸区, 武汉市, 湖北省, China 中国;武汉市;关东街道;湖北省;430050;China 中国
机场高速, 楼子湾, 黄陂区, 武汉市, 湖北省, China 中国;武汉市;关东街道;湖北省;430050;China 中国
湖泗街道, 江夏区, 武汉市, 湖北省, China 中国;武汉市;关东街道;湖北省;430050;China 中国
罗汉寺街道, 黄陂区, 武汉市, 湖北省, China 中国;武汉市;关东街道;湖北省;430050;China 中国
X053, 新洲区, 武汉市, 湖北省, China 中国;武汉市;新洲区;湖北省;430050;China 中国
乌龙泉街, 江夏区, 武汉市, 湖北省, China 中国;武汉市;关东街道;湖北省;430050;China 中国
武汉市后官湖绿道, 蔡甸区, 武汉市, 湖北省, 430101, China 中国;武汉市;蔡甸区;湖北省;430101;China 中国
黄陂区, 武汉市, 湖北省, China 中国;武汉市;关东街道;湖北省;430050;China 中国
杜皮乡, 团风县, 黄冈市, 湖北省, 438808, China 中国;武汉市;关东街道;湖北省;438808;China 中国
八分山, 纸坊大街, 江夏区, 石洞街, 江夏区, 武汉市, 湖北省, China 中国;武汉市;关东街道;湖北省;430050;China 中国
X007, 湖泗街道, 江夏区, 武汉市, 湖北省, China 中国;武汉市;关东街道;湖北省;430050;China 中国
蔡甸区, 武汉市, 湖北省, China 中国;武汉市;关东街道;湖北省;430050;China 中国
黄陂区, 武汉市, 湖北省, China 中国;武汉市;黄陂区;湖北省;430050;China 中国
金银湖街道, 东西湖区, 武汉市, 湖北省, China 中国;武汉市;金银湖街道;湖北省;430050;China 中国
蔡店街道, 黄陂区, 武汉市, 湖北省, China 中国;武汉市;关东街道;湖北省;430050;China 中国
武汉绕城高速公路, 郑店街, 江夏区, 武汉市, 湖北省, China 中国;武汉市;关东街道;湖北省;430050;China 中国
江夏区, 武汉市, 湖北省, 430073, China 中国;武汉市;关东街道;湖北省;430073;China 中国
张湾街, 蔡甸区, 武汉市, 湖北省, China 中国;武汉市;关东街道;湖北省;430050;China 中国
沌口街, 武汉经济技术开发区（托管）, 蔡甸区, 武汉市, 湖北省, 430056, China 中国;武汉市;关东街道;湖北省;430056;China 中国
东湖生态旅游风景区（托管）, 洪山区, 武汉市, 湖北省, China 中国;武汉市;关东街道;湖北省;430050;China 中国
衡州大道, 新洲区, 武汉市, 湖北省, China 中国;武汉市;新洲区;湖北省;430050;China 中国
祁家湾街道, 黄陂区, 武汉市, 湖北省, China 中国;武汉市;关东街道;湖北省;430050;China 中国
蔡甸区, 武汉市, 湖北省, China 中国;武汉市;关东街道;湖北省;430050;China 中国
罗立村, 东湖新技术开发区（托管）, 江夏区, 武汉市, 湖北省, China 中国;武汉市;关东街道;湖北省;430050;China 中国
龙泉大道, 佛祖岭街道, 东湖新技术开发区（托管）, 江夏区, 武汉市, 湖北省, 430073, China 中国;武汉市;佛祖岭街道;湖北省;430073;China 中国
蔡甸区, 武汉市, 湖北省, China 中国;武汉市;关东街道;湖北省;430050;China 中国
黄陂区, 武汉市, 湖北省, China 中国;武汉市;关东街道;湖北省;430050;China 中国
江夏区, 武汉市, 湖北省, 430073, China 中国;武汉市;关东街道;湖北省;430073;China 中国
S122, 湖泗街道, 咸安区, 咸宁市, 湖北省, China 中国;武汉市;关东街道;湖北省;430050;China 中国
蔡家榨街道, 黄陂区, 武汉市, 湖北省, China 中国;武汉市;关东街道;湖北省;430050;China 中国
黄陂区, 武汉市, 湖北省, China 中国;武汉市;黄陂区;湖北省;430050;China 中国
军山街, 武汉经济技术开发区（托管）, 蔡甸区, 武汉市, 湖北省, China 中国;武汉市;关东街道;湖北省;430050;China 中国
仓埠街, 新洲区, 武汉市, 湖北省, China 中国;武汉市;关东街道;湖北省;430050;China 中国
江夏区, 纸坊街, 江夏区, 武汉市, 湖北省, China 中国;武汉市;关东街道;湖北省;430050;China 中国
湖泗街道, 江夏区, 武汉市, 湖北省, China 中国;武汉市;关东街道;湖北省;430050;China 中国
花山街道, 东湖新技术开发区（托管）, 洪山区, 武汉市, 湖北省, China 中国;武汉市;花山街道;湖北省;430050;China 中国
凤凰镇, 新洲区, 武汉市, 湖北省, China 中国;武汉市;关东街道;湖北省;430050;China 中国
潘塘街, 新洲区, 武汉市, 湖北省, China 中国;武汉市;关东街道;湖北省;430050;China 中国
关东街道, 东湖新技术开发区（托管）, 洪山区, 武汉市, 湖北省, 430075, China 中国;武汉市;关东街道;湖北省;430075;China 中国
江夏区, 武汉市, 湖北省, 430073, China 中国;武汉市;关东街道;湖北省;430073;China 中国
舒安街道, 江夏区, 武汉市, 湖北省, China 中国;武汉市;关东街道;湖北省;430050;China 中国
邾城街, 新洲区, 武汉市, 湖北省, China 中国;武汉市;关东街道;湖北省;430050;China 中国
涨渡湖街, 新洲区, 武汉市, 湖北省, China 中国;武汉市;关东街道;湖北省;430050;China 中国
蔡甸区, 武汉市, 湖北省, 430101, China 中国;武汉市;蔡甸区;湖北省;430101;China 中国
蔡家榨街道, 黄陂区, 武汉市, 湖北省, China 中国;武汉市;关东街道;湖北省;430050;China 中国
乌龙泉街, 江夏区, 武汉市, 湖北省, China 中国;武汉市;关东街道;湖北省;430050;China 中国
金水办事处, 江夏区, 武汉市, 湖北省, China 中国;武汉市;关东街道;湖北省;430050;China 中国
文化大道, 江夏区, 武汉市, 湖北省, China 中国;武汉市;江夏区;湖北省;430050;China 中国
法泗街, 江夏区, 武汉市, 湖北省, China 中国;武汉市;关东街道;湖北省;430050;China 中国
吴游山湾, 新洲区, 武汉市, 湖北省, China 中国;武汉市;关东街道;湖北省;430050;China 中国
蔡家榨街道, 黄陂区, 武汉市, 湖北省, China 中国;武汉市;关东街道;湖北省;430050;China 中国
大潭原种场, 黄陂区, 武汉市, 湖北省, China 中国;武汉市;关东街道;湖北省;430050;China 中国
金银湖街道, 东西湖区, 武汉市, 湖北省, China 中国;武汉市;金银湖街道;湖北省;430050;China 中国
冶金街道, 青山区, 武汉市, 湖北省, 430080, China 中国;武汉市;冶金街道;湖北省;430080;China 中国
S314, 湖泗街道, 江夏区, 黄石市, 湖北省, China 中国;武汉市;黄石市;湖北省;430050;China 中国
蔡甸区, 武汉市, 湖北省, 430101, China 中国;武汉市;蔡甸区;湖北省;430101;China 中国
新洲区, 武汉市, 湖北省, China 中国;武汉市;新洲区;湖北省;430050;China 中国
S109, 阳逻街, 新洲区, 武汉市, 湖北省, China 中国;武汉市;关东街道;湖北省;430050;China 中国
蔡甸区, 武汉市, 湖北省, China 中国;武汉市;蔡甸区;湖北省;430050;China 中国
张家冲, 黄陂区, 武汉市, 湖北省, China 中国;武汉市;黄陂区;湖北省;430050;China 中国
金水办事处, 江夏区, 武汉市, 湖北省, China 中国;武汉市;关东街道;湖北省;430050;China 中国
木兰山风景区, 黄陂区, 武汉市, 湖北省, China 中国;武汉市;关东街道;湖北省;430050;China 中国
军山街道, 武汉经济技术开发区（托管）, 汉南区, 武汉市, 湖北省, China 中国;武汉市;军山街道;湖北省;430050;China 中国
蔡甸区, 武汉市, 湖北省, China 中国;武汉市;关东街道;湖北省;430050;China 中国
东西湖区, 武汉市, 湖北省, China 中国;武汉市;东西湖区;湖北省;430050;China 中国
武汉-深圳高速公路, 法泗街, 江夏区, 武汉市, 湖北省, China 中国;武汉市;关东街道;湖北省;430050;China 中国
李纸路, 洪山街道, 洪山区, 武汉市, 湖北省, 430068, China 中国;武汉市;洪山街道;湖北省;430068;China 中国
江夏区, 武汉市, 湖北省, 430073, China 中国;武汉市;关东街道;湖北省;430073;China 中国
覃庙, 流芳街道, 东湖新技术开发区（托管）, 江夏区, 武汉市, 湖北省, China 中国;武汉市;流芳街道;湖北省;430050;China 中国
蔡店街道, 黄陂区, 武汉市, 湖北省, China 中国;武汉市;关东街道;湖北省;430050;China 中国
木兰山风景区, 黄陂区, 武汉市, 湖北省, China 中国;武汉市;关东街道;湖北省;430050;China 中国
新洲区, 武汉市, 湖北省, China 中国;武汉市;新洲区;湖北省;430050;China 中国
永丰街道, 汉阳区, 武汉市, 湖北省, China 中国;武汉市;永丰街道;湖北省;430050;China 中国
黄陂区, 武汉市, 湖北省, China 中国;武汉市;黄陂区;湖北省;430050;China 中国
关东街道, 东湖新技术开发区（托管）, 洪山区, 武汉市, 湖北省, China 中国;武汉市;关东街道;湖北省;430050;China 中国
文岭办事处, 蔡甸区, 武汉市, 湖北省, 430101, China 中国;武汉市;关东街道;湖北省;430101;China 中国
东荆街, 汉南区, 武汉市, 湖北省, China 中国;武汉市;关东街道;湖北省;430050;China 中国
永安街, 蔡甸区, 武汉市, 湖北省, China 中国;武汉市;关东街道;湖北省;430050;China 中国
军山街道, 武汉经济技术开发区（托管）, 蔡甸区, 武汉市, 湖北省, China 中国;武汉市;军山街道;湖北省;430050;China 中国
法泗街, 江夏区, 武汉市, 湖北省, China 中国;武汉市;关东街道;湖北省;430050;China 中国
安山街, 江夏区, 武汉市, 湖北省, China 中国;武汉市;关东街道;湖北省;430050;China 中国
邾城街, 新洲区, 武汉市, 湖北省, China 中国;武汉市;关东街道;湖北省;430050;China 中国
邾城街, 新洲区, 武汉市, 湖北省, China 中国;武汉市;关东街道;湖北省;430050;China 中国
安山街, 江夏区, 武汉市, 湖北省, China 中国;武汉市;关东街道;湖北省;430050;China 中国
武汉-深圳高速公路, 法泗街, 江夏区, 武汉市, 湖北省, China 中国;武汉市;关东街道;湖北省;430050;China 中国
汉南区, 武汉市, 湖北省, China 中国;武汉市;汉南区;湖北省;430050;China 中国
江夏区, 武汉市, 湖北省, 430073, China 中国;武汉市;关东街道;湖北省;430073;China 中国
杨园街道, 武昌区, 武汉市, 湖北省, 430080, China 中国;武汉市;杨园街道;湖北省;430080;China 中国
X007, 湖泗街道, 江夏区, 武汉市, 湖北省, China 中国;武汉市;关东街道;湖北省;430050;China 中国
桐湖办事处, 蔡甸区, 武汉市, 湖北省, China 中国;武汉市;关东街道;湖北省;430050;China 中国
乌龙泉街, 江夏区, 武汉市, 湖北省, China 中国;武汉市;关东街道;湖北省;430050;China 中国
汪集街, 新洲区, 武汉市, 湖北省, China 中国;武汉市;关东街道;湖北省;430050;China 中国
六指街道, 黄陂区, 武汉市, 湖北省, China 中国;武汉市;关东街道;湖北省;430050;China 中国
黄陂区, 武汉市, 湖北省, China 中国;武汉市;关东街道;湖北省;430050;China 中国
玉贤镇, 蔡甸区, 武汉市, 湖北省, China 中国;武汉市;关东街道;湖北省;430050;China 中国
汪集街, 新洲区, 武汉市, 湖北省, China 中国;武汉市;关东街道;湖北省;430050;China 中国
王家河街, 黄陂区, 武汉市, 湖北省, China 中国;武汉市;关东街道;湖北省;430050;China 中国
八吉府街, 武汉化学工业新区（托管）, 洪山区, 武汉市, 湖北省, China 中国;武汉市;关东街道;湖北省;430050;China 中国
新洲区, 武汉市, 湖北省, China 中国;武汉市;新洲区;湖北省;430050;China 中国
湘口街道, 汉南区, 武汉市, 湖北省, China 中国;武汉市;湘口街道;湖北省;430050;China 中国
鲁磨路, Fangjia, 东湖生态旅游风景区（托管）, 洪山区, 武汉市, 湖北省, 430074, China 中国;武汉市;关东街道;湖北省;430074;China 中国
团风县, 黄冈市, 湖北省, China 中国;武汉市;关东街道;湖北省;430050;China 中国
汉南区, 武汉市, 湖北省, China 中国;武汉市;汉南区;湖北省;430050;China 中国
祁家湾街道, 黄陂区, 武汉市, 湖北省, China 中国;武汉市;关东街道;湖北省;430050;China 中国
六指街道, 黄陂区, 武汉市, 湖北省, China 中国;武汉市;关东街道;湖北省;430050;China 中国
王家河街, 黄陂区, 武汉市, 湖北省, China 中国;武汉市;关东街道;湖北省;430050;China 中国
阳逻街, 新洲区, 武汉市, 湖北省, China 中国;武汉市;关东街道;湖北省;430050;China 中国
京港澳高速公路, 郑店街, 江夏区, 武汉市, 湖北省, China 中国;武汉市;关东街道;湖北省;430050;China 中国
蔡家榨街道, 黄陂区, 武汉市, 湖北省, China 中国;武汉市;关东街道;湖北省;430050;China 中国
中兴路, 天河街, 黄陂区, 武汉市, 湖北省, China 中国;武汉市;关东街道;湖北省;430050;China 中国
舒安街道, 江夏区, 武汉市, 湖北省, China 中国;武汉市;关东街道;湖北省;430050;China 中国
蔡甸区, 武汉市, 湖北省, 430101, China 中国;武汉市;蔡甸区;湖北省;430101;China 中国
横店街道, 黄陂区, 武汉市, 湖北省, China 中国;武汉市;关东街道;湖北省;430050;China 中国
武汉工程大学邮电与信息工程学院, 88号, 邮科院路, 关山街道, 东湖生态旅游风景区（托管）, 洪山区, 武汉市, 湖北省, 430070, China 中国;武汉市;关山街道;湖北省;430070;China 中国
邓南街, 汉南区, 武汉市, 湖北省, China 中国;武汉市;关东街道;湖北省;430050;China 中国
大集街, 蔡甸区, 武汉市, 湖北省, 430100, China 中国;武汉市;关东街道;湖北省;430100;China 中国
金港新区, 江夏区, 武汉市, 湖北省, China 中国;武汉市;关东街道;湖北省;430050;China 中国
小陈家湾, 黄陂区, 武汉市, 湖北省, China 中国;武汉市;关东街道;湖北省;430050;China 中国
新洲区, 武汉市, 湖北省, China 中国;武汉市;关东街道;湖北省;430050;China 中国
蔡店街道, 黄陂区, 武汉市, 湖北省, China 中国;武汉市;关东街道;湖北省;430050;China 中国
蔡店街道, 黄陂区, 武汉市, 湖北省, China 中国;武汉市;关东街道;湖北省;430050;China 中国
武汉绕城高速公路, 黄陂区, 武汉市, 湖北省, China 中国;武汉市;黄陂区;湖北省;430050;China 中国
王家河街, 黄陂区, 武汉市, 湖北省, China 中国;武汉市;关东街道;湖北省;430050;China 中国
黄陂区, 武汉市, 湖北省, China 中国;武汉市;关东街道;湖北省;430050;China 中国
琴台大道, 月湖街道, 汉阳区, 武汉市, 湖北省, 430030, China 中国;武汉市;月湖街道;湖北省;430030;China 中国
新洲区, 武汉市, 湖北省, China 中国;武汉市;关东街道;湖北省;430050;China 中国
江夏区, 纸坊街, 江夏区, 武汉市, 湖北省, China 中国;武汉市;关东街道;湖北省;430050;China 中国
安山街, 江夏区, 武汉市, 湖北省, China 中国;武汉市;关东街道;湖北省;430050;China 中国
中南财经政法大学（南湖校区）, 182, 南湖大道, 东湖新技术开发区, 关东街道, 东湖新技术开发区（托管）, 江夏区, 武汉市, 湖北省, 430070, China 中国;武汉市;关东街道;湖北省;430070;China 中国
黄陂区, 武汉市, 湖北省, China 中国;武汉市;关东街道;湖北省;430050;China 中国
山湖路, 江夏区, 武汉市, 湖北省, China 中国;武汉市;江夏区;湖北省;430050;China 中国
永安街, 蔡甸区, 武汉市, 湖北省, China 中国;武汉市;关东街道;湖北省;430050;China 中国
长轩岭街道, 黄陂区, 武汉市, 湖北省, China 中国;武汉市;关东街道;湖北省;430050;China 中国
团风县, 黄冈市, 湖北省, China 中国;武汉市;关东街道;湖北省;430050;China 中国
中兴路, 天河街, 黄陂区, 武汉市, 湖北省, China 中国;武汉市;关东街道;湖北省;430050;China 中国
水果湖街道, 武昌区, 武汉市, 湖北省, 430072, China 中国;武汉市;水果湖街道;湖北省;430072;China 中国
S102, 金水办事处, 江夏区, 武汉市, 湖北省, China 中国;武汉市;关东街道;湖北省;430050;China 中国
舒安街道, 江夏区, 武汉市, 湖北省, China 中国;武汉市;关东街道;湖北省;430050;China 中国
姚家集街道, 黄陂区, 武汉市, 湖北省, China 中国;武汉市;关东街道;湖北省;430050;China 中国
尚隆路, 积玉桥街道, 武昌区, 武汉市, 湖北省, 230060, China 中国;武汉市;积玉桥街道;湖北省;230060;China 中国
长青街道 (Changking), 东西湖区, 武汉市, 湖北省, China 中国;武汉市;长青街道 (Changking);湖北省;430050;China 中国
侏儒街, 蔡甸区, 武汉市, 湖北省, China 中国;武汉市;关东街道;湖北省;430050;China 中国
王家河街, 黄陂区, 武汉市, 湖北省, China 中国;武汉市;关东街道;湖北省;430050;China 中国
祁家湾街道, 黄陂区, 武汉市, 湖北省, China 中国;武汉市;关东街道;湖北省;430050;China 中国
蔡店街道, 黄陂区, 武汉市, 湖北省, China 中国;武汉市;关东街道;湖北省;430050;China 中国
中兴社区, 琴断口街道, 汉阳区, 武汉市, 湖北省, 430034, China 中国;武汉市;琴断口街道;湖北省;430034;China 中国
祁家湾街道, 黄陂区, 武汉市, 湖北省, China 中国;武汉市;关东街道;湖北省;430050;China 中国
六指街道, 黄陂区, 武汉市, 湖北省, China 中国;武汉市;关东街道;湖北省;430050;China 中国
汪集街, 新洲区, 武汉市, 湖北省, China 中国;武汉市;关东街道;湖北省;430050;China 中国
新洲区, 黄冈市, 湖北省, 438803, China 中国;武汉市;关东街道;湖北省;438803;China 中国
乌龙泉街, 江夏区, 武汉市, 湖北省, China 中国;武汉市;关东街道;湖北省;430050;China 中国
冯老塆, 黄陂区, 武汉市, 湖北省, China 中国;武汉市;黄陂区;湖北省;430050;China 中国
五大路, 大屋陈集镇, 滨湖街道, 东湖新技术开发区（托管）, 江夏区, 武汉市, 湖北省, China 中国;武汉市;滨湖街道;湖北省;430050;China 中国
新洲原种场, 新洲区, 武汉市, 湖北省, China 中国;武汉市;关东街道;湖北省;430050;China 中国
黄陂区, 武汉市, 湖北省, China 中国;武汉市;黄陂区;湖北省;430050;China 中国
金水办事处, 江夏区, 武汉市, 湖北省, China 中国;武汉市;关东街道;湖北省;430050;China 中国
涨渡湖街, 新洲区, 武汉市, 湖北省, China 中国;武汉市;关东街道;湖北省;430050;China 中国
X019, 消泗乡, 蔡甸区, 武汉市, 湖北省, China 中国;武汉市;关东街道;湖北省;430050;China 中国
车城大道, 沌口街道, 武汉经济技术开发区（托管）, 蔡甸区, 武汉市, 湖北省, 430056, China 中国;武汉市;沌口街道;湖北省;430056;China 中国
莲花湖, 义勇路, 蔡甸街, 蔡甸区, 武汉市, 湖北省, 430100, China 中国;武汉市;关东街道;湖北省;430100;China 中国
巨龍大道, 滠口街道, 黄陂区, 武汉市, 湖北省, 420112, China 中国;武汉市;关东街道;湖北省;420112;China 中国
江夏区, 武汉市, 湖北省, China 中国;武汉市;江夏区;湖北省;430050;China 中国
x009, 嘉鱼县, 武汉市, 湖北省, China 中国;武汉市;关东街道;湖北省;430050;China 中国
五环大道, 径河街道 (Jinghe), 东西湖区, 武汉市, 湖北省, China 中国;武汉市;径河街道 (Jinghe);湖北省;430050;China 中国
洪山街道, 洪山区, 武汉市, 湖北省, 430068, China 中国;武汉市;洪山街道;湖北省;430068;China 中国
木兰山风景区, 黄陂区, 武汉市, 湖北省, China 中国;武汉市;关东街道;湖北省;430050;China 中国
径河街道 (Jinghe), 东西湖区, 武汉市, 湖北省, China 中国;武汉市;径河街道 (Jinghe);湖北省;430050;China 中国
新洲原种场, 新洲区, 武汉市, 湖北省, China 中国;武汉市;关东街道;湖北省;430050;China 中国
涨渡湖街, 新洲区, 武汉市, 湖北省, China 中国;武汉市;关东街道;湖北省;430050;China 中国
汉蔡高速, 索河镇, 蔡甸区, 武汉市, 湖北省, China 中国;武汉市;关东街道;湖北省;430050;China 中国
新洲区, 武汉市, 湖北省, China 中国;武汉市;新洲区;湖北省;430050;China 中国
法泗街, 江夏区, 武汉市, 湖北省, China 中国;武汉市;关东街道;湖北省;430050;China 中国
邓南街, 汉南区, 武汉市, 湖北省, China 中国;武汉市;关东街道;湖北省;430050;China 中国
洪北管委会, 蔡甸区, 武汉市, 湖北省, China 中国;武汉市;关东街道;湖北省;430050;China 中国
法泗街, 江夏区, 武汉市, 湖北省, China 中国;武汉市;关东街道;湖北省;430050;China 中国
何家湖北街, 江夏区, 武汉市, 湖北省, China 中国;武汉市;江夏区;湖北省;430050;China 中国
双柳街, 新洲区, 武汉市, 湖北省, China 中国;武汉市;关东街道;湖北省;430050;China 中国
豹澥街道, 东湖新技术开发区（托管）, 江夏区, 武汉市, 湖北省, China 中国;武汉市;豹澥街道;湖北省;430050;China 中国
径河街道 (Jinghe), 东西湖区, 武汉市, 湖北省, China 中国;武汉市;径河街道 (Jinghe);湖北省;430050;China 中国
军山街道, 武汉经济技术开发区（托管）, 蔡甸区, 武汉市, 湖北省, China 中国;武汉市;军山街道;湖北省;430050;China 中国
湖泗街道, 江夏区, 武汉市, 湖北省, China 中国;武汉市;湖泗街道;湖北省;430050;China 中国
徐古街道, 新洲区, 武汉市, 湖北省, China 中国;武汉市;关东街道;湖北省;430050;China 中国
S122, 湖泗街道, 江夏区, 咸宁市, 湖北省, China 中国;武汉市;关东街道;湖北省;430050;China 中国
黄陂区, 武汉市, 湖北省, China 中国;武汉市;黄陂区;湖北省;430050;China 中国
黄陂区, 武汉市, 湖北省, China 中国;武汉市;黄陂区;湖北省;430050;China 中国
洪北管委会, 蔡甸区, 武汉市, 湖北省, China 中国;武汉市;关东街道;湖北省;430050;China 中国
长轩岭街道, 黄陂区, 武汉市, 湖北省, China 中国;武汉市;关东街道;湖北省;430050;China 中国
王家河街, 黄陂区, 武汉市, 湖北省, China 中国;武汉市;关东街道;湖北省;430050;China 中国
金水办事处, 江夏区, 武汉市, 湖北省, China 中国;武汉市;关东街道;湖北省;430050;China 中国
三环线, 张家湾街道, 洪山区, 武汉市, 湖北省, 460065, China 中国;武汉市;关东街道;湖北省;460065;China 中国
乌龙泉街, 江夏区, 武汉市, 湖北省, China 中国;武汉市;关东街道;湖北省;430050;China 中国
宝丰街, 宝丰街道, 硚口区, 武汉市, 湖北省, 430030, China 中国;武汉市;宝丰街道;湖北省;430030;China 中国
谌家矶街道, 江岸区, 武汉市, 湖北省, China 中国;武汉市;谌家矶街道;湖北省;430050;China 中国
财富大厦, 义和巷, 球场街道, 江岸区, 武汉市, 湖北省, 430022, China 中国;武汉市;球场街道;湖北省;430022;China 中国
湘口街道, 汉南区, 武汉市, 湖北省, China 中国;武汉市;关东街道;湖北省;430050;China 中国
军山街道, 武汉经济技术开发区（托管）, 汉南区, 武汉市, 湖北省, China 中国;武汉市;军山街道;湖北省;430050;China 中国
饶子庄, 江夏区, 武汉市, 湖北省, China 中国;武汉市;关东街道;湖北省;430050;China 中国
奓山街, 蔡甸区, 武汉市, 湖北省, China 中国;武汉市;关东街道;湖北省;430050;China 中国
K11 Select, 新南路, 保利时代K17, 东湖新技术开发区, 关东街道, 东湖新技术开发区（托管）, 洪山区, 武汉市, 湖北省, 430074, China 中国;武汉市;关东街道;湖北省;430074;China 中国
X033, 徐古街道, 新洲区, 武汉市, 湖北省, China 中国;武汉市;关东街道;湖北省;430050;China 中国
舒安街道, 江夏区, 武汉市, 湖北省, China 中国;武汉市;关东街道;湖北省;430050;China 中国
高科园三路, 豹澥街道, 东湖新技术开发区（托管）, 洪山区, 武汉市, 湖北省, 430073, China 中国;武汉市;豹澥街道;湖北省;430073;China 中国
吴游山湾, 新洲区, 武汉市, 湖北省, China 中国;武汉市;关东街道;湖北省;430050;China 中国
旧街街道, 新洲区, 武汉市, 湖北省, China 中国;武汉市;关东街道;湖北省;430050;China 中国
惠安大道, 慈惠街道, 东西湖区, 武汉市, 湖北省, 430101, China 中国;武汉市;慈惠街道;湖北省;430101;China 中国
江夏区, 武汉市, 湖北省, 430073, China 中国;武汉市;关东街道;湖北省;430073;China 中国
乌龙泉东, 纸贺线, 乌龙泉街, 江夏区, 武汉市, 湖北省, China 中国;武汉市;关东街道;湖北省;430050;China 中国
黄陂区, 武汉市, 湖北省, China 中国;武汉市;黄陂区;湖北省;430050;China 中国
桐湖办事处, 蔡甸区, 武汉市, 湖北省, China 中国;武汉市;关东街道;湖北省;430050;China 中国
蔡家榨街道, 黄陂区, 武汉市, 湖北省, China 中国;武汉市;关东街道;湖北省;430050;China 中国
侏儒街, 蔡甸区, 武汉市, 湖北省, China 中国;武汉市;关东街道;湖北省;430050;China 中国
蔡店街道, 黄陂区, 武汉市, 湖北省, China 中国;武汉市;关东街道;湖北省;430050;China 中国
武汉科技大学黄家湖校区, 黄家湖三街, 青菱街道, 洪山区, 武汉市, 湖北省, 460065, China 中国;武汉市;青菱街道;湖北省;460065;China 中国
新洲区, 武汉市, 湖北省, China 中国;武汉市;新洲区;湖北省;430050;China 中国
青菱街道, 江夏区, 武汉市, 湖北省, China 中国;武汉市;青菱街道;湖北省;430050;China 中国
蔡店街道, 黄陂区, 武汉市, 湖北省, China 中国;武汉市;关东街道;湖北省;430050;China 中国
华泰街, 江夏区, 武汉市, 湖北省, China 中国;武汉市;江夏区;湖北省;430050;China 中国
凤凰镇, 新洲区, 武汉市, 湖北省, China 中国;武汉市;关东街道;湖北省;430050;China 中国
新洲区, 武汉市, 湖北省, China 中国;武汉市;关东街道;湖北省;430050;China 中国
新洲区, 武汉市, 湖北省, China 中国;武汉市;新洲区;湖北省;430050;China 中国
HuangTu Road, 姚家集街道, 黄陂区, 武汉市, 湖北省, China 中国;武汉市;关东街道;湖北省;430050;China 中国
S310, 鲁台, 黄陂区, 武汉市, 湖北省, China 中国;武汉市;黄陂区;湖北省;430050;China 中国
武汉-深圳高速公路, 法泗街, 江夏区, 武汉市, 湖北省, China 中国;武汉市;关东街道;湖北省;430050;China 中国
蔡甸区, 武汉市, 湖北省, China 中国;武汉市;蔡甸区;湖北省;430050;China 中国
罗汉寺街道, 黄陂区, 武汉市, 湖北省, China 中国;武汉市;关东街道;湖北省;430050;China 中国
新洲区, 武汉市, 湖北省, China 中国;武汉市;关东街道;湖北省;430050;China 中国
凤凰镇, 新洲区, 武汉市, 湖北省, China 中国;武汉市;关东街道;湖北省;430050;China 中国
索河镇, 蔡甸区, 武汉市, 湖北省, China 中国;武汉市;关东街道;湖北省;430050;China 中国
S110, 孝南区, 武汉市, 湖北省, China 中国;武汉市;关东街道;湖北省;430050;China 中国
沪蓉高速公路, 黄陂区, 武汉市, 湖北省, China 中国;武汉市;黄陂区;湖北省;430050;China 中国
Panlong Avenue, 将军路街道, 东西湖区, 武汉市, 湖北省, 420112, China 中国;武汉市;将军路街道;湖北省;420112;China 中国
黄陂区, 武汉市, 湖北省, China 中国;武汉市;黄陂区;湖北省;430050;China 中国
新洲区, 武汉市, 湖北省, China 中国;武汉市;新洲区;湖北省;430050;China 中国
王家河街, 黄陂区, 武汉市, 湖北省, China 中国;武汉市;关东街道;湖北省;430050;China 中国
黄陂区, 武汉市, 湖北省, China 中国;武汉市;黄陂区;湖北省;430050;China 中国
天河街, 黄陂区, 武汉市, 湖北省, China 中国;武汉市;关东街道;湖北省;430050;China 中国
江心村, 洪山区, 武汉市, 湖北省, China 中国;武汉市;关东街道;湖北省;430050;China 中国
罗汉寺街道, 黄陂区, 武汉市, 湖北省, China 中国;武汉市;关东街道;湖北省;430050;China 中国
黄陂区, 武汉市, 湖北省, China 中国;武汉市;黄陂区;湖北省;430050;China 中国
蔡甸区, 武汉市, 湖北省, China 中国;武汉市;关东街道;湖北省;430050;China 中国
蔡甸区, 武汉市, 湖北省, 430100, China 中国;武汉市;蔡甸区;湖北省;430100;China 中国
新洲区, 武汉市, 湖北省, China 中国;武汉市;关东街道;湖北省;430050;China 中国
新洲区, 武汉市, 湖北省, China 中国;武汉市;关东街道;湖北省;430050;China 中国
洪北管委会, 蔡甸区, 武汉市, 湖北省, China 中国;武汉市;关东街道;湖北省;430050;China 中国
X007, 湖泗街道, 江夏区, 武汉市, 湖北省, China 中国;武汉市;关东街道;湖北省;430050;China 中国
养殖场, 东湖新技术开发区（托管）, 江夏区, 武汉市, 湖北省, China 中国;武汉市;养殖场;湖北省;430050;China 中国
长轩岭街道, 黄陂区, 武汉市, 湖北省, China 中国;武汉市;关东街道;湖北省;430050;China 中国
山坡街道, 江夏区, 武汉市, 湖北省, China 中国;武汉市;关东街道;湖北省;430050;China 中国
双柳街, 新洲区, 武汉市, 湖北省, China 中国;武汉市;关东街道;湖北省;430050;China 中国
东湖生态旅游风景区（托管）, 洪山区, 武汉市, 湖北省, China 中国;武汉市;关东街道;湖北省;430050;China 中国
革新大道, 长青街道 (Changking), 东西湖区, 武汉市, 湖北省, China 中国;武汉市;长青街道 (Changking);湖北省;430050;China 中国
长轩岭街道, 黄陂区, 武汉市, 湖北省, China 中国;武汉市;关东街道;湖北省;430050;China 中国
凤莲大道, 流芳街道, 东湖新技术开发区（托管）, 江夏区, 武汉市, 湖北省, China 中国;武汉市;流芳街道;湖北省;430050;China 中国
永丰街道, 汉阳区, 武汉市, 湖北省, 430034, China 中国;武汉市;永丰街道;湖北省;430034;China 中国
常福新城, 蔡甸区, 武汉市, 湖北省, China 中国;武汉市;关东街道;湖北省;430050;China 中国
六指街道, 黄陂区, 武汉市, 湖北省, China 中国;武汉市;关东街道;湖北省;430050;China 中国
蔡甸区, 武汉市, 湖北省, China 中国;武汉市;蔡甸区;湖北省;430050;China 中国
玉贤镇, 蔡甸区, 武汉市, 湖北省, 430100, China 中国;武汉市;关东街道;湖北省;430100;China 中国
金口街, 江夏区, 武汉市, 湖北省, China 中国;武汉市;关东街道;湖北省;430050;China 中国
常青街道, 江汉区, 武汉市, 湖北省, WUHAN HANKOU, China 中国;武汉市;常青街道;湖北省;WUHAN HANKOU;China 中国
X208, 新洲区, 黄冈市, 湖北省, China 中国;武汉市;关东街道;湖北省;430050;China 中国
蔡店街道, 黄陂区, 武汉市, 湖北省, China 中国;武汉市;关东街道;湖北省;430050;China 中国
新洲区, 武汉市, 湖北省, China 中国;武汉市;新洲区;湖北省;430050;China 中国
新洲区, 武汉市, 湖北省, China 中国;武汉市;关东街道;湖北省;430050;China 中国
山坡街道, 江夏区, 武汉市, 湖北省, China 中国;武汉市;关东街道;湖北省;430050;China 中国
江夏区, 武汉市, 湖北省, China 中国;武汉市;关东街道;湖北省;430050;China 中国
索河镇, 蔡甸区, 武汉市, 湖北省, China 中国;武汉市;关东街道;湖北省;430050;China 中国
军山街道, 武汉经济技术开发区（托管）, 蔡甸区, 武汉市, 湖北省, China 中国;武汉市;军山街道;湖北省;430050;China 中国
旧街街道, 新洲区, 武汉市, 湖北省, China 中国;武汉市;关东街道;湖北省;430050;China 中国
军山街道, 武汉经济技术开发区（托管）, 蔡甸区, 武汉市, 湖北省, China 中国;武汉市;军山街道;湖北省;430050;China 中国
新洲区, 武汉市, 湖北省, China 中国;武汉市;关东街道;湖北省;430050;China 中国
车城西路, 沌口街道, 武汉经济技术开发区（托管）, 蔡甸区, 武汉市, 湖北省, 430056, China 中国;武汉市;沌口街道;湖北省;430056;China 中国
东山办事处, 东西湖区, 武汉市, 湖北省, China 中国;武汉市;东山办事处;湖北省;430050;China 中国
新洲区, 武汉市, 湖北省, China 中国;武汉市;关东街道;湖北省;430050;China 中国
涨渡湖街, 新洲区, 武汉市, 湖北省, China 中国;武汉市;关东街道;湖北省;430050;China 中国
百曲公路, 侏儒街, 蔡甸区, 武汉市, 湖北省, China 中国;武汉市;关东街道;湖北省;430050;China 中国
蔡店街道, 黄陂区, 武汉市, 湖北省, China 中国;武汉市;关东街道;湖北省;430050;China 中国
G318, 奓山街, 蔡甸区, 武汉市, 湖北省, China 中国;武汉市;关东街道;湖北省;430050;China 中国
X007, 湖泗街道, 江夏区, 武汉市, 湖北省, China 中国;武汉市;关东街道;湖北省;430050;China 中国
关山大道, 东湖新技术开发区, 关东街道, 东湖新技术开发区（托管）, 洪山区, 武汉市, 湖北省, 430074, China 中国;武汉市;关东街道;湖北省;430074;China 中国
黄陂区, 武汉市, 湖北省, China 中国;武汉市;关东街道;湖北省;430050;China 中国
涨渡湖街, 新洲区, 武汉市, 湖北省, China 中国;武汉市;关东街道;湖北省;430050;China 中国
黄陂区, 武汉市, 湖北省, China 中国;武汉市;关东街道;湖北省;430050;China 中国
徐古街道, 新洲区, 武汉市, 湖北省, China 中国;武汉市;关东街道;湖北省;430050;China 中国
四環線 4the Ring Road, 北湖管委会, 武汉化学工业新区（托管）, 青山区, 武汉市, 湖北省, China 中国;武汉市;北湖管委会;湖北省;430050;China 中国
木兰乡, 黄陂区, 武汉市, 湖北省, China 中国;武汉市;关东街道;湖北省;430050;China 中国
梁子湖风景区, 江夏区, 武汉市, 湖北省, China 中国;武汉市;关东街道;湖北省;430050;China 中国
新洲区, 武汉市, 湖北省, China 中国;武汉市;新洲区;湖北省;430050;China 中国
新洲区, 武汉市, 湖北省, China 中国;武汉市;新洲区;湖北省;430050;China 中国
纸贺线, 江夏区, 乌龙泉街, 江夏区, 武汉市, 湖北省, China 中国;武汉市;关东街道;湖北省;430050;China 中国
黄陂区, 武汉市, 湖北省, China 中国;武汉市;关东街道;湖北省;430050;China 中国
李家集街道, 黄陂区, 武汉市, 湖北省, China 中国;武汉市;关东街道;湖北省;430050;China 中国
武汉 - 大理, 新沟镇街道, 东西湖区, 武汉市, 湖北省, China 中国;武汉市;关东街道;湖北省;430050;China 中国
S5G42S, 新洲区, 武汉市, 湖北省, China 中国;武汉市;新洲区;湖北省;430050;China 中国
金口街, 江夏区, 武汉市, 湖北省, China 中国;武汉市;关东街道;湖北省;430050;China 中国
G42, 黄陂区, 武汉市, 湖北省, China 中国;武汉市;黄陂区;湖北省;430050;China 中国
傅兴, 麻城市, 黄冈市, 湖北省, China 中国;武汉市;关东街道;湖北省;430050;China 中国
沿江大道, 丹水池街道, 江岸区, 武汉市, 湖北省, China 中国;武汉市;丹水池街道;湖北省;430050;China 中国
黄陂区, 武汉市, 湖北省, China 中国;武汉市;黄陂区;湖北省;430050;China 中国
木兰山风景区, 黄陂区, 武汉市, 湖北省, China 中国;武汉市;关东街道;湖北省;430050;China 中国
桐湖办事处, 蔡甸区, 武汉市, 湖北省, China 中国;武汉市;关东街道;湖北省;430050;China 中国
G106, 新洲区, 武汉市, 湖北省, China 中国;武汉市;关东街道;湖北省;430050;China 中国
江夏区, 武汉市, 湖北省, China 中国;武汉市;江夏区;湖北省;430050;China 中国
黄陂区, 武汉市, 湖北省, China 中国;武汉市;黄陂区;湖北省;430050;China 中国
S310, 鲁台, 黄陂区, 武汉市, 湖北省, China 中国;武汉市;黄陂区;湖北省;430050;China 中国
楼子湾, 黄陂区, 武汉市, 湖北省, China 中国;武汉市;关东街道;湖北省;430050;China 中国
罗汉寺街道, 黄陂区, 武汉市, 湖北省, China 中国;武汉市;关东街道;湖北省;430050;China 中国
罗汉寺街道, 黄陂区, 武汉市, 湖北省, China 中国;武汉市;关东街道;湖北省;430050;China 中国
玉贤镇, 蔡甸区, 武汉市, 湖北省, 430100, China 中国;武汉市;关东街道;湖北省;430100;China 中国
汉口火车站, 常青一路, 汉兴街道, 江汉区, 武汉市, 湖北省, WUHAN HANKOU, China 中国;武汉市;汉兴街道;湖北省;WUHAN HANKOU;China 中国
李集街, 新洲区, 武汉市, 湖北省, China 中国;武汉市;关东街道;湖北省;430050;China 中国
徐古街道, 新洲区, 武汉市, 湖北省, China 中国;武汉市;关东街道;湖北省;430050;China 中国
青化路, 白玉山街道, 青山区, 武汉市, 湖北省, China 中国;武汉市;白玉山街道;湖北省;430050;China 中国
洪北管委会, 蔡甸区, 武汉市, 湖北省, China 中国;武汉市;关东街道;湖北省;430050;China 中国
S122, 江夏区, 武汉市, 湖北省, China 中国;武汉市;江夏区;湖北省;430050;China 中国
法泗街, 江夏区, 武汉市, 湖北省, China 中国;武汉市;关东街道;湖北省;430050;China 中国
黄陂区, 武汉市, 湖北省, China 中国;武汉市;黄陂区;湖北省;430050;China 中国
纸贺线, 乌龙泉街, 江夏区, 武汉市, 湖北省, China 中国;武汉市;关东街道;湖北省;430050;China 中国
汉十高速, 横店街道, 黄陂区, 武汉市, 湖北省, China 中国;武汉市;关东街道;湖北省;430050;China 中国
新洲区, 武汉市, 湖北省, China 中国;武汉市;新洲区;湖北省;430050;China 中国
新洲区, 武汉市, 湖北省, China 中国;武汉市;关东街道;湖北省;430050;China 中国
山坡街道, 江夏区, 武汉市, 湖北省, China 中国;武汉市;关东街道;湖北省;430050;China 中国
黄陂区, 武汉市, 湖北省, China 中国;武汉市;黄陂区;湖北省;430050;China 中国
凤凰园二路, 佛祖岭街道, 东湖新技术开发区（托管）, 江夏区, 武汉市, 湖北省, China 中国;武汉市;佛祖岭街道;湖北省;430050;China 中国
G42, 黄陂区, 武汉市, 湖北省, China 中国;武汉市;黄陂区;湖北省;430050;China 中国
湖泗街道, 江夏区, 武汉市, 湖北省, China 中国;武汉市;关东街道;湖北省;430050;China 中国
金銀潭大道, 将军路街道, 东西湖区, 武汉市, 湖北省, 420112, China 中国;武汉市;将军路街道;湖北省;420112;China 中国
法泗街, 江夏区, 武汉市, 湖北省, China 中国;武汉市;关东街道;湖北省;430050;China 中国
草塘角, 滠口街道, 黄陂区, 武汉市, 湖北省, China 中国;武汉市;关东街道;湖北省;430050;China 中国
团风县, 黄冈市, 湖北省, China 中国;武汉市;关东街道;湖北省;430050;China 中国
金水办事处, 江夏区, 武汉市, 湖北省, China 中国;武汉市;关东街道;湖北省;430050;China 中国
凤凰镇, 新洲区, 武汉市, 湖北省, China 中国;武汉市;关东街道;湖北省;430050;China 中国
柏银路, 金银湖街道, 东西湖区, 武汉市, 湖北省, China 中国;武汉市;金银湖街道;湖北省;430050;China 中国
双柳街, 新洲区, 武汉市, 湖北省, China 中国;武汉市;关东街道;湖北省;430050;China 中国
黄陂区, 武汉市, 湖北省, China 中国;武汉市;黄陂区;湖北省;430050;China 中国
江夏区, 武汉市, 湖北省, China 中国;武汉市;江夏区;湖北省;430050;China 中国
新洲区, 武汉市, 湖北省, China 中国;武汉市;关东街道;湖北省;430050;China 中国
汪集街, 新洲区, 武汉市, 湖北省, China 中国;武汉市;关东街道;湖北省;430050;China 中国
双柳街, 新洲区, 武汉市, 湖北省, China 中国;武汉市;关东街道;湖北省;430050;China 中国
大潭原种场, 黄陂区, 武汉市, 湖北省, China 中国;武汉市;关东街道;湖北省;430050;China 中国
武汉绕城高速公路, 东西湖区, 武汉市, 湖北省, China 中国;武汉市;东西湖区;湖北省;430050;China 中国
S111, 新洲区, 武汉市, 湖北省, China 中国;武汉市;新洲区;湖北省;430050;China 中国
徐古街道, 新洲区, 武汉市, 湖北省, China 中国;武汉市;关东街道;湖北省;430050;China 中国
王家河街, 黄陂区, 武汉市, 湖北省, China 中国;武汉市;关东街道;湖北省;430050;China 中国
阳逻街, 新洲区, 武汉市, 湖北省, China 中国;武汉市;关东街道;湖北省;430050;China 中国
新洲区, 武汉市, 湖北省, China 中国;武汉市;关东街道;湖北省;430050;China 中国
罗汉寺街道, 黄陂区, 武汉市, 湖北省, China 中国;武汉市;关东街道;湖北省;430050;China 中国
蔡甸区, 武汉市, 湖北省, 430101, China 中国;武汉市;蔡甸区;湖北省;430101;China 中国
S104, 玉贤镇, 蔡甸区, 武汉市, 湖北省, 430100, China 中国;武汉市;关东街道;湖北省;430100;China 中国
消泗乡, 蔡甸区, 武汉市, 湖北省, China 中国;武汉市;关东街道;湖北省;430050;China 中国
发展大道, 唐家墩街道, 江汉区, 武汉市, 湖北省, WUHAN HANKOU, China 中国;武汉市;唐家墩街道;湖北省;WUHAN HANKOU;China 中国
消泗乡, 蔡甸区, 武汉市, 湖北省, China 中国;武汉市;关东街道;湖北省;430050;China 中国
蔡甸区, 武汉市, 湖北省, China 中国;武汉市;关东街道;湖北省;430050;China 中国
木兰乡, 黄陂区, 武汉市, 湖北省, China 中国;武汉市;关东街道;湖北省;430050;China 中国
新洲区, 武汉市, 湖北省, China 中国;武汉市;新洲区;湖北省;430050;China 中国
三店街, 新洲区, 武汉市, 湖北省, China 中国;武汉市;关东街道;湖北省;430050;China 中国
琴川大道, 蔡甸区, 武汉市, 湖北省, 430101, China 中国;武汉市;蔡甸区;湖北省;430101;China 中国
军山街道, 武汉经济技术开发区（托管）, 蔡甸区, 武汉市, 湖北省, China 中国;武汉市;军山街道;湖北省;430050;China 中国
邓南街, 汉南区, 武汉市, 湖北省, China 中国;武汉市;关东街道;湖北省;430050;China 中国
G42, 新沟镇街道, 东西湖区, 武汉市, 湖北省, China 中国;武汉市;关东街道;湖北省;430050;China 中国
劳动街道, 江岸区, 武汉市, 湖北省, 430015, China 中国;武汉市;劳动街道;湖北省;430015;China 中国
法泗街, 江夏区, 武汉市, 湖北省, China 中国;武汉市;关东街道;湖北省;430050;China 中国
江夏区, 武汉市, 湖北省, China 中国;武汉市;江夏区;湖北省;430050;China 中国
桐湖办事处, 蔡甸区, 武汉市, 湖北省, China 中国;武汉市;关东街道;湖北省;430050;China 中国
黄陂区, 武汉市, 湖北省, China 中国;武汉市;关东街道;湖北省;430050;China 中国
长轩岭街道, 黄陂区, 武汉市, 湖北省, China 中国;武汉市;关东街道;湖北省;430050;China 中国
金龙大街, 江夏区, 武汉市, 湖北省, China 中国;武汉市;江夏区;湖北省;430050;China 中国
军山街道, 武汉经济技术开发区（托管）, 蔡甸区, 武汉市, 湖北省, China 中国;武汉市;军山街道;湖北省;430050;China 中国
八吉府街道, 武汉化学工业新区（托管）, 青山区, 武汉市, 湖北省, China 中国;武汉市;八吉府街道;湖北省;430050;China 中国
涨渡湖街, 新洲区, 武汉市, 湖北省, China 中国;武汉市;关东街道;湖北省;430050;China 中国
涨渡湖街, 新洲区, 武汉市, 湖北省, China 中国;武汉市;关东街道;湖北省;430050;China 中国
侏儒街, 蔡甸区, 武汉市, 湖北省, China 中国;武汉市;关东街道;湖北省;430050;China 中国
武汉长江公铁隧道, 四唯街道, 武昌区, 武汉市, 湖北省, 430062, China 中国;武汉市;四唯街道;湖北省;430062;China 中国
侏儒街, 蔡甸区, 武汉市, 湖北省, China 中国;武汉市;关东街道;湖北省;430050;China 中国
双柳街, 新洲区, 武汉市, 湖北省, China 中国;武汉市;关东街道;湖北省;430050;China 中国
湖泗街道, 江夏区, 武汉市, 湖北省, China 中国;武汉市;湖泗街道;湖北省;430050;China 中国
武鄂高速公路, 武东街道, 青山区, 武汉市, 湖北省, China 中国;武汉市;武东街道;湖北省;430050;China 中国
大集街, 蔡甸区, 武汉市, 湖北省, 430100, China 中国;武汉市;关东街道;湖北省;430100;China 中国
江夏区, 武汉市, 湖北省, China 中国;武汉市;江夏区;湖北省;430050;China 中国
高新二路, 九峰街道, 东湖新技术开发区（托管）, 洪山区, 武汉市, 湖北省, 430073, China 中国;武汉市;关东街道;湖北省;430073;China 中国
怡和路, 后湖街道, 江岸区, 武汉市, 湖北省, 430015, China 中国;武汉市;后湖街道;湖北省;430015;China 中国
潘塘街, 新洲区, 黄冈市, 湖北省, China 中国;武汉市;关东街道;湖北省;430050;China 中国
新洲区, 武汉市, 湖北省, China 中国;武汉市;关东街道;湖北省;430050;China 中国
江夏区, 武汉市, 湖北省, 430073, China 中国;武汉市;关东街道;湖北省;430073;China 中国
解放大道, 韩家墩街道, 硚口区, 武汉市, 湖北省, 430034, China 中国;武汉市;韩家墩街道;湖北省;430034;China 中国
百曲公路, 消泗乡, 蔡甸区, 武汉市, 湖北省, China 中国;武汉市;关东街道;湖北省;430050;China 中国
江夏区, 武汉市, 湖北省, China 中国;武汉市;关东街道;湖北省;430050;China 中国
三里桥街道, 黄陂区, 武汉市, 湖北省, China 中国;武汉市;关东街道;湖北省;430050;China 中国
滨湖街道, 东湖新技术开发区（托管）, 江夏区, 武汉市, 湖北省, China 中国;武汉市;滨湖街道;湖北省;430050;China 中国
江夏区, 武汉市, 湖北省, China 中国;武汉市;江夏区;湖北省;430050;China 中国
法泗街, 江夏区, 武汉市, 湖北省, China 中国;武汉市;关东街道;湖北省;430050;China 中国
黄陂区, 武汉市, 湖北省, China 中国;武汉市;关东街道;湖北省;430050;China 中国
柏泉办事处, 东西湖区, 武汉市, 湖北省, China 中国;武汉市;关东街道;湖北省;430050;China 中国
新洲区, 武汉市, 湖北省, China 中国;武汉市;关东街道;湖北省;430050;China 中国
永丰街道, 汉阳区, 武汉市, 湖北省, 430056, China 中国;武汉市;永丰街道;湖北省;430056;China 中国
四環線 4the Ring Road, 北湖管委会, 武汉化学工业新区（托管）, 青山区, 武汉市, 湖北省, China 中国;武汉市;北湖管委会;湖北省;430050;China 中国
木兰乡, 黄陂区, 武汉市, 湖北省, China 中国;武汉市;关东街道;湖北省;430050;China 中国
徐古街道, 新洲区, 武汉市, 湖北省, China 中国;武汉市;关东街道;湖北省;430050;China 中国
武汉绕城高速公路, 郑店街, 江夏区, 武汉市, 湖北省, China 中国;武汉市;关东街道;湖北省;430050;China 中国
新洲区, 武汉市, 湖北省, China 中国;武汉市;新洲区;湖北省;430050;China 中国
六指街道, 黄陂区, 武汉市, 湖北省, China 中国;武汉市;关东街道;湖北省;430050;China 中国
八吉府街道, 武汉化学工业新区（托管）, 青山区, 武汉市, 湖北省, China 中国;武汉市;八吉府街道;湖北省;430050;China 中国
三店街, 新洲区, 武汉市, 湖北省, China 中国;武汉市;关东街道;湖北省;430050;China 中国
四環線, 沌口街道, 武汉经济技术开发区（托管）, 汉阳区, 武汉市, 湖北省, 430056, China 中国;武汉市;沌口街道;湖北省;430056;China 中国
王家河街, 黄陂区, 武汉市, 湖北省, China 中国;武汉市;关东街道;湖北省;430050;China 中国
孝南区, 武汉市, 湖北省, China 中国;武汉市;关东街道;湖北省;430050;China 中国
大桥新区, 江夏区, 武汉市, 湖北省, China 中国;武汉市;关东街道;湖北省;430050;China 中国
沌口街, 武汉经济技术开发区（托管）, 蔡甸区, 武汉市, 湖北省, 430056, China 中国;武汉市;关东街道;湖北省;430056;China 中国
木兰乡, 黄陂区, 武汉市, 湖北省, China 中国;武汉市;关东街道;湖北省;430050;China 中国
江夏区, 武汉市, 湖北省, China 中国;武汉市;江夏区;湖北省;430050;China 中国
罗工路, 黄陂区, 武汉市, 湖北省, China 中国;武汉市;黄陂区;湖北省;430050;China 中国
S109, 新洲区, 武汉市, 湖北省, China 中国;武汉市;关东街道;湖北省;430050;China 中国
站邻街, 宝丰街道, 硚口区, 武汉市, 湖北省, 430030, China 中国;武汉市;宝丰街道;湖北省;430030;China 中国
G318, 侏儒街, 蔡甸区, 武汉市, 湖北省, China 中国;武汉市;关东街道;湖北省;430050;China 中国
唐家墩街道, 江汉区, 武汉市, 湖北省, WUHAN HANKOU, China 中国;武汉市;唐家墩街道;湖北省;WUHAN HANKOU;China 中国
六指街道, 黄陂区, 武汉市, 湖北省, China 中国;武汉市;关东街道;湖北省;430050;China 中国
木兰乡, 黄陂区, 武汉市, 湖北省, China 中国;武汉市;关东街道;湖北省;430050;China 中国
武湖街道, 黄陂区, 武汉市, 湖北省, China 中国;武汉市;关东街道;湖北省;430050;China 中国
金水办事处, 江夏区, 武汉市, 湖北省, China 中国;武汉市;关东街道;湖北省;430050;China 中国
滨湖街道, 东湖新技术开发区（托管）, 江夏区, 武汉市, 湖北省, China 中国;武汉市;滨湖街道;湖北省;430050;China 中国
永丰街道, 汉阳区, 武汉市, 湖北省, 430101, China 中国;武汉市;永丰街道;湖北省;430101;China 中国
大潭原种场, 黄陂区, 武汉市, 湖北省, China 中国;武汉市;关东街道;湖北省;430050;China 中国
木兰乡, 黄陂区, 武汉市, 湖北省, China 中国;武汉市;关东街道;湖北省;430050;China 中国
新洲区, 武汉市, 湖北省, China 中国;武汉市;新洲区;湖北省;430050;China 中国
军山街道, 武汉经济技术开发区（托管）, 蔡甸区, 武汉市, 湖北省, China 中国;武汉市;军山街道;湖北省;430050;China 中国
东湖 汤菱湖, 落雁路, 东湖生态旅游风景区（托管）, 洪山区, 武汉市, 湖北省, China 中国;武汉市;关东街道;湖北省;430050;China 中国
五大路, 大屋陈集镇, 滨湖街道, 东湖新技术开发区（托管）, 江夏区, 武汉市, 湖北省, China 中国;武汉市;滨湖街道;湖北省;430050;China 中国
江北快速路, 阳逻街, 新洲区, 武汉市, 湖北省, China 中国;武汉市;关东街道;湖北省;430050;China 中国
G106, 新洲区, 武汉市, 湖北省, China 中国;武汉市;关东街道;湖北省;430050;China 中国
蔡甸区, 武汉市, 湖北省, China 中国;武汉市;蔡甸区;湖北省;430050;China 中国
索河镇, 蔡甸区, 武汉市, 湖北省, China 中国;武汉市;关东街道;湖北省;430050;China 中国
纱帽大道, 汉南区, 武汉市, 湖北省, China 中国;武汉市;汉南区;湖北省;430050;China 中国
华中农业大学, 1, 珞狮南路高架, 狮子山街道, 洪山区, 武汉市, 湖北省, 430070, China 中国;武汉市;狮子山街道;湖北省;430070;China 中国
S5G42S, 新洲区, 武汉市, 湖北省, China 中国;武汉市;新洲区;湖北省;430050;China 中国
武汉绕城高速公路, 黄陂区, 武汉市, 湖北省, China 中国;武汉市;黄陂区;湖北省;430050;China 中国
蔡店街道, 黄陂区, 武汉市, 湖北省, China 中国;武汉市;关东街道;湖北省;430050;China 中国
蔡甸区, 武汉市, 湖北省, China 中国;武汉市;蔡甸区;湖北省;430050;China 中国
消泗乡, 蔡甸区, 武汉市, 湖北省, China 中国;武汉市;关东街道;湖北省;430050;China 中国
东西湖区, 武汉市, 湖北省, China 中国;武汉市;东西湖区;湖北省;430050;China 中国
流苏公路, 鲍家村, 豹澥街道, 东湖新技术开发区（托管）, 江夏区, 武汉市, 湖北省, 430075, China 中国;武汉市;豹澥街道;湖北省;430075;China 中国
蔡店街道, 黄陂区, 武汉市, 湖北省, China 中国;武汉市;关东街道;湖北省;430050;China 中国
蔡甸区, 武汉市, 湖北省, China 中国;武汉市;关东街道;湖北省;430050;China 中国
洪北管委会, 蔡甸区, 武汉市, 湖北省, China 中国;武汉市;关东街道;湖北省;430050;China 中国
柴泊湖, 余泊北路, 阳逻街, 新洲区, 武汉市, 湖北省, China 中国;武汉市;关东街道;湖北省;430050;China 中国
G318, 蔡家榨街道, 黄陂区, 武汉市, 湖北省, China 中国;武汉市;关东街道;湖北省;430050;China 中国
蔡甸区, 武汉市, 湖北省, China 中国;武汉市;蔡甸区;湖北省;430050;China 中国
金水办事处, 江夏区, 武汉市, 湖北省, China 中国;武汉市;关东街道;湖北省;430050;China 中国
木兰山风景区, 黄陂区, 武汉市, 湖北省, China 中国;武汉市;关东街道;湖北省;430050;China 中国
S110, 孝南区, 武汉市, 湖北省, China 中国;武汉市;关东街道;湖北省;430050;China 中国
汉南区, 武汉市, 湖北省, China 中国;武汉市;汉南区;湖北省;430050;China 中国
黄家湖大道, 江夏区, 武汉市, 湖北省, China 中国;武汉市;江夏区;湖北省;430050;China 中国
江夏区, 武汉市, 湖北省, China 中国;武汉市;江夏区;湖北省;430050;China 中国
新洲区, 武汉市, 湖北省, China 中国;武汉市;新洲区;湖北省;430050;China 中国
侏儒街, 蔡甸区, 武汉市, 湖北省, China 中国;武汉市;关东街道;湖北省;430050;China 中国
旧街街道, 新洲区, 武汉市, 湖北省, China 中国;武汉市;关东街道;湖北省;430050;China 中国
汉南区, 武汉市, 湖北省, China 中国;武汉市;汉南区;湖北省;430050;China 中国
佛祖岭街道, 东湖新技术开发区（托管）, 江夏区, 武汉市, 湖北省, 430073, China 中国;武汉市;佛祖岭街道;湖北省;430073;China 中国
蔡店街道, 黄陂区, 武汉市, 湖北省, China 中国;武汉市;关东街道;湖北省;430050;China 中国
X007, 湖泗街道, 江夏区, 武汉市, 湖北省, China 中国;武汉市;关东街道;湖北省;430050;China 中国
黄陂区, 武汉市, 湖北省, China 中国;武汉市;黄陂区;湖北省;430050;China 中国
HuangTu Road, 长轩岭街道, 黄陂区, 武汉市, 湖北省, China 中国;武汉市;关东街道;湖北省;430050;China 中国
汉南区, 武汉市, 湖北省, China 中国;武汉市;汉南区;湖北省;430050;China 中国
李集街, 新洲区, 武汉市, 湖北省, China 中国;武汉市;关东街道;湖北省;430050;China 中国
徐古街道, 新洲区, 武汉市, 湖北省, China 中国;武汉市;关东街道;湖北省;430050;China 中国
武湖街道, 黄陂区, 武汉市, 湖北省, China 中国;武汉市;关东街道;湖北省;430050;China 中国
硚孝高速, 东山办事处, 东西湖区, 武汉市, 湖北省, China 中国;武汉市;关东街道;湖北省;430050;China 中国
江夏区, 武汉市, 湖北省, China 中国;武汉市;江夏区;湖北省;430050;China 中国
蔡家榨街道, 黄陂区, 武汉市, 湖北省, China 中国;武汉市;关东街道;湖北省;430050;China 中国
柏泉办事处, 东西湖区, 武汉市, 湖北省, China 中国;武汉市;关东街道;湖北省;430050;China 中国
丹水池街道, 江岸区, 武汉市, 湖北省, 420112, China 中国;武汉市;丹水池街道;湖北省;420112;China 中国
左岭街道, 东湖新技术开发区（托管）, 洪山区, 武汉市, 湖北省, China 中国;武汉市;左岭街道;湖北省;430050;China 中国
G318, 李集街, 新洲区, 武汉市, 湖北省, China 中国;武汉市;关东街道;湖北省;430050;China 中国
湘口街道, 汉南区, 武汉市, 湖北省, China 中国;武汉市;关东街道;湖北省;430050;China 中国
新洲区, 武汉市, 湖北省, China 中国;武汉市;新洲区;湖北省;430050;China 中国
硃山湖大道, 永安街, 蔡甸区, 武汉市, 湖北省, China 中国;武汉市;关东街道;湖北省;430050;China 中国
天河街, 黄陂区, 武汉市, 湖北省, China 中国;武汉市;关东街道;湖北省;430050;China 中国
青化路, 白玉山街道, 青山区, 武汉市, 湖北省, China 中国;武汉市;白玉山街道;湖北省;430050;China 中国
X008, 湖泗街道, 江夏区, 武汉市, 湖北省, China 中国;武汉市;关东街道;湖北省;430050;China 中国
永丰街道, 汉阳区, 武汉市, 湖北省, 430101, China 中国;武汉市;永丰街道;湖北省;430101;China 中国
新洲区, 武汉市, 湖北省, China 中国;武汉市;新洲区;湖北省;430050;China 中国
舒安街道, 江夏区, 武汉市, 湖北省, China 中国;武汉市;关东街道;湖北省;430050;China 中国
黄陂区, 武汉市, 湖北省, China 中国;武汉市;关东街道;湖北省;430050;China 中国
六指街道, 黄陂区, 武汉市, 湖北省, China 中国;武汉市;关东街道;湖北省;430050;China 中国
江夏区, 武汉市, 湖北省, 430073, China 中国;武汉市;关东街道;湖北省;430073;China 中国
蔡家榨街道, 黄陂区, 武汉市, 湖北省, China 中国;武汉市;关东街道;湖北省;430050;China 中国
黄陂区, 武汉市, 湖北省, China 中国;武汉市;黄陂区;湖北省;430050;China 中国
养殖场, 东湖新技术开发区（托管）, 江夏区, 武汉市, 湖北省, China 中国;武汉市;养殖场;湖北省;430050;China 中国
木兰乡, 黄陂区, 武汉市, 湖北省, China 中国;武汉市;关东街道;湖北省;430050;China 中国
罗汉寺街道, 黄陂区, 武汉市, 湖北省, China 中国;武汉市;关东街道;湖北省;430050;China 中国
汉施公路, 黄陂区, 武汉市, 湖北省, China 中国;武汉市;关东街道;湖北省;430050;China 中国
关豹高速, 佛祖岭街道, 东湖新技术开发区（托管）, 江夏区, 武汉市, 湖北省, 430073, China 中国;武汉市;佛祖岭街道;湖北省;430073;China 中国
东湖生态旅游风景区（托管）, 洪山区, 武汉市, 湖北省, China 中国;武汉市;关东街道;湖北省;430050;China 中国
X033, 旧街街道, 新洲区, 武汉市, 湖北省, China 中国;武汉市;关东街道;湖北省;430050;China 中国
X018, 洪北管委会, 蔡甸区, 武汉市, 湖北省, China 中国;武汉市;关东街道;湖北省;430050;China 中国
S13, 汉南区, 武汉市, 湖北省, China 中国;武汉市;汉南区;湖北省;430050;China 中国
走马岭街道, 东西湖区, 武汉市, 湖北省, China 中国;武汉市;关东街道;湖北省;430050;China 中国
滠口街道, 黄陂区, 武汉市, 湖北省, China 中国;武汉市;关东街道;湖北省;430050;China 中国
X033, 旧街街道, 新洲区, 武汉市, 湖北省, China 中国;武汉市;关东街道;湖北省;430050;China 中国
牛山湖养殖场, 东湖新技术开发区（托管）, 江夏区, 武汉市, 湖北省, China 中国;武汉市;牛山湖养殖场;湖北省;430050;China 中国
青菱街道, 江夏区, 武汉市, 湖北省, China 中国;武汉市;青菱街道;湖北省;430050;China 中国
索河镇, 蔡甸区, 武汉市, 湖北省, China 中国;武汉市;关东街道;湖北省;430050;China 中国
安山街, 江夏区, 武汉市, 湖北省, China 中国;武汉市;关东街道;湖北省;430050;China 中国
永安街, 蔡甸区, 武汉市, 湖北省, China 中国;武汉市;关东街道;湖北省;430050;China 中国
姚家集街道, 黄陂区, 武汉市, 湖北省, China 中国;武汉市;关东街道;湖北省;430050;China 中国
S111, 新洲区, 武汉市, 湖北省, China 中国;武汉市;新洲区;湖北省;430050;China 中国
大广高速, 新洲区, 武汉市, 湖北省, China 中国;武汉市;新洲区;湖北省;430050;China 中国
汉南区, 武汉市, 湖北省, China 中国;武汉市;汉南区;湖北省;430050;China 中国
新洲区, 武汉市, 湖北省, China 中国;武汉市;关东街道;湖北省;430050;China 中国
五家湖, 武鄂高速公路, 左岭街道, 东湖新技术开发区（托管）, 洪山区, 武汉市, 湖北省, China 中国;武汉市;左岭街道;湖北省;430050;China 中国
郑店街, 江夏区, 武汉市, 湖北省, China 中国;武汉市;关东街道;湖北省;430050;China 中国
大广高速, 新洲区, 武汉市, 湖北省, China 中国;武汉市;新洲区;湖北省;430050;China 中国
左岭街道, 东湖新技术开发区（托管）, 洪山区, 武汉市, 湖北省, China 中国;武汉市;左岭街道;湖北省;430050;China 中国
杨园街道, 武昌区, 武汉市, 湖北省, 430080, China 中国;武汉市;杨园街道;湖北省;430080;China 中国
沿河大道, 汉水桥街道, 硚口区, 武汉市, 湖北省, 430034, China 中国;武汉市;汉水桥街道;湖北省;430034;China 中国
乌龙泉街, 江夏区, 武汉市, 湖北省, China 中国;武汉市;关东街道;湖北省;430050;China 中国
玉贤镇, 蔡甸区, 武汉市, 湖北省, 430100, China 中国;武汉市;关东街道;湖北省;430100;China 中国
李集街, 新洲区, 武汉市, 湖北省, China 中国;武汉市;关东街道;湖北省;430050;China 中国
邾城街, 新洲区, 武汉市, 湖北省, China 中国;武汉市;关东街道;湖北省;430050;China 中国
黄陂区, 武汉市, 湖北省, China 中国;武汉市;黄陂区;湖北省;430050;China 中国
文盛街, 南湖街道, 武昌区, 武汉市, 湖北省, 430064, China 中国;武汉市;南湖街道;湖北省;430064;China 中国
蔡店街道, 黄陂区, 武汉市, 湖北省, China 中国;武汉市;关东街道;湖北省;430050;China 中国
武钢集团, 厂前街道, 青山区, 武汉市, 湖北省, China 中国;武汉市;厂前街道;湖北省;430050;China 中国
左岭街道, 鄂州市, 东湖新技术开发区（托管）, 华容区, 湖北省, China 中国;武汉市;左岭街道;湖北省;430050;China 中国
张家冲, 黄陂区, 武汉市, 湖北省, China 中国;武汉市;黄陂区;湖北省;430050;China 中国
常福新城, 蔡甸区, 武汉市, 湖北省, China 中国;武汉市;关东街道;湖北省;430050;China 中国
S101, 江夏区, 郑店街, 江夏区, 武汉市, 湖北省, China 中国;武汉市;关东街道;湖北省;430050;China 中国
舒安街道, 江夏区, 武汉市, 湖北省, China 中国;武汉市;关东街道;湖北省;430050;China 中国
X019, 湘口街道, 汉南区, 武汉市, 湖北省, China 中国;武汉市;关东街道;湖北省;430050;China 中国
S109, 新洲区, 武汉市, 湖北省, China 中国;武汉市;关东街道;湖北省;430050;China 中国
旧街街道, 新洲区, 武汉市, 湖北省, China 中国;武汉市;关东街道;湖北省;430050;China 中国
长青街道 (Changking), 东西湖区, 武汉市, 湖北省, China 中国;武汉市;长青街道 (Changking);湖北省;430050;China 中国
永丰街道, 汉阳区, 武汉市, 湖北省, 430056, China 中国;武汉市;永丰街道;湖北省;430056;China 中国
张湾街, 蔡甸区, 武汉市, 湖北省, China 中国;武汉市;关东街道;湖北省;430050;China 中国
蔡家榨街道, 黄陂区, 武汉市, 湖北省, China 中国;武汉市;关东街道;湖北省;430050;China 中国
和平大道, 徐家棚街道, 武昌区, 武汉市, 湖北省, 430062, China 中国;武汉市;徐家棚街道;湖北省;430062;China 中国
辛冲镇, 新洲区, 武汉市, 湖北省, China 中国;武汉市;关东街道;湖北省;430050;China 中国
徐古街道, 新洲区, 武汉市, 湖北省, China 中国;武汉市;关东街道;湖北省;430050;China 中国
硚孝高速, 东山办事处, 东西湖区, 武汉市, 湖北省, China 中国;武汉市;关东街道;湖北省;430050;China 中国
新洲区, 武汉市, 湖北省, China 中国;武汉市;新洲区;湖北省;430050;China 中国
横店街道, 黄陂区, 武汉市, 湖北省, China 中国;武汉市;关东街道;湖北省;430050;China 中国
李家集街道, 黄陂区, 武汉市, 湖北省, China 中国;武汉市;关东街道;湖北省;430050;China 中国
纱帽大道, 汉南区, 武汉市, 湖北省, China 中国;武汉市;汉南区;湖北省;430050;China 中国
徐古街道, 新洲区, 武汉市, 湖北省, China 中国;武汉市;关东街道;湖北省;430050;China 中国
安山街, 江夏区, 武汉市, 湖北省, China 中国;武汉市;关东街道;湖北省;430050;China 中国
安山街, 江夏区, 武汉市, 湖北省, China 中国;武汉市;关东街道;湖北省;430050;China 中国
长轩岭街道, 黄陂区, 武汉市, 湖北省, China 中国;武汉市;关东街道;湖北省;430050;China 中国
左岭, 左岭大道, 左岭街道, 东湖新技术开发区（托管）, 洪山区, 武汉市, 湖北省, China 中国;武汉市;左岭街道;湖北省;430050;China 中国
红安县, 黄冈市, 湖北省, China 中国;武汉市;红安县;湖北省;430050;China 中国
武汉-深圳高速公路, 江夏区, 武汉市, 湖北省, China 中国;武汉市;江夏区;湖北省;430050;China 中国
蔡店街道, 黄陂区, 武汉市, 湖北省, China 中国;武汉市;关东街道;湖北省;430050;China 中国
黄陂区, 武汉市, 湖北省, China 中国;武汉市;关东街道;湖北省;430050;China 中国
祁家湾街道, 黄陂区, 武汉市, 湖北省, China 中国;武汉市;关东街道;湖北省;430050;China 中国
武汉绕城高速公路, 草塘角, 黄陂区, 武汉市, 湖北省, China 中国;武汉市;黄陂区;湖北省;430050;China 中国
蔡家榨街道, 黄陂区, 武汉市, 湖北省, China 中国;武汉市;关东街道;湖北省;430050;China 中国
蔡甸区, 武汉市, 湖北省, China 中国;武汉市;关东街道;湖北省;430050;China 中国
豹澥街道, 东湖新技术开发区（托管）, 江夏区, 武汉市, 湖北省, 430075, China 中国;武汉市;豹澥街道;湖北省;430075;China 中国
龚家铺, 江夏区, 武汉市, 湖北省, China 中国;武汉市;江夏区;湖北省;430050;China 中国
江心村, 洪山区, 武汉市, 湖北省, China 中国;武汉市;关东街道;湖北省;430050;China 中国
东风路, 辛安渡办事处, 东西湖区, 武汉市, 湖北省, China 中国;武汉市;关东街道;湖北省;430050;China 中国
王家河街, 黄陂区, 武汉市, 湖北省, China 中国;武汉市;关东街道;湖北省;430050;China 中国
木兰山风景区, 黄陂区, 武汉市, 湖北省, China 中国;武汉市;关东街道;湖北省;430050;China 中国
S5G42S, 新洲区, 武汉市, 湖北省, China 中国;武汉市;新洲区;湖北省;430050;China 中国
东荆街, 汉南区, 武汉市, 湖北省, China 中国;武汉市;关东街道;湖北省;430050;China 中国
纱帽大道, 汉南区, 武汉市, 湖北省, China 中国;武汉市;汉南区;湖北省;430050;China 中国
新洲区, 武汉市, 湖北省, China 中国;武汉市;关东街道;湖北省;430050;China 中国
李集街, 新洲区, 武汉市, 湖北省, China 中国;武汉市;关东街道;湖北省;430050;China 中国
索河镇, 蔡甸区, 武汉市, 湖北省, China 中国;武汉市;关东街道;湖北省;430050;China 中国
吴游山湾, 新洲区, 武汉市, 湖北省, China 中国;武汉市;关东街道;湖北省;430050;China 中国
仓埠街, 新洲区, 武汉市, 湖北省, China 中国;武汉市;关东街道;湖北省;430050;China 中国
江夏区, 武汉市, 湖北省, China 中国;武汉市;江夏区;湖北省;430050;China 中国
新洲区, 武汉市, 湖北省, China 中国;武汉市;关东街道;湖北省;430050;China 中国
黄陂区, 武汉市, 湖北省, China 中国;武汉市;关东街道;湖北省;430050;China 中国
金水办事处, 江夏区, 武汉市, 湖北省, China 中国;武汉市;关东街道;湖北省;430050;China 中国
武汉绕城高速公路, 黄陂区, 武汉市, 湖北省, China 中国;武汉市;黄陂区;湖北省;430050;China 中国
S104, 玉贤镇, 蔡甸区, 武汉市, 湖北省, 430100, China 中国;武汉市;关东街道;湖北省;430100;China 中国
金银湖街道, 东西湖区, 武汉市, 湖北省, China 中国;武汉市;金银湖街道;湖北省;430050;China 中国
王家河街, 黄陂区, 武汉市, 湖北省, China 中国;武汉市;关东街道;湖北省;430050;China 中国
树潘大街, 蔡甸街, 蔡甸区, 武汉市, 湖北省, 430100, China 中国;武汉市;关东街道;湖北省;430100;China 中国
李集街, 新洲区, 武汉市, 湖北省, China 中国;武汉市;关东街道;湖北省;430050;China 中国
径河街道 (Jinghe), 东西湖区, 武汉市, 湖北省, China 中国;武汉市;径河街道 (Jinghe);湖北省;430050;China 中国
蔡店街道, 黄陂区, 武汉市, 湖北省, China 中国;武汉市;关东街道;湖北省;430050;China 中国
汉江大桥, 长青街道 (Changking), 东西湖区, 武汉市, 湖北省, 430100, China 中国;武汉市;长青街道 (Changking);湖北省;430100;China 中国
东荆街, 汉南区, 武汉市, 湖北省, China 中国;武汉市;关东街道;湖北省;430050;China 中国
吴游山湾, 新洲区, 武汉市, 湖北省, China 中国;武汉市;关东街道;湖北省;430050;China 中国
邓南街, 汉南区, 武汉市, 湖北省, China 中国;武汉市;关东街道;湖北省;430050;China 中国
横店大道西路, 横店街道, 黄陂区, 武汉市, 湖北省, China 中国;武汉市;关东街道;湖北省;430050;China 中国
舒安街道, 江夏区, 武汉市, 湖北省, China 中国;武汉市;关东街道;湖北省;430050;China 中国
木兰乡, 黄陂区, 武汉市, 湖北省, China 中国;武汉市;关东街道;湖北省;430050;China 中国
汉施公路, 阳逻街, 新洲区, 武汉市, 湖北省, China 中国;武汉市;关东街道;湖北省;430050;China 中国
涨渡湖街, 新洲区, 武汉市, 湖北省, China 中国;武汉市;关东街道;湖北省;430050;China 中国
郑店街, 江夏区, 武汉市, 湖北省, China 中国;武汉市;关东街道;湖北省;430050;China 中国
长轩岭街道, 黄陂区, 武汉市, 湖北省, China 中国;武汉市;关东街道;湖北省;430050;China 中国
军山街道, 武汉经济技术开发区（托管）, 汉南区, 武汉市, 湖北省, China 中国;武汉市;军山街道;湖北省;430050;China 中国
安山街, 江夏区, 武汉市, 湖北省, China 中国;武汉市;关东街道;湖北省;430050;China 中国
大桥新区, 江夏区, 武汉市, 湖北省, China 中国;武汉市;关东街道;湖北省;430050;China 中国
径河街道 (Jinghe), 东西湖区, 武汉市, 湖北省, China 中国;武汉市;径河街道 (Jinghe);湖北省;430050;China 中国
旧街街道, 新洲区, 武汉市, 湖北省, China 中国;武汉市;关东街道;湖北省;430050;China 中国
滨湖街道, 东湖新技术开发区（托管）, 江夏区, 武汉市, 湖北省, China 中国;武汉市;滨湖街道;湖北省;430050;China 中国
姚家集街道, 黄陂区, 武汉市, 湖北省, China 中国;武汉市;关东街道;湖北省;430050;China 中国
木兰乡, 黄陂区, 武汉市, 湖北省, China 中国;武汉市;关东街道;湖北省;430050;China 中国
木兰大道, 张家冲, 黄陂区, 武汉市, 湖北省, China 中国;武汉市;黄陂区;湖北省;430050;China 中国
洲头街道, 汉阳区, 武汉市, 湖北省, 460065, China 中国;武汉市;洲头街道;湖北省;460065;China 中国
流芳大道, 佛祖岭街道, 东湖新技术开发区（托管）, 江夏区, 武汉市, 湖北省, China 中国;武汉市;佛祖岭街道;湖北省;430050;China 中国
江夏区, 武汉市, 湖北省, China 中国;武汉市;关东街道;湖北省;430050;China 中国
太平桥镇, 红安县, 黄冈市, 湖北省, China 中国;武汉市;关东街道;湖北省;430050;China 中国
S314, 湖泗街道, 江夏区, 黄石市, 湖北省, China 中国;武汉市;黄石市;湖北省;430050;China 中国
青菱街道, 洪山区, 武汉市, 湖北省, China 中国;武汉市;青菱街道;湖北省;430050;China 中国
永安街, 蔡甸区, 武汉市, 湖北省, China 中国;武汉市;关东街道;湖北省;430050;China 中国
纸贺线, 乌龙泉街, 江夏区, 武汉市, 湖北省, China 中国;武汉市;关东街道;湖北省;430050;China 中国
旧街街道, 新洲区, 武汉市, 湖北省, China 中国;武汉市;关东街道;湖北省;430050;China 中国
蔡甸区, 武汉市, 湖北省, China 中国;武汉市;蔡甸区;湖北省;430050;China 中国
金口街, 江夏区, 武汉市, 湖北省, China 中国;武汉市;关东街道;湖北省;430050;China 中国
黄陂区, 武汉市, 湖北省, China 中国;武汉市;黄陂区;湖北省;430050;China 中国
中建 福地星城, 珞南街道, 洪山区, 武汉市, 湖北省, 430064, China 中国;武汉市;珞南街道;湖北省;430064;China 中国
郑店街, 江夏区, 武汉市, 湖北省, China 中国;武汉市;关东街道;湖北省;430050;China 中国
木兰乡, 黄陂区, 武汉市, 湖北省, China 中国;武汉市;关东街道;湖北省;430050;China 中国
辛冲镇, 新洲区, 武汉市, 湖北省, China 中国;武汉市;关东街道;湖北省;430050;China 中国
蔡店街道, 黄陂区, 武汉市, 湖北省, China 中国;武汉市;关东街道;湖北省;430050;China 中国
沙湖路, 水岸国际·澜桥公馆1期, 徐家棚街道, 武昌区, 武汉市, 湖北省, 430062, China 中国;武汉市;徐家棚街道;湖北省;430062;China 中国
台北路, 台北街道, 江汉区, 武汉市, 湖北省, WUHAN HANKOU, China 中国;武汉市;台北街道;湖北省;WUHAN HANKOU;China 中国
新洲区, 武汉市, 湖北省, China 中国;武汉市;新洲区;湖北省;430050;China 中国
旧街街道, 新洲区, 武汉市, 湖北省, China 中国;武汉市;关东街道;湖北省;430050;China 中国
三环线, 关东街道, 东湖新技术开发区（托管）, 江夏区, 武汉市, 湖北省, 430070, China 中国;武汉市;关东街道;湖北省;430070;China 中国
滠口街道, 黄陂区, 武汉市, 湖北省, China 中国;武汉市;关东街道;湖北省;430050;China 中国
谌家矶街道, 江岸区, 武汉市, 湖北省, China 中国;武汉市;谌家矶街道;湖北省;430050;China 中国
S5G42S, 黄陂区, 武汉市, 湖北省, China 中国;武汉市;黄陂区;湖北省;430050;China 中国
军山街道, 武汉经济技术开发区（托管）, 蔡甸区, 武汉市, 湖北省, China 中国;武汉市;军山街道;湖北省;430050;China 中国
军山街道, 武汉经济技术开发区（托管）, 蔡甸区, 武汉市, 湖北省, China 中国;武汉市;军山街道;湖北省;430050;China 中国
东荆街, 汉南区, 武汉市, 湖北省, China 中国;武汉市;关东街道;湖北省;430050;China 中国
江夏区, 武汉市, 湖北省, 430073, China 中国;武汉市;关东街道;湖北省;430073;China 中国
罗汉寺街道, 黄陂区, 武汉市, 湖北省, China 中国;武汉市;关东街道;湖北省;430050;China 中国
凤凰镇, 新洲区, 武汉市, 湖北省, China 中国;武汉市;关东街道;湖北省;430050;China 中国
G42, 黄陂区, 武汉市, 湖北省, China 中国;武汉市;黄陂区;湖北省;430050;China 中国
辛冲镇, 新洲区, 武汉市, 湖北省, China 中国;武汉市;关东街道;湖北省;430050;China 中国
邓南街, 汉南区, 武汉市, 湖北省, China 中国;武汉市;关东街道;湖北省;430050;China 中国
黄陂区, 武汉市, 湖北省, China 中国;武汉市;黄陂区;湖北省;430050;China 中国
青化路, 白玉山街道, 青山区, 武汉市, 湖北省, China 中国;武汉市;白玉山街道;湖北省;430050;China 中国
军山街道, 武汉经济技术开发区（托管）, 蔡甸区, 武汉市, 湖北省, China 中国;武汉市;军山街道;湖北省;430050;China 中国
罗南路, 黄陂区, 武汉市, 湖北省, China 中国;武汉市;黄陂区;湖北省;430050;China 中国
4th Ring Road, 径河街道 (Jinghe), 东西湖区, 武汉市, 湖北省, China 中国;武汉市;径河街道 (Jinghe);湖北省;430050;China 中国
涨渡湖街, 新洲区, 武汉市, 湖北省, China 中国;武汉市;关东街道;湖北省;430050;China 中国
黄陂区, 武汉市, 湖北省, China 中国;武汉市;黄陂区;湖北省;430050;China 中国
岱黄高速, 青山区, 黄陂区, 武汉市, 湖北省, China 中国;武汉市;青山区;湖北省;430050;China 中国
蔡店街道, 黄陂区, 武汉市, 湖北省, China 中国;武汉市;关东街道;湖北省;430050;China 中国
走马岭街道, 东西湖区, 武汉市, 湖北省, China 中国;武汉市;关东街道;湖北省;430050;China 中国
军山街道, 武汉经济技术开发区（托管）, 蔡甸区, 武汉市, 湖北省, China 中国;武汉市;军山街道;湖北省;430050;China 中国
六指街道, 黄陂区, 武汉市, 湖北省, China 中国;武汉市;关东街道;湖北省;430050;China 中国
索河镇, 蔡甸区, 武汉市, 湖北省, China 中国;武汉市;关东街道;湖北省;430050;China 中国
4th Ring Road, 径河街道 (Jinghe), 东西湖区, 武汉市, 湖北省, China 中国;武汉市;径河街道 (Jinghe);湖北省;430050;China 中国
沪蓉高速公路, 黄陂区, 武汉市, 湖北省, China 中国;武汉市;黄陂区;湖北省;430050;China 中国
消泗乡, 蔡甸区, 武汉市, 湖北省, China 中国;武汉市;关东街道;湖北省;430050;China 中国
107国道, 安山街, 江夏区, 武汉市, 湖北省, China 中国;武汉市;关东街道;湖北省;430050;China 中国
黄陂区, 武汉市, 湖北省, China 中国;武汉市;关东街道;湖北省;430050;China 中国
科技五路, 左岭街道, 鄂州市, 东湖新技术开发区（托管）, 华容区, 湖北省, China 中国;武汉市;左岭街道;湖北省;430050;China 中国
涨渡湖街, 新洲区, 武汉市, 湖北省, 438800, China 中国;武汉市;关东街道;湖北省;438800;China 中国
黄陂区, 武汉市, 湖北省, China 中国;武汉市;关东街道;湖北省;430050;China 中国
南湖大橋, 珞南街道, 东湖新技术开发区（托管）, 洪山区, 武汉市, 湖北省, 430070, China 中国;武汉市;珞南街道;湖北省;430070;China 中国
九峰街道, 东湖新技术开发区（托管）, 洪山区, 武汉市, 湖北省, 430075, China 中国;武汉市;关东街道;湖北省;430075;China 中国
新洲区, 武汉市, 湖北省, China 中国;武汉市;新洲区;湖北省;430050;China 中国
姚家集街道, 黄陂区, 武汉市, 湖北省, China 中国;武汉市;关东街道;湖北省;430050;China 中国
西八楼, 华科大西路, 关山街道, 洪山区, 武汉市, 湖北省, 430074, China 中国;武汉市;关山街道;湖北省;430074;China 中国
红安县, 黄冈市, 湖北省, China 中国;武汉市;红安县;湖北省;430050;China 中国
姚家集街道, 黄陂区, 武汉市, 湖北省, China 中国;武汉市;关东街道;湖北省;430050;China 中国
吴游山湾, 新洲区, 武汉市, 湖北省, China 中国;武汉市;关东街道;湖北省;430050;China 中国
京港澳高速公路, 郑店街, 江夏区, 武汉市, 湖北省, China 中国;武汉市;关东街道;湖北省;430050;China 中国
洪北管委会, 蔡甸区, 武汉市, 湖北省, China 中国;武汉市;关东街道;湖北省;430050;China 中国
三里桥街道, 黄陂区, 武汉市, 湖北省, China 中国;武汉市;关东街道;湖北省;430050;China 中国
郑店街, 江夏区, 武汉市, 湖北省, China 中国;武汉市;关东街道;湖北省;430050;China 中国
安山街, 江夏区, 武汉市, 湖北省, China 中国;武汉市;关东街道;湖北省;430050;China 中国
青菱街道, 江夏区, 武汉市, 湖北省, China 中国;武汉市;青菱街道;湖北省;430050;China 中国
江夏区, 武汉市, 湖北省, China 中国;武汉市;江夏区;湖北省;430050;China 中国
双柳街, 新洲区, 武汉市, 湖北省, China 中国;武汉市;关东街道;湖北省;430050;China 中国
二十一号公路, 武钢集团, 工人村街道, 青山区, 武汉市, 湖北省, China 中国;武汉市;工人村街道;湖北省;430050;China 中国
模厂路, 罗汉寺街道, 黄陂区, 武汉市, 湖北省, China 中国;武汉市;关东街道;湖北省;430050;China 中国
罗汉寺街道, 黄陂区, 武汉市, 湖北省, China 中国;武汉市;关东街道;湖北省;430050;China 中国
江夏区, 武汉市, 湖北省, 430073, China 中国;武汉市;关东街道;湖北省;430073;China 中国
乌龙泉街, 江夏区, 武汉市, 湖北省, China 中国;武汉市;关东街道;湖北省;430050;China 中国
武湖街道, 黄陂区, 武汉市, 湖北省, China 中国;武汉市;关东街道;湖北省;430050;China 中国
金水办事处, 江夏区, 武汉市, 湖北省, China 中国;武汉市;关东街道;湖北省;430050;China 中国
双柳街, 新洲区, 武汉市, 湖北省, China 中国;武汉市;关东街道;湖北省;430050;China 中国
江城大道, 四新管委会, 汉阳区, 武汉市, 湖北省, 430050, China 中国;武汉市;四新管委会;湖北省;430050;China 中国
汉南区, 武汉市, 湖北省, China 中国;武汉市;汉南区;湖北省;430050;China 中国
六指街道, 黄陂区, 武汉市, 湖北省, China 中国;武汉市;关东街道;湖北省;430050;China 中国
江夏区, 武汉市, 湖北省, China 中国;武汉市;江夏区;湖北省;430050;China 中国
南城巷, 建桥街道, 汉阳区, 武汉市, 湖北省, 430050, China 中国;武汉市;建桥街道;湖北省;430050;China 中国
X008, 舒安街道, 江夏区, 武汉市, 湖北省, China 中国;武汉市;关东街道;湖北省;430050;China 中国
蔡店街道, 黄陂区, 武汉市, 湖北省, China 中国;武汉市;关东街道;湖北省;430050;China 中国
罗工路, 黄陂区, 武汉市, 湖北省, China 中国;武汉市;黄陂区;湖北省;430050;China 中国
S122, 湖泗街道, 咸安区, 咸宁市, 湖北省, China 中国;武汉市;关东街道;湖北省;430050;China 中国
梁子湖大道, 滨湖街道, 东湖新技术开发区（托管）, 江夏区, 武汉市, 湖北省, China 中国;武汉市;滨湖街道;湖北省;430050;China 中国
双柳街, 新洲区, 武汉市, 湖北省, China 中国;武汉市;关东街道;湖北省;430050;China 中国
东西湖大堤, 金银湖街道, 东西湖区, 武汉市, 湖北省, China 中国;武汉市;金银湖街道;湖北省;430050;China 中国
湖泗街道, 江夏区, 武汉市, 湖北省, China 中国;武汉市;关东街道;湖北省;430050;China 中国
木兰山风景区, 黄陂区, 武汉市, 湖北省, China 中国;武汉市;关东街道;湖北省;430050;China 中国
汪集街, 新洲区, 武汉市, 湖北省, China 中国;武汉市;关东街道;湖北省;430050;China 中国
江北快速路, 阳逻街, 新洲区, 武汉市, 湖北省, China 中国;武汉市;关东街道;湖北省;430050;China 中国
徐古街道, 新洲区, 武汉市, 湖北省, China 中国;武汉市;关东街道;湖北省;430050;China 中国
4th Ring Road, 径河街道 (Jinghe), 东西湖区, 武汉市, 湖北省, China 中国;武汉市;径河街道 (Jinghe);湖北省;430050;China 中国
军山街, 武汉经济技术开发区（托管）, 蔡甸区, 武汉市, 湖北省, China 中国;武汉市;关东街道;湖北省;430050;China 中国
东湖生态旅游风景区（托管）, 洪山区, 武汉市, 湖北省, China 中国;武汉市;关东街道;湖北省;430050;China 中国
江堤街道, 汉阳区, 武汉市, 湖北省, 430050, China 中国;武汉市;江堤街道;湖北省;430050;China 中国
鲁台, 黄陂区, 武汉市, 湖北省, China 中国;武汉市;黄陂区;湖北省;430050;China 中国
红光村, 东湖新技术开发区（托管）, 洪山区, 武汉市, 湖北省, China 中国;武汉市;关东街道;湖北省;430050;China 中国
G318, 李集街, 新洲区, 武汉市, 湖北省, China 中国;武汉市;关东街道;湖北省;430050;China 中国
长轩岭街道, 黄陂区, 武汉市, 湖北省, China 中国;武汉市;关东街道;湖北省;430050;China 中国
银莲社区, 湘口街道, 汉南区, 武汉市, 湖北省, China 中国;武汉市;关东街道;湖北省;430050;China 中国
S314, 湖泗街道, 江夏区, 武汉市, 湖北省, China 中国;武汉市;关东街道;湖北省;430050;China 中国
王家河街, 黄陂区, 武汉市, 湖北省, China 中国;武汉市;关东街道;湖北省;430050;China 中国
狮子山街道, 洪山区, 武汉市, 湖北省, 430068, China 中国;武汉市;狮子山街道;湖北省;430068;China 中国
X008, 湖泗街道, 江夏区, 武汉市, 湖北省, China 中国;武汉市;关东街道;湖北省;430050;China 中国
新洲原种场, 新洲区, 武汉市, 湖北省, China 中国;武汉市;关东街道;湖北省;430050;China 中国
梁子湖大道, 滨湖街道, 东湖新技术开发区（托管）, 江夏区, 武汉市, 湖北省, China 中国;武汉市;滨湖街道;湖北省;430050;China 中国
花山街道, 东湖新技术开发区（托管）, 洪山区, 武汉市, 湖北省, 430075, China 中国;武汉市;花山街道;湖北省;430075;China 中国
东西湖大堤, 金银湖街道, 东西湖区, 武汉市, 湖北省, China 中国;武汉市;金银湖街道;湖北省;430050;China 中国
南环路, 蔡甸区, 武汉市, 湖北省, 430100, China 中国;武汉市;蔡甸区;湖北省;430100;China 中国
祁家湾街道, 黄陂区, 武汉市, 湖北省, China 中国;武汉市;关东街道;湖北省;430050;China 中国
蔡家榨街道, 黄陂区, 武汉市, 湖北省, China 中国;武汉市;关东街道;湖北省;430050;China 中国
纸贺线, 乌龙泉街, 江夏区, 武汉市, 湖北省, China 中国;武汉市;关东街道;湖北省;430050;China 中国
舒安街道, 江夏区, 武汉市, 湖北省, China 中国;武汉市;关东街道;湖北省;430050;China 中国
新洲区, 武汉市, 湖北省, China 中国;武汉市;新洲区;湖北省;430050;China 中国
徐古街道, 新洲区, 武汉市, 湖北省, China 中国;武汉市;关东街道;湖北省;430050;China 中国
徐古街道, 新洲区, 武汉市, 湖北省, China 中国;武汉市;关东街道;湖北省;430050;China 中国
江夏区, 武汉市, 湖北省, China 中国;武汉市;江夏区;湖北省;430050;China 中国
姚家集街道, 黄陂区, 武汉市, 湖北省, China 中国;武汉市;关东街道;湖北省;430050;China 中国
湘口街道, 汉南区, 武汉市, 湖北省, China 中国;武汉市;湘口街道;湖北省;430050;China 中国
花山街道, 武汉化学工业新区（托管）, 洪山区, 武汉市, 湖北省, 430075, China 中国;武汉市;花山街道;湖北省;430075;China 中国
新洲原种场, 新洲区, 武汉市, 湖北省, China 中国;武汉市;关东街道;湖北省;430050;China 中国
x009, 法泗街, 江夏区, 武汉市, 湖北省, China 中国;武汉市;关东街道;湖北省;430050;China 中国
罗中线, 张家冲, 黄陂区, 武汉市, 湖北省, China 中国;武汉市;黄陂区;湖北省;430050;China 中国
汪集街, 新洲区, 武汉市, 湖北省, China 中国;武汉市;关东街道;湖北省;430050;China 中国
走马岭街道, 东西湖区, 武汉市, 湖北省, China 中国;武汉市;关东街道;湖北省;430050;China 中国
花山大道, 九峰街道, 东湖新技术开发区（托管）, 洪山区, 武汉市, 湖北省, 430075, China 中国;武汉市;关东街道;湖北省;430075;China 中国
天鹅湖大道, 沌口街道, 武汉经济技术开发区（托管）, 蔡甸区, 武汉市, 湖北省, 430056, China 中国;武汉市;沌口街道;湖北省;430056;China 中国
二十一号公路, 武钢集团, 工人村街道, 青山区, 武汉市, 湖北省, China 中国;武汉市;工人村街道;湖北省;430050;China 中国
巨龍大道, 滠口街道, 黄陂区, 武汉市, 湖北省, China 中国;武汉市;关东街道;湖北省;430050;China 中国
祁家湾街道, 黄陂区, 武汉市, 湖北省, China 中国;武汉市;关东街道;湖北省;430050;China 中国
花城大道, 花山街道, 东湖生态旅游风景区（托管）, 洪山区, 武汉市, 湖北省, 430075, China 中国;武汉市;花山街道;湖北省;430075;China 中国
滠口街道, 黄陂区, 武汉市, 湖北省, China 中国;武汉市;关东街道;湖北省;430050;China 中国
x009, 法泗街, 江夏区, 武汉市, 湖北省, China 中国;武汉市;关东街道;湖北省;430050;China 中国
安山街, 江夏区, 武汉市, 湖北省, China 中国;武汉市;关东街道;湖北省;430050;China 中国
沪渝高速, 永安街, 蔡甸区, 武汉市, 湖北省, China 中国;武汉市;关东街道;湖北省;430050;China 中国
老武黄路, 花山街道, 东湖新技术开发区（托管）, 洪山区, 武汉市, 湖北省, 430075, China 中国;武汉市;花山街道;湖北省;430075;China 中国
东荆街, 汉南区, 武汉市, 湖北省, China 中国;武汉市;关东街道;湖北省;430050;China 中国
李家集街道, 黄陂区, 武汉市, 湖北省, China 中国;武汉市;关东街道;湖北省;430050;China 中国
邓南街, 汉南区, 武汉市, 湖北省, China 中国;武汉市;关东街道;湖北省;430050;China 中国
丹水池街道, 江岸区, 武汉市, 湖北省, China 中国;武汉市;丹水池街道;湖北省;430050;China 中国
长天路, 长丰街道, 硚口区, 武汉市, 湖北省, 430034, China 中国;武汉市;长丰街道;湖北省;430034;China 中国
友谊大道, 徐家棚街道, 武昌区, 武汉市, 湖北省, 430062, China 中国;武汉市;徐家棚街道;湖北省;430062;China 中国
六指街道, 黄陂区, 武汉市, 湖北省, China 中国;武汉市;关东街道;湖北省;430050;China 中国
走马岭街道, 东西湖区, 武汉市, 湖北省, China 中国;武汉市;关东街道;湖北省;430050;China 中国
流芳街道, 东湖新技术开发区（托管）, 江夏区, 武汉市, 湖北省, China 中国;武汉市;流芳街道;湖北省;430050;China 中国
徐古街道, 新洲区, 武汉市, 湖北省, China 中国;武汉市;关东街道;湖北省;430050;China 中国
涨渡湖街, 新洲区, 武汉市, 湖北省, China 中国;武汉市;关东街道;湖北省;430050;China 中国
东山办事处, 东西湖区, 武汉市, 湖北省, China 中国;武汉市;关东街道;湖北省;430050;China 中国
清谭湖街, 武汉化学工业新区（托管）, 洪山区, 武汉市, 湖北省, China 中国;武汉市;关东街道;湖北省;430050;China 中国
东荆街, 汉南区, 武汉市, 湖北省, China 中国;武汉市;关东街道;湖北省;430050;China 中国
杜皮乡, 团风县, 黄冈市, 湖北省, 438808, China 中国;武汉市;关东街道;湖北省;438808;China 中国
大潭原种场, 黄陂区, 武汉市, 湖北省, China 中国;武汉市;关东街道;湖北省;430050;China 中国
东湖生态旅游风景区（托管）, 洪山区, 武汉市, 湖北省, 430074, China 中国;武汉市;关东街道;湖北省;430074;China 中国
安山街, 江夏区, 武汉市, 湖北省, China 中国;武汉市;关东街道;湖北省;430050;China 中国
江夏区, 武汉市, 湖北省, China 中国;武汉市;江夏区;湖北省;430050;China 中国
罗汉寺街道, 黄陂区, 武汉市, 湖北省, China 中国;武汉市;关东街道;湖北省;430050;China 中国
湖泗街道, 江夏区, 武汉市, 湖北省, China 中国;武汉市;关东街道;湖北省;430050;China 中国
法泗街, 江夏区, 武汉市, 湖北省, China 中国;武汉市;关东街道;湖北省;430050;China 中国
官莲湖, p, 军山街道, 武汉经济技术开发区（托管）, 蔡甸区, 武汉市, 湖北省, China 中国;武汉市;军山街道;湖北省;430050;China 中国
环湖路, 金银湖街道, 东西湖区, 武汉市, 湖北省, China 中国;武汉市;金银湖街道;湖北省;430050;China 中国
张家湾村, 东湖新技术开发区（托管）, 江夏区, 武汉市, 湖北省, China 中国;武汉市;关东街道;湖北省;430050;China 中国
长轩岭街道, 黄陂区, 武汉市, 湖北省, China 中国;武汉市;关东街道;湖北省;430050;China 中国
S111, 新洲区, 武汉市, 湖北省, China 中国;武汉市;新洲区;湖北省;430050;China 中国
王家河街, 黄陂区, 武汉市, 湖北省, China 中国;武汉市;关东街道;湖北省;430050;China 中国
汉蔡高速, 侏儒街, 蔡甸区, 武汉市, 湖北省, China 中国;武汉市;关东街道;湖北省;430050;China 中国
辛安渡办事处, 东西湖区, 武汉市, 湖北省, China 中国;武汉市;辛安渡办事处;湖北省;430050;China 中国
木兰山风景区, 黄陂区, 武汉市, 湖北省, China 中国;武汉市;关东街道;湖北省;430050;China 中国
黄陂区, 武汉市, 湖北省, China 中国;武汉市;黄陂区;湖北省;430050;China 中国
新洲区, 武汉市, 湖北省, China 中国;武汉市;关东街道;湖北省;430050;China 中国
法泗街, 江夏区, 武汉市, 湖北省, China 中国;武汉市;关东街道;湖北省;430050;China 中国
八吉府街道, 武汉化学工业新区（托管）, 洪山区, 武汉市, 湖北省, China 中国;武汉市;八吉府街道;湖北省;430050;China 中国
S234, 蔡家榨街道, 黄陂区, 武汉市, 湖北省, China 中国;武汉市;关东街道;湖北省;430050;China 中国
常青城, 金銀潭大道, 将军路街道, 东西湖区, 武汉市, 湖北省, 420112, China 中国;武汉市;将军路街道;湖北省;420112;China 中国
四新管委会, 汉阳区, 武汉市, 湖北省, 430034, China 中国;武汉市;四新管委会;湖北省;430034;China 中国
兴业南路, 后湖街道, 江岸区, 武汉市, 湖北省, 430015, China 中国;武汉市;后湖街道;湖北省;430015;China 中国
径河街道 (Jinghe), 东西湖区, 武汉市, 湖北省, China 中国;武汉市;径河街道 (Jinghe);湖北省;430050;China 中国
慈惠街道, 东西湖区, 武汉市, 湖北省, 430101, China 中国;武汉市;慈惠街道;湖北省;430101;China 中国
梁子湖风景区, 江夏区, 武汉市, 湖北省, China 中国;武汉市;关东街道;湖北省;430050;China 中国
建设一路, 红卫路街道, 青山区, 武汉市, 湖北省, 430080, China 中国;武汉市;红卫路街道;湖北省;430080;China 中国
邾城街, 新洲区, 武汉市, 湖北省, China 中国;武汉市;关东街道;湖北省;430050;China 中国
107国道, 安山街, 江夏区, 武汉市, 湖北省, China 中国;武汉市;关东街道;湖北省;430050;China 中国
黄陂区, 武汉市, 湖北省, China 中国;武汉市;黄陂区;湖北省;430050;China 中国
凤凰镇, 新洲区, 武汉市, 湖北省, China 中国;武汉市;关东街道;湖北省;430050;China 中国
蔡店街道, 黄陂区, 武汉市, 湖北省, China 中国;武汉市;关东街道;湖北省;430050;China 中国
4th Ring Road, 黄陂区, 武汉市, 湖北省, China 中国;武汉市;黄陂区;湖北省;430050;China 中国
八吉府街道, 武汉化学工业新区（托管）, 洪山区, 武汉市, 湖北省, China 中国;武汉市;八吉府街道;湖北省;430050;China 中国
邓南街, 汉南区, 武汉市, 湖北省, China 中国;武汉市;关东街道;湖北省;430050;China 中国
玉贤镇, 蔡甸区, 武汉市, 湖北省, 430100, China 中国;武汉市;关东街道;湖北省;430100;China 中国
武汉绕城高速公路, 清潭湖街道, 武汉化学工业新区（托管）, 洪山区, 武汉市, 湖北省, China 中国;武汉市;清潭湖街道;湖北省;430050;China 中国
徐古街道, 新洲区, 武汉市, 湖北省, China 中国;武汉市;关东街道;湖北省;430050;China 中国
晴川码头, 滨江大道, 晴川街道, 汉阳区, 武汉市, 湖北省, 230060, China 中国;武汉市;晴川街道;湖北省;230060;China 中国
蔡家榨街道, 黄陂区, 武汉市, 湖北省, China 中国;武汉市;关东街道;湖北省;430050;China 中国
法泗街, 江夏区, 武汉市, 湖北省, China 中国;武汉市;关东街道;湖北省;430050;China 中国
小陈家湾, 黄陂区, 武汉市, 湖北省, China 中国;武汉市;关东街道;湖北省;430050;China 中国
江夏区, 武汉市, 湖北省, China 中国;武汉市;江夏区;湖北省;430050;China 中国
黄陂区, 武汉市, 湖北省, China 中国;武汉市;黄陂区;湖北省;430050;China 中国
白湖村, 东湖新技术开发区（托管）, 江夏区, 武汉市, 湖北省, China 中国;武汉市;关东街道;湖北省;430050;China 中国
关豹高速, 佛祖岭街道, 东湖新技术开发区（托管）, 江夏区, 武汉市, 湖北省, 430073, China 中国;武汉市;佛祖岭街道;湖北省;430073;China 中国
新洲区, 武汉市, 湖北省, China 中国;武汉市;关东街道;湖北省;430050;China 中国
豹澥街道, 东湖新技术开发区（托管）, 江夏区, 武汉市, 湖北省, 430073, China 中国;武汉市;豹澥街道;湖北省;430073;China 中国
玉贤镇, 蔡甸区, 武汉市, 湖北省, 430100, China 中国;武汉市;关东街道;湖北省;430100;China 中国
江夏区, 武汉市, 湖北省, China 中国;武汉市;关东街道;湖北省;430050;China 中国
青菱街道, 洪山区, 武汉市, 湖北省, China 中国;武汉市;青菱街道;湖北省;430050;China 中国
二十一号公路, 武钢集团, 工人村街道, 青山区, 武汉市, 湖北省, China 中国;武汉市;工人村街道;湖北省;430050;China 中国
江南公寓, 狮子山街道, 洪山区, 武汉市, 湖北省, China 中国;武汉市;狮子山街道;湖北省;430050;China 中国
蔡家榨街道, 黄陂区, 武汉市, 湖北省, China 中国;武汉市;关东街道;湖北省;430050;China 中国
仓埠街, 新洲区, 武汉市, 湖北省, China 中国;武汉市;关东街道;湖北省;430050;China 中国
蔡店街道, 黄陂区, 武汉市, 湖北省, China 中国;武汉市;关东街道;湖北省;430050;China 中国
青菱街道, 洪山区, 武汉市, 湖北省, China 中国;武汉市;青菱街道;湖北省;430050;China 中国
吴游山湾, 新洲区, 武汉市, 湖北省, China 中国;武汉市;关东街道;湖北省;430050;China 中国
慈惠街道, 东西湖区, 武汉市, 湖北省, 430101, China 中国;武汉市;慈惠街道;湖北省;430101;China 中国
郑店街, 江夏区, 武汉市, 湖北省, China 中国;武汉市;关东街道;湖北省;430050;China 中国
江夏区, 石洞街, 江夏区, 武汉市, 湖北省, China 中国;武汉市;关东街道;湖北省;430050;China 中国
李集街, 新洲区, 武汉市, 湖北省, China 中国;武汉市;关东街道;湖北省;430050;China 中国
洪北管委会, 蔡甸区, 武汉市, 湖北省, China 中国;武汉市;关东街道;湖北省;430050;China 中国
辛安渡办事处, 东西湖区, 武汉市, 湖北省, China 中国;武汉市;辛安渡办事处;湖北省;430050;China 中国
左岭街道, 鄂州市, 东湖新技术开发区（托管）, 华容区, 湖北省, China 中国;武汉市;左岭街道;湖北省;430050;China 中国
小陈家湾, 黄陂区, 武汉市, 湖北省, China 中国;武汉市;关东街道;湖北省;430050;China 中国
武汉理工大学华夏学院, 三环线, 关东街道, 东湖新技术开发区（托管）, 江夏区, 武汉市, 湖北省, 430070, China 中国;武汉市;关东街道;湖北省;430070;China 中国
左岭街道, 东湖新技术开发区（托管）, 洪山区, 武汉市, 湖北省, China 中国;武汉市;左岭街道;湖北省;430050;China 中国
S3, 三里桥街道, 黄陂区, 武汉市, 湖北省, China 中国;武汉市;关东街道;湖北省;430050;China 中国
长轩岭街道, 黄陂区, 武汉市, 湖北省, China 中国;武汉市;关东街道;湖北省;430050;China 中国
江夏区, 武汉市, 湖北省, 430073, China 中国;武汉市;关东街道;湖北省;430073;China 中国
滨湖街道, 东湖新技术开发区（托管）, 江夏区, 武汉市, 湖北省, China 中国;武汉市;滨湖街道;湖北省;430050;China 中国
柏泉办事处, 东西湖区, 武汉市, 湖北省, China 中国;武汉市;关东街道;湖北省;430050;China 中国
文祥街, 狮子山街道, 洪山区, 武汉市, 湖北省, 430068, China 中国;武汉市;狮子山街道;湖北省;430068;China 中国
冯老塆, 黄陂区, 武汉市, 湖北省, China 中国;武汉市;黄陂区;湖北省;430050;China 中国
新洲区, 武汉市, 湖北省, China 中国;武汉市;新洲区;湖北省;430050;China 中国
G318, 张家冲, 韩家院, 黄陂区, 武汉市, 湖北省, China 中国;武汉市;关东街道;湖北省;430050;China 中国
永安街, 蔡甸区, 武汉市, 湖北省, China 中国;武汉市;关东街道;湖北省;430050;China 中国
湖泗街道, 江夏区, 武汉市, 湖北省, China 中国;武汉市;湖泗街道;湖北省;430050;China 中国
金水办事处, 江夏区, 武汉市, 湖北省, China 中国;武汉市;关东街道;湖北省;430050;China 中国
岱黄高速, 黄陂区, 武汉市, 湖北省, China 中国;武汉市;黄陂区;湖北省;430050;China 中国
4th Ring Road, 径河街道 (Jinghe), 东西湖区, 武汉市, 湖北省, China 中国;武汉市;径河街道 (Jinghe);湖北省;430050;China 中国
江夏区, 武汉市, 湖北省, 430073, China 中国;武汉市;关东街道;湖北省;430073;China 中国
邓南街, 汉南区, 武汉市, 湖北省, China 中国;武汉市;关东街道;湖北省;430050;China 中国
李家集街道, 黄陂区, 武汉市, 湖北省, China 中国;武汉市;关东街道;湖北省;430050;China 中国
S13, 汉南区, 武汉市, 湖北省, China 中国;武汉市;汉南区;湖北省;430050;China 中国
清潭湖街道, 武汉化学工业新区（托管）, 洪山区, 武汉市, 湖北省, China 中国;武汉市;清潭湖街道;湖北省;430050;China 中国
S13, 汉南区, 武汉市, 湖北省, China 中国;武汉市;汉南区;湖北省;430050;China 中国
张湾街, 蔡甸区, 武汉市, 湖北省, China 中国;武汉市;关东街道;湖北省;430050;China 中国
武湖街道, 黄陂区, 武汉市, 湖北省, China 中国;武汉市;关东街道;湖北省;430050;China 中国
东西湖区, 武汉市, 湖北省, China 中国;武汉市;东西湖区;湖北省;430050;China 中国
洪北管委会, 蔡甸区, 武汉市, 湖北省, China 中国;武汉市;关东街道;湖北省;430050;China 中国
慈惠街道, 东西湖区, 武汉市, 湖北省, 430101, China 中国;武汉市;慈惠街道;湖北省;430101;China 中国
蔡店街道, 黄陂区, 武汉市, 湖北省, China 中国;武汉市;关东街道;湖北省;430050;China 中国
走马岭街道, 东西湖区, 武汉市, 湖北省, China 中国;武汉市;关东街道;湖北省;430050;China 中国
金水办事处, 江夏区, 武汉市, 湖北省, China 中国;武汉市;关东街道;湖北省;430050;China 中国
李家集街道, 黄陂区, 武汉市, 湖北省, China 中国;武汉市;关东街道;湖北省;430050;China 中国
江夏区, 武汉市, 湖北省, 430073, China 中国;武汉市;关东街道;湖北省;430073;China 中国
李集街, 新洲区, 武汉市, 湖北省, China 中国;武汉市;关东街道;湖北省;430050;China 中国
F·天下, 楼子湾, 黄陂区, 武汉市, 湖北省, China 中国;武汉市;关东街道;湖北省;430050;China 中国
万科城市花园, 关东街道, 东湖新技术开发区（托管）, 江夏区, 武汉市, 湖北省, 430070, China 中国;武汉市;关东街道;湖北省;430070;China 中国
六指街道, 黄陂区, 武汉市, 湖北省, China 中国;武汉市;关东街道;湖北省;430050;China 中国
雲飛路, 云飞路, 常青街道, 江汉区, 武汉市, 湖北省, WUHAN HANKOU, China 中国;武汉市;常青街道;湖北省;WUHAN HANKOU;China 中国
黄陂区, 武汉市, 湖北省, China 中国;武汉市;关东街道;湖北省;430050;China 中国
蔡甸区, 武汉市, 湖北省, 430056, China 中国;武汉市;蔡甸区;湖北省;430056;China 中国
湖泗街道, 江夏区, 武汉市, 湖北省, China 中国;武汉市;关东街道;湖北省;430050;China 中国
4th Ring Road, 黄陂区, 武汉市, 湖北省, China 中国;武汉市;黄陂区;湖北省;430050;China 中国
安山街, 江夏区, 武汉市, 湖北省, China 中国;武汉市;关东街道;湖北省;430050;China 中国
蔡家榨街道, 黄陂区, 武汉市, 湖北省, China 中国;武汉市;关东街道;湖北省;430050;China 中国
4th Ring Road, 青菱街道, 武汉经济技术开发区（托管）, 蔡甸区, 武汉市, 湖北省, China 中国;武汉市;青菱街道;湖北省;430050;China 中国
大潭原种场, 黄陂区, 武汉市, 湖北省, China 中国;武汉市;关东街道;湖北省;430050;China 中国
武钢集团, 厂前街道, 青山区, 武汉市, 湖北省, China 中国;武汉市;厂前街道;湖北省;430050;China 中国
鲁台, 黄陂区, 武汉市, 湖北省, China 中国;武汉市;黄陂区;湖北省;430050;China 中国
金水办事处, 江夏区, 武汉市, 湖北省, China 中国;武汉市;关东街道;湖北省;430050;China 中国
S105, 蔡甸区, 武汉市, 湖北省, China 中国;武汉市;关东街道;湖北省;430050;China 中国
武汉绕城高速公路, 新洲区, 武汉市, 湖北省, China 中国;武汉市;新洲区;湖北省;430050;China 中国
东西湖大堤, 金银湖街道, 东西湖区, 武汉市, 湖北省, China 中国;武汉市;金银湖街道;湖北省;430050;China 中国
双柳街, 新洲区, 武汉市, 湖北省, China 中国;武汉市;关东街道;湖北省;430050;China 中国
蔡店街道, 黄陂区, 武汉市, 湖北省, China 中国;武汉市;关东街道;湖北省;430050;China 中国
乌龙泉街, 江夏区, 武汉市, 湖北省, China 中国;武汉市;关东街道;湖北省;430050;China 中国
团结大道, 厂前街道, 青山区, 武汉市, 湖北省, 430080, China 中国;武汉市;厂前街道;湖北省;430080;China 中国
大屋饶, 江夏区, 武汉市, 湖北省, China 中国;武汉市;关东街道;湖北省;430050;China 中国
S122, 江夏区, 武汉市, 湖北省, China 中国;武汉市;江夏区;湖北省;430050;China 中国
湖泗街道, 江夏区, 武汉市, 湖北省, China 中国;武汉市;关东街道;湖北省;430050;China 中国
小陈家湾, 黄陂区, 武汉市, 湖北省, China 中国;武汉市;关东街道;湖北省;430050;China 中国
金水办事处, 江夏区, 武汉市, 湖北省, China 中国;武汉市;关东街道;湖北省;430050;China 中国
G318, 李集街, 新洲区, 武汉市, 湖北省, China 中国;武汉市;关东街道;湖北省;430050;China 中国
蔡甸区, 武汉市, 湖北省, China 中国;武汉市;关东街道;湖北省;430050;China 中国
天安道, 天河街, 黄陂区, 武汉市, 湖北省, China 中国;武汉市;关东街道;湖北省;430050;China 中国
消泗乡, 蔡甸区, 武汉市, 湖北省, China 中国;武汉市;关东街道;湖北省;430050;China 中国
107国道, 安山街, 江夏区, 武汉市, 湖北省, China 中国;武汉市;关东街道;湖北省;430050;China 中国
东湖生态旅游风景区（托管）, 武昌区, 武汉市, 湖北省, 430072, China 中国;武汉市;武昌区;湖北省;430072;China 中国
馬家湖, 机场二通道, 黄陂区, 武汉市, 湖北省, China 中国;武汉市;关东街道;湖北省;430050;China 中国
沌口街道, 武汉经济技术开发区（托管）, 蔡甸区, 武汉市, 湖北省, China 中国;武汉市;沌口街道;湖北省;430050;China 中国
团风县, 黄冈市, 湖北省, China 中国;武汉市;关东街道;湖北省;430050;China 中国
邓南街, 汉南区, 武汉市, 湖北省, China 中国;武汉市;关东街道;湖北省;430050;China 中国
流芳街道, 东湖新技术开发区（托管）, 江夏区, 武汉市, 湖北省, China 中国;武汉市;流芳街道;湖北省;430050;China 中国
藏龙大道, 关东街道, 东湖新技术开发区（托管）, 江夏区, 武汉市, 湖北省, China 中国;武汉市;关东街道;湖北省;430050;China 中国
武湖, 武汉绕城高速公路, 仓埠街, 新洲区, 武汉市, 湖北省, China 中国;武汉市;关东街道;湖北省;430050;China 中国
徐古街道, 新洲区, 武汉市, 湖北省, China 中国;武汉市;关东街道;湖北省;430050;China 中国
大悟县, 孝感市, 湖北省, China 中国;武汉市;关东街道;湖北省;430050;China 中国
洪山街道, 洪山区, 武汉市, 湖北省, 430068, China 中国;武汉市;洪山街道;湖北省;430068;China 中国
黄陂区, 武汉市, 湖北省, China 中国;武汉市;黄陂区;湖北省;430050;China 中国
涨渡湖街, 新洲区, 武汉市, 湖北省, China 中国;武汉市;关东街道;湖北省;430050;China 中国
武汉绕城高速公路, 鲁台, 黄陂区, 武汉市, 湖北省, China 中国;武汉市;黄陂区;湖北省;430050;China 中国
旧街街道, 新洲区, 武汉市, 湖北省, China 中国;武汉市;关东街道;湖北省;430050;China 中国
山坡街道, 江夏区, 武汉市, 湖北省, China 中国;武汉市;关东街道;湖北省;430050;China 中国
蔡店街道, 黄陂区, 武汉市, 湖北省, China 中国;武汉市;关东街道;湖北省;430050;China 中国
S13, 汉南区, 武汉市, 湖北省, China 中国;武汉市;汉南区;湖北省;430050;China 中国
军山街道, 武汉经济技术开发区（托管）, 蔡甸区, 武汉市, 湖北省, China 中国;武汉市;军山街道;湖北省;430050;China 中国
谌家矶大道, 谌家矶街道, 江岸区, 武汉市, 湖北省, China 中国;武汉市;谌家矶街道;湖北省;430050;China 中国
法泗街, 江夏区, 武汉市, 湖北省, China 中国;武汉市;关东街道;湖北省;430050;China 中国
汉南区, 武汉市, 湖北省, China 中国;武汉市;汉南区;湖北省;430050;China 中国
双柳街, 新洲区, 武汉市, 湖北省, China 中国;武汉市;关东街道;湖北省;430050;China 中国
新洲原种场, 新洲区, 武汉市, 湖北省, China 中国;武汉市;关东街道;湖北省;430050;China 中国
S112, 新洲原种场, 新洲区, 武汉市, 湖北省, 438800, China 中国;武汉市;关东街道;湖北省;438800;China 中国
五里界街, 江夏区, 武汉市, 湖北省, China 中国;武汉市;关东街道;湖北省;430050;China 中国
仓埠街, 新洲区, 武汉市, 湖北省, China 中国;武汉市;关东街道;湖北省;430050;China 中国
汉十高速, 黄陂区, 武汉市, 湖北省, China 中国;武汉市;关东街道;湖北省;430050;China 中国
蔡甸区, 武汉市, 湖北省, 430101, China 中国;武汉市;蔡甸区;湖北省;430101;China 中国
草塘角, 黄陂区, 武汉市, 湖北省, China 中国;武汉市;黄陂区;湖北省;430050;China 中国
蔡家榨街道, 黄陂区, 武汉市, 湖北省, China 中国;武汉市;关东街道;湖北省;430050;China 中国
八吉府街道, 武汉化学工业新区（托管）, 洪山区, 武汉市, 湖北省, China 中国;武汉市;八吉府街道;湖北省;430050;China 中国
郑店街, 江夏区, 武汉市, 湖北省, China 中国;武汉市;关东街道;湖北省;430050;China 中国
武汉绕城高速公路, 仓埠街, 新洲区, 武汉市, 湖北省, China 中国;武汉市;关东街道;湖北省;430050;China 中国
金水办事处, 江夏区, 武汉市, 湖北省, China 中国;武汉市;关东街道;湖北省;430050;China 中国
关豹高速, 豹澥街道, 东湖新技术开发区（托管）, 洪山区, 武汉市, 湖北省, 430073, China 中国;武汉市;豹澥街道;湖北省;430073;China 中国
X053, 新洲区, 武汉市, 湖北省, China 中国;武汉市;新洲区;湖北省;430050;China 中国
李集街, 新洲区, 武汉市, 湖北省, China 中国;武汉市;关东街道;湖北省;430050;China 中国
傅兴, 麻城市, 黄冈市, 湖北省, China 中国;武汉市;关东街道;湖北省;430050;China 中国
王家河街, 黄陂区, 武汉市, 湖北省, China 中国;武汉市;关东街道;湖北省;430050;China 中国
新洲区, 武汉市, 湖北省, China 中国;武汉市;关东街道;湖北省;430050;China 中国
流芳街道, 东湖新技术开发区（托管）, 江夏区, 武汉市, 湖北省, China 中国;武汉市;流芳街道;湖北省;430050;China 中国
京珠高速, 安山街, 江夏区, 武汉市, 湖北省, China 中国;武汉市;关东街道;湖北省;430050;China 中国
新洲区, 武汉市, 湖北省, China 中国;武汉市;关东街道;湖北省;430050;China 中国
沿河大道, 汉水桥街道, 硚口区, 武汉市, 湖北省, 430030, China 中国;武汉市;汉水桥街道;湖北省;430030;China 中国
祁家湾街道, 黄陂区, 武汉市, 湖北省, China 中国;武汉市;关东街道;湖北省;430050;China 中国
武汉绕城高速公路, 清潭湖街道, 武汉化学工业新区（托管）, 洪山区, 武汉市, 湖北省, China 中国;武汉市;清潭湖街道;湖北省;430050;China 中国
黄陂区, 武汉市, 湖北省, China 中国;武汉市;黄陂区;湖北省;430050;China 中国
夫子河镇, 麻城市, 黄冈市, 湖北省, China 中国;武汉市;关东街道;湖北省;430050;China 中国
小陈家湾, 黄陂区, 武汉市, 湖北省, China 中国;武汉市;关东街道;湖北省;430050;China 中国
四新管委会, 汉阳区, 武汉市, 湖北省, China 中国;武汉市;四新管委会;湖北省;430050;China 中国
洪北管委会, 蔡甸区, 武汉市, 湖北省, China 中国;武汉市;关东街道;湖北省;430050;China 中国
木兰山风景区, 黄陂区, 武汉市, 湖北省, China 中国;武汉市;关东街道;湖北省;430050;China 中国
蔡甸区, 武汉市, 湖北省, China 中国;武汉市;蔡甸区;湖北省;430050;China 中国
姚家集街道, 黄陂区, 武汉市, 湖北省, China 中国;武汉市;关东街道;湖北省;430050;China 中国
长轩岭街道, 黄陂区, 武汉市, 湖北省, China 中国;武汉市;关东街道;湖北省;430050;China 中国
新洲区, 武汉市, 湖北省, China 中国;武汉市;关东街道;湖北省;430050;China 中国
新洲区, 武汉市, 湖北省, China 中国;武汉市;新洲区;湖北省;430050;China 中国
湖泗街道, 江夏区, 武汉市, 湖北省, China 中国;武汉市;湖泗街道;湖北省;430050;China 中国
永丰街道, 武汉经济技术开发区（托管）, 汉阳区, 武汉市, 湖北省, 430056, China 中国;武汉市;永丰街道;湖北省;430056;China 中国
武汉-深圳高速公路, 法泗街, 江夏区, 武汉市, 湖北省, China 中国;武汉市;关东街道;湖北省;430050;China 中国
洪北管委会, 蔡甸区, 武汉市, 湖北省, China 中国;武汉市;关东街道;湖北省;430050;China 中国
二环线, 新村街道, 江岸区, 武汉市, 湖北省, 430015, China 中国;武汉市;新村街道;湖北省;430015;China 中国
X008, 湖泗街道, 江夏区, 武汉市, 湖北省, China 中国;武汉市;关东街道;湖北省;430050;China 中国
硚孝高速, 东山办事处, 东西湖区, 武汉市, 湖北省, China 中国;武汉市;关东街道;湖北省;430050;China 中国
S110, 祁家湾街道, 黄陂区, 武汉市, 湖北省, China 中国;武汉市;关东街道;湖北省;430050;China 中国
慈惠街道, 东西湖区, 武汉市, 湖北省, 430101, China 中国;武汉市;慈惠街道;湖北省;430101;China 中国
汤逊湖村, 洪山区, 武汉市, 湖北省, 430070, China 中国;武汉市;关东街道;湖北省;430070;China 中国
新洲区, 武汉市, 湖北省, China 中国;武汉市;关东街道;湖北省;430050;China 中国
黄陂区, 武汉市, 湖北省, China 中国;武汉市;黄陂区;湖北省;430050;China 中国
辛冲镇, 新洲区, 武汉市, 湖北省, China 中国;武汉市;关东街道;湖北省;430050;China 中国
径河街道 (Jinghe), 东西湖区, 武汉市, 湖北省, China 中国;武汉市;径河街道 (Jinghe);湖北省;430050;China 中国
流芳街道, 东湖新技术开发区（托管）, 江夏区, 武汉市, 湖北省, China 中国;武汉市;流芳街道;湖北省;430050;China 中国
东风二队, 鲁台, 黄陂区, 武汉市, 湖北省, China 中国;武汉市;黄陂区;湖北省;430050;China 中国
G318, 李集街, 新洲区, 武汉市, 湖北省, China 中国;武汉市;关东街道;湖北省;430050;China 中国
武汉绕城高速公路, 郑店街, 江夏区, 武汉市, 湖北省, China 中国;武汉市;关东街道;湖北省;430050;China 中国
湘口街道, 汉南区, 武汉市, 湖北省, China 中国;武汉市;湘口街道;湖北省;430050;China 中国
山坡街道, 江夏区, 武汉市, 湖北省, China 中国;武汉市;关东街道;湖北省;430050;China 中国
黄陂区, 武汉市, 湖北省, China 中国;武汉市;黄陂区;湖北省;430050;China 中国
金水办事处, 江夏区, 武汉市, 湖北省, China 中国;武汉市;关东街道;湖北省;430050;China 中国
黄陂区, 武汉市, 湖北省, China 中国;武汉市;黄陂区;湖北省;430050;China 中国
木兰乡, 黄陂区, 武汉市, 湖北省, China 中国;武汉市;关东街道;湖北省;430050;China 中国
四新管委会, 汉阳区, 武汉市, 湖北省, China 中国;武汉市;四新管委会;湖北省;430050;China 中国
五里界街, 江夏区, 武汉市, 湖北省, China 中国;武汉市;关东街道;湖北省;430050;China 中国
蔡甸区, 武汉市, 湖北省, China 中国;武汉市;关东街道;湖北省;430050;China 中国
蔡家榨街道, 黄陂区, 武汉市, 湖北省, China 中国;武汉市;关东街道;湖北省;430050;China 中国
三店街, 新洲区, 武汉市, 湖北省, China 中国;武汉市;关东街道;湖北省;430050;China 中国
新洲区, 武汉市, 湖北省, China 中国;武汉市;新洲区;湖北省;430050;China 中国
五里界街, 江夏区, 武汉市, 湖北省, China 中国;武汉市;关东街道;湖北省;430050;China 中国
江夏区, 武汉市, 湖北省, China 中国;武汉市;江夏区;湖北省;430050;China 中国
琴台大道, 江汉二桥街道, 汉阳区, 武汉市, 湖北省, 430034, China 中国;武汉市;江汉二桥街道;湖北省;430034;China 中国
木兰乡, 黄陂区, 武汉市, 湖北省, China 中国;武汉市;关东街道;湖北省;430050;China 中国
洪北管委会, 蔡甸区, 武汉市, 湖北省, China 中国;武汉市;关东街道;湖北省;430050;China 中国
侏儒街, 蔡甸区, 武汉市, 湖北省, China 中国;武汉市;关东街道;湖北省;430050;China 中国
三环线, 汉兴街道, 江汉区, 武汉市, 湖北省, 430015, China 中国;武汉市;汉兴街道;湖北省;430015;China 中国
永安街, 蔡甸区, 武汉市, 湖北省, China 中国;武汉市;关东街道;湖北省;430050;China 中国
S102, 金港新区, 江夏区, 武汉市, 湖北省, China 中国;武汉市;关东街道;湖北省;430050;China 中国
G318, 李集街, 新洲区, 武汉市, 湖北省, China 中国;武汉市;关东街道;湖北省;430050;China 中国
走马岭街道, 东西湖区, 武汉市, 湖北省, China 中国;武汉市;关东街道;湖北省;430050;China 中国
张湾街, 蔡甸区, 武汉市, 湖北省, China 中国;武汉市;关东街道;湖北省;430050;China 中国
罗汉寺街道, 黄陂区, 武汉市, 湖北省, China 中国;武汉市;关东街道;湖北省;430050;China 中国
桥正街, 豹澥街道, 东湖新技术开发区（托管）, 江夏区, 武汉市, 湖北省, 430073, China 中国;武汉市;豹澥街道;湖北省;430073;China 中国
白果镇, 麻城市, 黄冈市, 湖北省, China 中国;武汉市;关东街道;湖北省;430050;China 中国
新洲区, 武汉市, 湖北省, China 中国;武汉市;新洲区;湖北省;430050;China 中国
汪集街, 新洲区, 武汉市, 湖北省, China 中国;武汉市;关东街道;湖北省;430050;China 中国
湖北大学职业技术学院, 雄楚大道, 卓刀泉街道, 洪山区, 武汉市, 湖北省, 430070, China 中国;武汉市;卓刀泉街道;湖北省;430070;China 中国
三里桥街道, 黄陂区, 武汉市, 湖北省, China 中国;武汉市;关东街道;湖北省;430050;China 中国
慈惠街道, 东西湖区, 武汉市, 湖北省, 430101, China 中国;武汉市;慈惠街道;湖北省;430101;China 中国
木兰乡, 黄陂区, 武汉市, 湖北省, China 中国;武汉市;关东街道;湖北省;430050;China 中国
柏银路, 金银湖街道, 东西湖区, 武汉市, 湖北省, China 中国;武汉市;金银湖街道;湖北省;430050;China 中国
法泗街, 江夏区, 武汉市, 湖北省, China 中国;武汉市;关东街道;湖北省;430050;China 中国
长轩岭街道, 黄陂区, 武汉市, 湖北省, China 中国;武汉市;关东街道;湖北省;430050;China 中国
侏儒街, 蔡甸区, 武汉市, 湖北省, China 中国;武汉市;关东街道;湖北省;430050;China 中国
蔡甸区, 武汉市, 湖北省, 430101, China 中国;武汉市;蔡甸区;湖北省;430101;China 中国
豹澥街道, 鄂州市, 东湖新技术开发区（托管）, 华容区, 湖北省, China 中国;武汉市;豹澥街道;湖北省;430050;China 中国
武湖街道, 黄陂区, 武汉市, 湖北省, China 中国;武汉市;关东街道;湖北省;430050;China 中国
长轩岭街道, 黄陂区, 武汉市, 湖北省, China 中国;武汉市;关东街道;湖北省;430050;China 中国
武汉绕城高速公路, 鲁台, 黄陂区, 武汉市, 湖北省, China 中国;武汉市;黄陂区;湖北省;430050;China 中国
东湖新技术开发区, 关东街道, 东湖新技术开发区（托管）, 江夏区, 武汉市, 湖北省, 430070, China 中国;武汉市;关东街道;湖北省;430070;China 中国
星火村, 东湖新技术开发区（托管）, 江夏区, 武汉市, 湖北省, China 中国;武汉市;关东街道;湖北省;430050;China 中国
新洲区, 武汉市, 湖北省, China 中国;武汉市;新洲区;湖北省;430050;China 中国
径河街, 东西湖区, 武汉市, 湖北省, China 中国;武汉市;关东街道;湖北省;430050;China 中国
王家河街, 黄陂区, 武汉市, 湖北省, China 中国;武汉市;关东街道;湖北省;430050;China 中国
黄陂区, 武汉市, 湖北省, China 中国;武汉市;黄陂区;湖北省;430050;China 中国
沌口街道, 武汉经济技术开发区（托管）, 蔡甸区, 武汉市, 湖北省, 430056, China 中国;武汉市;沌口街道;湖北省;430056;China 中国
X007, 湖泗街道, 江夏区, 武汉市, 湖北省, China 中国;武汉市;关东街道;湖北省;430050;China 中国
黄陂区, 武汉市, 湖北省, China 中国;武汉市;黄陂区;湖北省;430050;China 中国
洪北管委会, 蔡甸区, 武汉市, 湖北省, China 中国;武汉市;关东街道;湖北省;430050;China 中国
武汉绕城高速公路, 东西湖区, 武汉市, 湖北省, China 中国;武汉市;东西湖区;湖北省;430050;China 中国
杨泗港长江大桥, 洲头街道, 汉阳区, 武汉市, 湖北省, 460065, China 中国;武汉市;洲头街道;湖北省;460065;China 中国
湖泗街道, 江夏区, 武汉市, 湖北省, China 中国;武汉市;关东街道;湖北省;430050;China 中国
新洲区, 武汉市, 湖北省, China 中国;武汉市;关东街道;湖北省;430050;China 中国
佛祖岭街道, 东湖新技术开发区（托管）, 江夏区, 武汉市, 湖北省, 430073, China 中国;武汉市;佛祖岭街道;湖北省;430073;China 中国
木兰山风景区, 黄陂区, 武汉市, 湖北省, China 中国;武汉市;关东街道;湖北省;430050;China 中国
江夏区, 石洞街, 江夏区, 武汉市, 湖北省, China 中国;武汉市;关东街道;湖北省;430050;China 中国
大广高速, 新洲区, 武汉市, 湖北省, China 中国;武汉市;新洲区;湖北省;430050;China 中国
花山街道, 东湖新技术开发区（托管）, 洪山区, 武汉市, 湖北省, China 中国;武汉市;花山街道;湖北省;430050;China 中国
小陈家湾, 黄陂区, 武汉市, 湖北省, China 中国;武汉市;关东街道;湖北省;430050;China 中国
索河镇, 蔡甸区, 武汉市, 湖北省, China 中国;武汉市;关东街道;湖北省;430050;China 中国
李家集街道, 黄陂区, 武汉市, 湖北省, China 中国;武汉市;关东街道;湖北省;430050;China 中国
流芳街道, 东湖新技术开发区（托管）, 江夏区, 武汉市, 湖北省, China 中国;武汉市;流芳街道;湖北省;430050;China 中国
沪蓉高速公路, 东西湖区, 武汉市, 湖北省, China 中国;武汉市;东西湖区;湖北省;430050;China 中国
军山街道, 武汉经济技术开发区（托管）, 蔡甸区, 武汉市, 湖北省, China 中国;武汉市;军山街道;湖北省;430050;China 中国
长丰街道, 硚口区, 武汉市, 湖北省, 430034, China 中国;武汉市;长丰街道;湖北省;430034;China 中国
S102, 金水办事处, 江夏区, 武汉市, 湖北省, China 中国;武汉市;关东街道;湖北省;430050;China 中国
东山办事处, 东西湖区, 武汉市, 湖北省, China 中国;武汉市;关东街道;湖北省;430050;China 中国
后长街, 黄鹤楼街道, 武昌区, 武汉市, 湖北省, 230060, China 中国;武汉市;黄鹤楼街道;湖北省;230060;China 中国
G318, 六指街道, 黄陂区, 武汉市, 湖北省, China 中国;武汉市;关东街道;湖北省;430050;China 中国
法泗街, 江夏区, 武汉市, 湖北省, China 中国;武汉市;关东街道;湖北省;430050;China 中国
涨渡湖街, 新洲区, 武汉市, 湖北省, China 中国;武汉市;关东街道;湖北省;430050;China 中国
X053, 新洲区, 武汉市, 湖北省, China 中国;武汉市;新洲区;湖北省;430050;China 中国
黄陂区, 武汉市, 湖北省, China 中国;武汉市;黄陂区;湖北省;430050;China 中国
柏泉办事处, 东西湖区, 武汉市, 湖北省, China 中国;武汉市;关东街道;湖北省;430050;China 中国
S102, 金水办事处, 江夏区, 武汉市, 湖北省, China 中国;武汉市;关东街道;湖北省;430050;China 中国
木兰乡, 黄陂区, 武汉市, 湖北省, China 中国;武汉市;关东街道;湖北省;430050;China 中国
武汉绕城高速公路, 仓埠街, 新洲区, 武汉市, 湖北省, China 中国;武汉市;关东街道;湖北省;430050;China 中国
新洲原种场, 新洲区, 武汉市, 湖北省, China 中国;武汉市;关东街道;湖北省;430050;China 中国
解放大道, 长青街道 (Changking), 东西湖区, 武汉市, 湖北省, China 中国;武汉市;长青街道 (Changking);湖北省;430050;China 中国
八吉府街道, 武汉化学工业新区（托管）, 洪山区, 武汉市, 湖北省, China 中国;武汉市;八吉府街道;湖北省;430050;China 中国
双柳街, 新洲区, 武汉市, 湖北省, China 中国;武汉市;关东街道;湖北省;430050;China 中国
新洲区, 武汉市, 湖北省, China 中国;武汉市;新洲区;湖北省;430050;China 中国
长轩岭街道, 黄陂区, 武汉市, 湖北省, China 中国;武汉市;关东街道;湖北省;430050;China 中国
黄陂区, 武汉市, 湖北省, China 中国;武汉市;黄陂区;湖北省;430050;China 中国
玉贤镇, 蔡甸区, 武汉市, 湖北省, 430100, China 中国;武汉市;关东街道;湖北省;430100;China 中国
S3, 三里桥街道, 黄陂区, 武汉市, 湖北省, China 中国;武汉市;关东街道;湖北省;430050;China 中国
新洲区, 武汉市, 湖北省, China 中国;武汉市;新洲区;湖北省;430050;China 中国
金水办事处, 江夏区, 武汉市, 湖北省, China 中国;武汉市;关东街道;湖北省;430050;China 中国
江夏区, 武汉市, 湖北省, 430073, China 中国;武汉市;关东街道;湖北省;430073;China 中国
径河街, 东西湖区, 武汉市, 湖北省, China 中国;武汉市;关东街道;湖北省;430050;China 中国
消泗乡, 蔡甸区, 武汉市, 湖北省, China 中国;武汉市;关东街道;湖北省;430050;China 中国
草塘角, 火庙村, 黄陂区, 武汉市, 湖北省, China 中国;武汉市;关东街道;湖北省;430050;China 中国
蔡甸区, 武汉市, 湖北省, 430100, China 中国;武汉市;蔡甸区;湖北省;430100;China 中国
东西湖大堤, 金银湖街道, 东西湖区, 武汉市, 湖北省, China 中国;武汉市;金银湖街道;湖北省;430050;China 中国
四環線 4the Ring Road, 北湖管委会, 武汉化学工业新区（托管）, 青山区, 武汉市, 湖北省, China 中国;武汉市;北湖管委会;湖北省;430050;China 中国
阳逻街, 新洲区, 武汉市, 湖北省, China 中国;武汉市;关东街道;湖北省;430050;China 中国
江夏区, 武汉市, 湖北省, 430073, China 中国;武汉市;关东街道;湖北省;430073;China 中国
三里桥街道, 黄陂区, 武汉市, 湖北省, China 中国;武汉市;关东街道;湖北省;430050;China 中国
武汉绕城高速公路, 汉南区, 江夏区, 武汉市, 湖北省, China 中国;武汉市;汉南区;湖北省;430050;China 中国
东山办事处, 东西湖区, 武汉市, 湖北省, China 中国;武汉市;东山办事处;湖北省;430050;China 中国
武湖街道, 黄陂区, 武汉市, 湖北省, China 中国;武汉市;关东街道;湖北省;430050;China 中国
新洲区, 武汉市, 湖北省, China 中国;武汉市;新洲区;湖北省;430050;China 中国
六指街道, 黄陂区, 武汉市, 湖北省, China 中国;武汉市;关东街道;湖北省;430050;China 中国
银莲社区, 湘口街道, 汉南区, 武汉市, 湖北省, China 中国;武汉市;关东街道;湖北省;430050;China 中国
黄陂区, 武汉市, 湖北省, China 中国;武汉市;关东街道;湖北省;430050;China 中国
长轩岭街道, 黄陂区, 武汉市, 湖北省, China 中国;武汉市;关东街道;湖北省;430050;China 中国
G318, 李集街, 新洲区, 武汉市, 湖北省, China 中国;武汉市;关东街道;湖北省;430050;China 中国
汪集街, 新洲区, 武汉市, 湖北省, China 中国;武汉市;关东街道;湖北省;430050;China 中国
涨渡湖街, 新洲区, 武汉市, 湖北省, China 中国;武汉市;关东街道;湖北省;430050;China 中国
鲁台, 黄陂区, 武汉市, 湖北省, China 中国;武汉市;黄陂区;湖北省;430050;China 中国
李家集街道, 黄陂区, 武汉市, 湖北省, China 中国;武汉市;关东街道;湖北省;430050;China 中国
金银湖街道, 东西湖区, 武汉市, 湖北省, 430034, China 中国;武汉市;金银湖街道;湖北省;430034;China 中国
四新管委会, 汉阳区, 武汉市, 湖北省, 430056, China 中国;武汉市;四新管委会;湖北省;430056;China 中国
X030, 银莲社区, 湘口街道, 汉南区, 武汉市, 湖北省, China 中国;武汉市;关东街道;湖北省;430050;China 中国
黄陂区, 武汉市, 湖北省, China 中国;武汉市;关东街道;湖北省;430050;China 中国
S5G42S, 新洲区, 武汉市, 湖北省, China 中国;武汉市;新洲区;湖北省;430050;China 中国
永安街, 蔡甸区, 武汉市, 湖北省, China 中国;武汉市;关东街道;湖北省;430050;China 中国
王家河街, 黄陂区, 武汉市, 湖北省, China 中国;武汉市;关东街道;湖北省;430050;China 中国
乌龙泉街, 江夏区, 武汉市, 湖北省, China 中国;武汉市;关东街道;湖北省;430050;China 中国
汉南区, 武汉市, 湖北省, China 中国;武汉市;汉南区;湖北省;430050;China 中国
G318, 鲁台, 黄陂区, 武汉市, 湖北省, China 中国;武汉市;黄陂区;湖北省;430050;China 中国
径河街道 (Jinghe), 东西湖区, 武汉市, 湖北省, China 中国;武汉市;径河街道 (Jinghe);湖北省;430050;China 中国
姚家集街道, 黄陂区, 武汉市, 湖北省, China 中国;武汉市;关东街道;湖北省;430050;China 中国
草塘角, 火庙村, 黄陂区, 武汉市, 湖北省, China 中国;武汉市;关东街道;湖北省;430050;China 中国
新洲区, 武汉市, 湖北省, China 中国;武汉市;新洲区;湖北省;430050;China 中国
黄陂区, 武汉市, 湖北省, China 中国;武汉市;关东街道;湖北省;430050;China 中国
汪集街, 新洲区, 武汉市, 湖北省, China 中国;武汉市;关东街道;湖北省;430050;China 中国
楼子湾, 黄陂区, 武汉市, 湖北省, China 中国;武汉市;关东街道;湖北省;430050;China 中国
惠安大道, 辛安渡办事处, 东西湖区, 武汉市, 湖北省, China 中国;武汉市;关东街道;湖北省;430050;China 中国
新洲区, 武汉市, 湖北省, China 中国;武汉市;新洲区;湖北省;430050;China 中国
大广高速, 新洲区, 武汉市, 湖北省, China 中国;武汉市;新洲区;湖北省;430050;China 中国
鲁台, 黄陂区, 武汉市, 湖北省, China 中国;武汉市;黄陂区;湖北省;430050;China 中国
山坡街道, 江夏区, 武汉市, 湖北省, China 中国;武汉市;关东街道;湖北省;430050;China 中国
黄陂区, 武汉市, 湖北省, China 中国;武汉市;关东街道;湖北省;430050;China 中国
五里界街, 江夏区, 武汉市, 湖北省, China 中国;武汉市;关东街道;湖北省;430050;China 中国
阳逻街, 新洲区, 武汉市, 湖北省, China 中国;武汉市;关东街道;湖北省;430050;China 中国
沌口街道, 武汉经济技术开发区（托管）, 蔡甸区, 武汉市, 湖北省, China 中国;武汉市;沌口街道;湖北省;430050;China 中国
新洲区, 武汉市, 湖北省, China 中国;武汉市;新洲区;湖北省;430050;China 中国
蔡甸区, 武汉市, 湖北省, 430101, China 中国;武汉市;蔡甸区;湖北省;430101;China 中国
蔡甸区, 武汉市, 湖北省, 430101, China 中国;武汉市;蔡甸区;湖北省;430101;China 中国
东湖生态旅游风景区（托管）, 武昌区, 武汉市, 湖北省, China 中国;武汉市;武昌区;湖北省;430050;China 中国
王家河街, 黄陂区, 武汉市, 湖北省, China 中国;武汉市;关东街道;湖北省;430050;China 中国
罗汉寺街道, 黄陂区, 武汉市, 湖北省, China 中国;武汉市;关东街道;湖北省;430050;China 中国
红安县, 武汉市, 湖北省, China 中国;武汉市;红安县;湖北省;430050;China 中国
金水办事处, 江夏区, 武汉市, 湖北省, China 中国;武汉市;关东街道;湖北省;430050;China 中国
木兰乡, 黄陂区, 武汉市, 湖北省, China 中国;武汉市;关东街道;湖北省;430050;China 中国
九峰街道, 东湖新技术开发区（托管）, 洪山区, 武汉市, 湖北省, 430075, China 中国;武汉市;关东街道;湖北省;430075;China 中国
汉南区, 武汉市, 湖北省, China 中国;武汉市;汉南区;湖北省;430050;China 中国
阳逻街, 新洲区, 武汉市, 湖北省, China 中国;武汉市;关东街道;湖北省;430050;China 中国
辛冲镇, 新洲区, 武汉市, 湖北省, China 中国;武汉市;关东街道;湖北省;430050;China 中国
白玉山街道, 青山区, 武汉市, 湖北省, China 中国;武汉市;白玉山街道;湖北省;430050;China 中国
阳逻街, 新洲区, 武汉市, 湖北省, China 中国;武汉市;关东街道;湖北省;430050;China 中国
长轩岭街道, 黄陂区, 武汉市, 湖北省, China 中国;武汉市;关东街道;湖北省;430050;China 中国
祁家湾街道, 黄陂区, 武汉市, 湖北省, China 中国;武汉市;关东街道;湖北省;430050;China 中国
黄陂区, 武汉市, 湖北省, China 中国;武汉市;关东街道;湖北省;430050;China 中国
消泗乡, 蔡甸区, 武汉市, 湖北省, China 中国;武汉市;关东街道;湖北省;430050;China 中国
木兰乡, 黄陂区, 武汉市, 湖北省, China 中国;武汉市;关东街道;湖北省;430050;China 中国
花城大道, 花山街道, 东湖生态旅游风景区（托管）, 洪山区, 武汉市, 湖北省, 430075, China 中国;武汉市;花山街道;湖北省;430075;China 中国
法泗街, 江夏区, 武汉市, 湖北省, China 中国;武汉市;关东街道;湖北省;430050;China 中国
陈东路, 东山办事处, 东西湖区, 武汉市, 湖北省, China 中国;武汉市;关东街道;湖北省;430050;China 中国
发展大道, 常青街道, 江汉区, 武汉市, 湖北省, WUHAN HANKOU, China 中国;武汉市;常青街道;湖北省;WUHAN HANKOU;China 中国
李集街, 新洲区, 武汉市, 湖北省, China 中国;武汉市;关东街道;湖北省;430050;China 中国
江夏区, 武汉市, 湖北省, 430073, China 中国;武汉市;关东街道;湖北省;430073;China 中国
涨渡湖街, 新洲区, 武汉市, 湖北省, China 中国;武汉市;关东街道;湖北省;430050;China 中国
S3, 三里桥街道, 黄陂区, 武汉市, 湖北省, China 中国;武汉市;关东街道;湖北省;430050;China 中国
火庙村, 黄陂区, 武汉市, 湖北省, China 中国;武汉市;黄陂区;湖北省;430050;China 中国
居然之家, 常青路, 常青街道, 江汉区, 武汉市, 湖北省, WUHAN HANKOU, China 中国;武汉市;常青街道;湖北省;WUHAN HANKOU;China 中国
祁家湾街道, 黄陂区, 武汉市, 湖北省, China 中国;武汉市;关东街道;湖北省;430050;China 中国
S310, 鲁台, 黄陂区, 武汉市, 湖北省, China 中国;武汉市;黄陂区;湖北省;430050;China 中国
军山街道, 武汉经济技术开发区（托管）, 蔡甸区, 武汉市, 湖北省, China 中国;武汉市;军山街道;湖北省;430050;China 中国
金山大道, 径河街道 (Jinghe), 东西湖区, 武汉市, 湖北省, China 中国;武汉市;径河街道 (Jinghe);湖北省;430050;China 中国
阳逻街, 新洲区, 武汉市, 湖北省, China 中国;武汉市;关东街道;湖北省;430050;China 中国
黄陂区, 武汉市, 湖北省, China 中国;武汉市;关东街道;湖北省;430050;China 中国
山坡街道, 江夏区, 武汉市, 湖北省, China 中国;武汉市;关东街道;湖北省;430050;China 中国
双柳街, 新洲区, 武汉市, 湖北省, China 中国;武汉市;关东街道;湖北省;430050;China 中国
夹套河路, 张家湾街道, 洪山区, 武汉市, 湖北省, 460065, China 中国;武汉市;关东街道;湖北省;460065;China 中国
军山街道, 武汉经济技术开发区（托管）, 蔡甸区, 武汉市, 湖北省, China 中国;武汉市;军山街道;湖北省;430050;China 中国
汉南区, 武汉市, 湖北省, China 中国;武汉市;汉南区;湖北省;430050;China 中国
107国道, 安山街, 江夏区, 武汉市, 湖北省, China 中国;武汉市;关东街道;湖北省;430050;China 中国
星火村, 东湖新技术开发区（托管）, 江夏区, 武汉市, 湖北省, China 中国;武汉市;关东街道;湖北省;430050;China 中国
二七街道, 江岸区, 武汉市, 湖北省, 430015, China 中国;武汉市;二七街道;湖北省;430015;China 中国
新洲区, 武汉市, 湖北省, China 中国;武汉市;新洲区;湖北省;430050;China 中国
蔡甸区, 武汉市, 湖北省, China 中国;武汉市;关东街道;湖北省;430050;China 中国
东湖生态旅游风景区（托管）, 武昌区, 武汉市, 湖北省, 430072, China 中国;武汉市;武昌区;湖北省;430072;China 中国
武湖街道, 黄陂区, 武汉市, 湖北省, China 中国;武汉市;关东街道;湖北省;430050;China 中国
涨渡湖街, 新洲区, 武汉市, 湖北省, China 中国;武汉市;关东街道;湖北省;430050;China 中国
东荆街, 汉南区, 武汉市, 湖北省, China 中国;武汉市;关东街道;湖北省;430050;China 中国
G318, 李集街, 新洲区, 武汉市, 湖北省, China 中国;武汉市;关东街道;湖北省;430050;China 中国
HuangTu Road, 长轩岭街道, 黄陂区, 武汉市, 湖北省, China 中国;武汉市;关东街道;湖北省;430050;China 中国
长江, 武汉市, 湖北省, China 中国;武汉市;关东街道;湖北省;430050;China 中国
安山街, 江夏区, 武汉市, 湖北省, China 中国;武汉市;关东街道;湖北省;430050;China 中国
小陈家湾, 黄陂区, 武汉市, 湖北省, China 中国;武汉市;关东街道;湖北省;430050;China 中国
徐古街道, 新洲区, 武汉市, 湖北省, China 中国;武汉市;关东街道;湖北省;430050;China 中国
黄陂区, 武汉市, 湖北省, China 中国;武汉市;关东街道;湖北省;430050;China 中国
江夏区, 武汉市, 湖北省, China 中国;武汉市;江夏区;湖北省;430050;China 中国
华中师范大学, 152, 珞喻路, 卓刀泉街道, 洪山区, 武汉市, 湖北省, 430079, China 中国;武汉市;卓刀泉街道;湖北省;430079;China 中国
沿江村, 东湖新技术开发区（托管）, 洪山区, 武汉市, 湖北省, China 中国;武汉市;关东街道;湖北省;430050;China 中国
汉江大桥, 长青街道 (Changking), 东西湖区, 武汉市, 湖北省, 430100, China 中国;武汉市;长青街道 (Changking);湖北省;430100;China 中国
洪北管委会, 蔡甸区, 武汉市, 湖北省, China 中国;武汉市;关东街道;湖北省;430050;China 中国
洪北管委会, 蔡甸区, 武汉市, 湖北省, China 中国;武汉市;关东街道;湖北省;430050;China 中国
塔子湖街道, 江岸区, 武汉市, 湖北省, 420112, China 中国;武汉市;塔子湖街道;湖北省;420112;China 中国
军山街道, 武汉经济技术开发区（托管）, 蔡甸区, 武汉市, 湖北省, China 中国;武汉市;军山街道;湖北省;430050;China 中国
流芳街道, 东湖新技术开发区（托管）, 江夏区, 武汉市, 湖北省, China 中国;武汉市;流芳街道;湖北省;430050;China 中国
三里桥街道, 黄陂区, 武汉市, 湖北省, China 中国;武汉市;关东街道;湖北省;430050;China 中国
三店街, 新洲区, 武汉市, 湖北省, China 中国;武汉市;关东街道;湖北省;430050;China 中国
梁子湖风景区, 江夏区, 武汉市, 湖北省, China 中国;武汉市;关东街道;湖北省;430050;China 中国
黄陂区, 武汉市, 湖北省, China 中国;武汉市;关东街道;湖北省;430050;China 中国
黄陂区, 武汉市, 湖北省, China 中国;武汉市;关东街道;湖北省;430050;China 中国
金港新区, 江夏区, 武汉市, 湖北省, China 中国;武汉市;关东街道;湖北省;430050;China 中国
木兰乡, 黄陂区, 武汉市, 湖北省, China 中国;武汉市;关东街道;湖北省;430050;China 中国
江北快速路, 黄陂区, 武汉市, 湖北省, China 中国;武汉市;关东街道;湖北省;430050;China 中国
法泗街, 江夏区, 武汉市, 湖北省, China 中国;武汉市;关东街道;湖北省;430050;China 中国
京珠高速, 安山街, 江夏区, 武汉市, 湖北省, China 中国;武汉市;关东街道;湖北省;430050;China 中国
乌龙泉街, 江夏区, 武汉市, 湖北省, China 中国;武汉市;关东街道;湖北省;430050;China 中国
阳逻街, 新洲区, 武汉市, 湖北省, China 中国;武汉市;关东街道;湖北省;430050;China 中国
新洲区, 武汉市, 湖北省, China 中国;武汉市;新洲区;湖北省;430050;China 中国
东山办事处, 东西湖区, 武汉市, 湖北省, China 中国;武汉市;关东街道;湖北省;430050;China 中国
武钢集团, 青山镇街道, 武汉化学工业新区（托管）, 青山区, 武汉市, 湖北省, China 中国;武汉市;青山镇街道;湖北省;430050;China 中国
江夏区, 武汉市, 湖北省, China 中国;武汉市;江夏区;湖北省;430050;China 中国
X007, 湖泗街道, 江夏区, 武汉市, 湖北省, China 中国;武汉市;关东街道;湖北省;430050;China 中国
梁子湖风景区, 江夏区, 武汉市, 湖北省, China 中国;武汉市;关东街道;湖北省;430050;China 中国
梁子湖风景区, 江夏区, 武汉市, 湖北省, China 中国;武汉市;关东街道;湖北省;430050;China 中国
东西湖区, 武汉市, 湖北省, China 中国;武汉市;东西湖区;湖北省;430050;China 中国
青郑高速公路, 郑店街, 江夏区, 武汉市, 湖北省, China 中国;武汉市;关东街道;湖北省;430050;China 中国
左岭街道, 东湖新技术开发区（托管）, 洪山区, 武汉市, 湖北省, China 中国;武汉市;左岭街道;湖北省;430050;China 中国
永安街, 蔡甸区, 武汉市, 湖北省, China 中国;武汉市;关东街道;湖北省;430050;China 中国
养殖场, 东湖新技术开发区（托管）, 江夏区, 武汉市, 湖北省, China 中国;武汉市;养殖场;湖北省;430050;China 中国
楼子湾, 黄陂区, 武汉市, 湖北省, China 中国;武汉市;关东街道;湖北省;430050;China 中国
大潭原种场, 黄陂区, 武汉市, 湖北省, China 中国;武汉市;关东街道;湖北省;430050;China 中国
蔡甸区, 武汉市, 湖北省, 430100, China 中国;武汉市;蔡甸区;湖北省;430100;China 中国
沪渝高速, 永安街, 蔡甸区, 武汉市, 湖北省, China 中国;武汉市;关东街道;湖北省;430050;China 中国
李集街, 新洲区, 武汉市, 湖北省, China 中国;武汉市;关东街道;湖北省;430050;China 中国
汉南区, 武汉市, 湖北省, China 中国;武汉市;汉南区;湖北省;430050;China 中国
三店街, 新洲区, 武汉市, 湖北省, China 中国;武汉市;关东街道;湖北省;430050;China 中国
李家集街道, 黄陂区, 武汉市, 湖北省, China 中国;武汉市;关东街道;湖北省;430050;China 中国
蔡店街道, 黄陂区, 武汉市, 湖北省, China 中国;武汉市;关东街道;湖北省;430050;China 中国
玉龙岛路, 关东街道, 东湖新技术开发区（托管）, 江夏区, 武汉市, 湖北省, 430070, China 中国;武汉市;关东街道;湖北省;430070;China 中国
江夏区, 武汉市, 湖北省, 430073, China 中国;武汉市;关东街道;湖北省;430073;China 中国
八吉府街道, 武汉化学工业新区（托管）, 洪山区, 武汉市, 湖北省, China 中国;武汉市;八吉府街道;湖北省;430050;China 中国
三环线, 张家湾街道, 洪山区, 武汉市, 湖北省, 460065, China 中国;武汉市;关东街道;湖北省;460065;China 中国
湖泗街道, 江夏区, 武汉市, 湖北省, China 中国;武汉市;湖泗街道;湖北省;430050;China 中国
王家河街, 黄陂区, 武汉市, 湖北省, China 中国;武汉市;关东街道;湖北省;430050;China 中国
法泗街, 江夏区, 武汉市, 湖北省, China 中国;武汉市;关东街道;湖北省;430050;China 中国
湖泗街道, 江夏区, 武汉市, 湖北省, China 中国;武汉市;湖泗街道;湖北省;430050;China 中国
洪北管委会, 蔡甸区, 武汉市, 湖北省, China 中国;武汉市;关东街道;湖北省;430050;China 中国
物业中心, 武大园东路, 关东街道, 东湖新技术开发区（托管）, 江夏区, 武汉市, 湖北省, 430070, China 中国;武汉市;关东街道;湖北省;430070;China 中国
新沟镇街道, 东西湖区, 武汉市, 湖北省, China 中国;武汉市;关东街道;湖北省;430050;China 中国
走马岭街道, 东西湖区, 武汉市, 湖北省, China 中国;武汉市;关东街道;湖北省;430050;China 中国
武汉绕城高速公路, 金港新区, 江夏区, 武汉市, 湖北省, China 中国;武汉市;关东街道;湖北省;430050;China 中国
横店街道, 黄陂区, 武汉市, 湖北省, China 中国;武汉市;关东街道;湖北省;430050;China 中国
桐湖办事处, 蔡甸区, 武汉市, 湖北省, China 中国;武汉市;关东街道;湖北省;430050;China 中国
红安县, 黄冈市, 湖北省, China 中国;武汉市;红安县;湖北省;430050;China 中国
陈东路, 东山办事处, 东西湖区, 武汉市, 湖北省, China 中国;武汉市;关东街道;湖北省;430050;China 中国
李家集街道, 黄陂区, 武汉市, 湖北省, China 中国;武汉市;关东街道;湖北省;430050;China 中国
草塘角, 滠口街道, 黄陂区, 武汉市, 湖北省, China 中国;武汉市;关东街道;湖北省;430050;China 中国
S13, 沌口街道, 武汉经济技术开发区（托管）, 蔡甸区, 武汉市, 湖北省, 430056, China 中国;武汉市;沌口街道;湖北省;430056;China 中国
王家河街, 黄陂区, 武汉市, 湖北省, China 中国;武汉市;关东街道;湖北省;430050;China 中国
玉贤镇, 蔡甸区, 武汉市, 湖北省, 430100, China 中国;武汉市;关东街道;湖北省;430100;China 中国
和平大道, 红卫路街道, 青山区, 武汉市, 湖北省, 430080, China 中国;武汉市;红卫路街道;湖北省;430080;China 中国
郑店街, 江夏区, 武汉市, 湖北省, China 中国;武汉市;关东街道;湖北省;430050;China 中国
郑店街, 江夏区, 武汉市, 湖北省, China 中国;武汉市;关东街道;湖北省;430050;China 中国
侏儒街, 蔡甸区, 武汉市, 湖北省, China 中国;武汉市;关东街道;湖北省;430050;China 中国
金水办事处, 江夏区, 武汉市, 湖北省, China 中国;武汉市;关东街道;湖北省;430050;China 中国
大桥新区, 江夏区, 武汉市, 湖北省, China 中国;武汉市;关东街道;湖北省;430050;China 中国
徐古街道, 新洲区, 武汉市, 湖北省, China 中国;武汉市;关东街道;湖北省;430050;China 中国
王家河街, 黄陂区, 武汉市, 湖北省, China 中国;武汉市;关东街道;湖北省;430050;China 中国
金水办事处, 江夏区, 武汉市, 湖北省, China 中国;武汉市;关东街道;湖北省;430050;China 中国
新洲区, 武汉市, 湖北省, China 中国;武汉市;新洲区;湖北省;430050;China 中国
江夏区, 武汉市, 湖北省, China 中国;武汉市;江夏区;湖北省;430050;China 中国
江夏区, 武汉市, 湖北省, China 中国;武汉市;江夏区;湖北省;430050;China 中国
吉林街, 钢花村街道, 青山区, 武汉市, 湖北省, 430080, China 中国;武汉市;钢花村街道;湖北省;430080;China 中国
汤湖, 武英高速, 武湖街道, 黄陂区, 武汉市, 湖北省, China 中国;武汉市;关东街道;湖北省;430050;China 中国
S101, 江夏区, 郑店街, 江夏区, 武汉市, 湖北省, China 中国;武汉市;关东街道;湖北省;430050;China 中国
安山街, 江夏区, 武汉市, 湖北省, China 中国;武汉市;关东街道;湖北省;430050;China 中国
星火村, 东湖新技术开发区（托管）, 江夏区, 武汉市, 湖北省, China 中国;武汉市;关东街道;湖北省;430050;China 中国
蔡甸区, 武汉市, 湖北省, China 中国;武汉市;关东街道;湖北省;430050;China 中国
安山街, 江夏区, 武汉市, 湖北省, China 中国;武汉市;关东街道;湖北省;430050;China 中国
新洲区, 武汉市, 湖北省, China 中国;武汉市;新洲区;湖北省;430050;China 中国
索河镇, 蔡甸区, 武汉市, 湖北省, China 中国;武汉市;关东街道;湖北省;430050;China 中国
侏儒街, 蔡甸区, 武汉市, 湖北省, China 中国;武汉市;关东街道;湖北省;430050;China 中国
汪集街, 新洲区, 武汉市, 湖北省, China 中国;武汉市;关东街道;湖北省;430050;China 中国
东湖生态旅游风景区（托管）, 洪山区, 武汉市, 湖北省, China 中国;武汉市;关东街道;湖北省;430050;China 中国
汽渡路, 阳逻街, 新洲区, 武汉市, 湖北省, China 中国;武汉市;关东街道;湖北省;430050;China 中国
东西湖大堤, 东山办事处, 东西湖区, 武汉市, 湖北省, China 中国;武汉市;关东街道;湖北省;430050;China 中国
将军路街道, 东西湖区, 武汉市, 湖北省, 420112, China 中国;武汉市;将军路街道;湖北省;420112;China 中国
金水办事处, 江夏区, 武汉市, 湖北省, China 中国;武汉市;关东街道;湖北省;430050;China 中国
舒安街道, 江夏区, 武汉市, 湖北省, China 中国;武汉市;关东街道;湖北省;430050;China 中国
东荆街, 汉南区, 武汉市, 湖北省, China 中国;武汉市;关东街道;湖北省;430050;China 中国
仓埠街, 新洲区, 武汉市, 湖北省, China 中国;武汉市;关东街道;湖北省;430050;China 中国
银莲社区, 湘口街道, 汉南区, 武汉市, 湖北省, China 中国;武汉市;关东街道;湖北省;430050;China 中国
李集街, 新洲区, 武汉市, 湖北省, China 中国;武汉市;关东街道;湖北省;430050;China 中国
常福新城, 蔡甸区, 武汉市, 湖北省, China 中国;武汉市;关东街道;湖北省;430050;China 中国
4th Ring Road, 径河街道 (Jinghe), 东西湖区, 武汉市, 湖北省, China 中国;武汉市;径河街道 (Jinghe);湖北省;430050;China 中国
汪集街, 新洲区, 武汉市, 湖北省, China 中国;武汉市;关东街道;湖北省;430050;China 中国
桐湖办事处, 蔡甸区, 武汉市, 湖北省, China 中国;武汉市;关东街道;湖北省;430050;China 中国
严西湖路, 花山街道, 东湖新技术开发区（托管）, 洪山区, 武汉市, 湖北省, 430075, China 中国;武汉市;花山街道;湖北省;430075;China 中国
汉十高速, 祁家湾街道, 黄陂区, 武汉市, 湖北省, China 中国;武汉市;关东街道;湖北省;430050;China 中国
舒安街道, 江夏区, 武汉市, 湖北省, China 中国;武汉市;关东街道;湖北省;430050;China 中国
木兰乡, 黄陂区, 武汉市, 湖北省, China 中国;武汉市;关东街道;湖北省;430050;China 中国
西北湖, 4th Ring Road, 沌口街道, 武汉经济技术开发区（托管）, 蔡甸区, 武汉市, 湖北省, 430056, China 中国;武汉市;沌口街道;湖北省;430056;China 中国
双柳街, 新洲区, 武汉市, 湖北省, China 中国;武汉市;关东街道;湖北省;430050;China 中国
东湖生态旅游风景区（托管）, 武昌区, 武汉市, 湖北省, 430074, China 中国;武汉市;武昌区;湖北省;430074;China 中国
S112, 新洲原种场, 新洲区, 武汉市, 湖北省, 438800, China 中国;武汉市;关东街道;湖北省;438800;China 中国
新洲区, 武汉市, 湖北省, China 中国;武汉市;关东街道;湖北省;430050;China 中国
武昌大道, 江夏区, 石洞街, 江夏区, 武汉市, 湖北省, China 中国;武汉市;关东街道;湖北省;430050;China 中国
工业二路, 江夏区, 武汉市, 湖北省, China 中国;武汉市;江夏区;湖北省;430050;China 中国
六指街道, 黄陂区, 武汉市, 湖北省, China 中国;武汉市;关东街道;湖北省;430050;China 中国
长丰大道, 易家墩街道, 硚口区, 武汉市, 湖北省, China 中国;武汉市;易家墩街道;湖北省;430050;China 中国
邾城街, 新洲区, 武汉市, 湖北省, China 中国;武汉市;关东街道;湖北省;430050;China 中国
檀树岭村, 江夏区, 武汉市, 湖北省, China 中国;武汉市;关东街道;湖北省;430050;China 中国
六指街道, 黄陂区, 武汉市, 湖北省, China 中国;武汉市;关东街道;湖北省;430050;China 中国
草塘角, 黄陂区, 武汉市, 湖北省, China 中国;武汉市;黄陂区;湖北省;430050;China 中国
六指街道, 黄陂区, 武汉市, 湖北省, China 中国;武汉市;关东街道;湖北省;430050;China 中国
X007, 湖泗街道, 江夏区, 武汉市, 湖北省, China 中国;武汉市;关东街道;湖北省;430050;China 中国
侏儒街, 蔡甸区, 武汉市, 湖北省, China 中国;武汉市;关东街道;湖北省;430050;China 中国
奓山街, 蔡甸区, 武汉市, 湖北省, China 中国;武汉市;关东街道;湖北省;430050;China 中国
黄陂区, 武汉市, 湖北省, China 中国;武汉市;黄陂区;湖北省;430050;China 中国
新洲区, 武汉市, 湖北省, China 中国;武汉市;新洲区;湖北省;430050;China 中国
京港澳高速公路, 东山办事处, 东西湖区, 武汉市, 湖北省, China 中国;武汉市;关东街道;湖北省;430050;China 中国
祁家湾街道, 黄陂区, 武汉市, 湖北省, China 中国;武汉市;关东街道;湖北省;430050;China 中国
草塘角, 滠口街道, 黄陂区, 武汉市, 湖北省, China 中国;武汉市;关东街道;湖北省;430050;China 中国
索河镇, 蔡甸区, 武汉市, 湖北省, China 中国;武汉市;关东街道;湖北省;430050;China 中国
长轩岭街道, 黄陂区, 武汉市, 湖北省, China 中国;武汉市;关东街道;湖北省;430050;China 中国
江夏区, 武汉市, 湖北省, China 中国;武汉市;江夏区;湖北省;430050;China 中国
江夏区, 武汉市, 湖北省, China 中国;武汉市;江夏区;湖北省;430050;China 中国
八方路, 慈惠街道, 东西湖区, 武汉市, 湖北省, China 中国;武汉市;慈惠街道;湖北省;430050;China 中国
阳逻街, 新洲区, 武汉市, 湖北省, China 中国;武汉市;关东街道;湖北省;430050;China 中国
木兰乡, 黄陂区, 武汉市, 湖北省, China 中国;武汉市;关东街道;湖北省;430050;China 中国
东山办事处, 东西湖区, 武汉市, 湖北省, China 中国;武汉市;关东街道;湖北省;430050;China 中国
S102, 金水办事处, 江夏区, 武汉市, 湖北省, China 中国;武汉市;关东街道;湖北省;430050;China 中国
新洲区, 武汉市, 湖北省, China 中国;武汉市;关东街道;湖北省;430050;China 中国
黄陂区, 武汉市, 湖北省, China 中国;武汉市;黄陂区;湖北省;430050;China 中国
新洲区, 武汉市, 湖北省, China 中国;武汉市;新洲区;湖北省;430050;China 中国
武汉市后官湖绿道, 蔡甸区, 武汉市, 湖北省, 430100, China 中国;武汉市;蔡甸区;湖北省;430100;China 中国
新洲区, 武汉市, 湖北省, China 中国;武汉市;关东街道;湖北省;430050;China 中国
黄陂区, 武汉市, 湖北省, China 中国;武汉市;关东街道;湖北省;430050;China 中国
黄陵庙路, 青菱街道, 洪山区, 武汉市, 湖北省, China 中国;武汉市;青菱街道;湖北省;430050;China 中国
饶子庄, 江夏区, 武汉市, 湖北省, China 中国;武汉市;关东街道;湖北省;430050;China 中国
三里桥街道, 黄陂区, 武汉市, 湖北省, China 中国;武汉市;关东街道;湖北省;430050;China 中国
湖泗街道, 江夏区, 武汉市, 湖北省, China 中国;武汉市;湖泗街道;湖北省;430050;China 中国
乌龙泉街, 江夏区, 武汉市, 湖北省, China 中国;武汉市;关东街道;湖北省;430050;China 中国
洪北管委会, 蔡甸区, 武汉市, 湖北省, China 中国;武汉市;关东街道;湖北省;430050;China 中国
三店街, 新洲区, 武汉市, 湖北省, China 中国;武汉市;关东街道;湖北省;430050;China 中国
黄陂区, 武汉市, 湖北省, China 中国;武汉市;关东街道;湖北省;430050;China 中国
江夏区, 武汉市, 湖北省, China 中国;武汉市;江夏区;湖北省;430050;China 中国
东湖生态旅游风景区（托管）, 洪山区, 武汉市, 湖北省, China 中国;武汉市;关东街道;湖北省;430050;China 中国
罗汉寺街道, 黄陂区, 武汉市, 湖北省, China 中国;武汉市;关东街道;湖北省;430050;China 中国
长青街道 (Changking), 东西湖区, 武汉市, 湖北省, China 中国;武汉市;长青街道 (Changking);湖北省;430050;China 中国
小陈家湾, 黄陂区, 武汉市, 湖北省, China 中国;武汉市;关东街道;湖北省;430050;China 中国
蔡甸区, 武汉市, 湖北省, China 中国;武汉市;蔡甸区;湖北省;430050;China 中国
金口街, 江夏区, 武汉市, 湖北省, China 中国;武汉市;关东街道;湖北省;430050;China 中国
王家河街, 黄陂区, 武汉市, 湖北省, China 中国;武汉市;关东街道;湖北省;430050;China 中国
武昌职业学院, 四环线, 青菱街道, 江夏区, 武汉市, 湖北省, China 中国;武汉市;青菱街道;湖北省;430050;China 中国
军山街道, 武汉经济技术开发区（托管）, 汉南区, 武汉市, 湖北省, China 中国;武汉市;军山街道;湖北省;430050;China 中国
湖北中医药大学黄家湖校区, 黄家湖三街, 青菱街道, 洪山区, 武汉市, 湖北省, 460065, China 中国;武汉市;青菱街道;湖北省;460065;China 中国
乌龙泉街, 江夏区, 武汉市, 湖北省, China 中国;武汉市;关东街道;湖北省;430050;China 中国
涨渡湖街, 新洲区, 武汉市, 湖北省, 438800, China 中国;武汉市;关东街道;湖北省;438800;China 中国
木兰乡, 黄陂区, 武汉市, 湖北省, China 中国;武汉市;关东街道;湖北省;430050;China 中国
舒安街道, 江夏区, 武汉市, 湖北省, China 中国;武汉市;关东街道;湖北省;430050;China 中国
旧街街道, 新洲区, 武汉市, 湖北省, China 中国;武汉市;关东街道;湖北省;430050;China 中国
桐湖办事处, 蔡甸区, 武汉市, 湖北省, China 中国;武汉市;关东街道;湖北省;430050;China 中国
黄陂区, 武汉市, 湖北省, China 中国;武汉市;关东街道;湖北省;430050;China 中国
东湖生态旅游风景区（托管）, 武昌区, 武汉市, 湖北省, 430072, China 中国;武汉市;武昌区;湖北省;430072;China 中国
山坡街道, 江夏区, 武汉市, 湖北省, China 中国;武汉市;关东街道;湖北省;430050;China 中国
姚家集街道, 黄陂区, 武汉市, 湖北省, China 中国;武汉市;关东街道;湖北省;430050;China 中国
江夏区, 武汉市, 湖北省, China 中国;武汉市;江夏区;湖北省;430050;China 中国
新洲原种场, 新洲区, 武汉市, 湖北省, China 中国;武汉市;关东街道;湖北省;430050;China 中国
新洲区, 武汉市, 湖北省, China 中国;武汉市;新洲区;湖北省;430050;China 中国
凤凰镇, 新洲区, 武汉市, 湖北省, China 中国;武汉市;关东街道;湖北省;430050;China 中国
纸贺线, 乌龙泉街, 江夏区, 武汉市, 湖北省, China 中国;武汉市;关东街道;湖北省;430050;China 中国
走马岭街道, 东西湖区, 武汉市, 湖北省, China 中国;武汉市;关东街道;湖北省;430050;China 中国
蔡家榨街道, 黄陂区, 武汉市, 湖北省, China 中国;武汉市;关东街道;湖北省;430050;China 中国
新村街道, 江岸区, 武汉市, 湖北省, 430015, China 中国;武汉市;新村街道;湖北省;430015;China 中国
木兰山风景区, 黄陂区, 武汉市, 湖北省, China 中国;武汉市;关东街道;湖北省;430050;China 中国
天兴乡, 洪山区, 武汉市, 湖北省, 430080, China 中国;武汉市;关东街道;湖北省;430080;China 中国
王家河街, 黄陂区, 武汉市, 湖北省, China 中国;武汉市;关东街道;湖北省;430050;China 中国
汪集街, 新洲区, 武汉市, 湖北省, China 中国;武汉市;关东街道;湖北省;430050;China 中国
东山办事处, 东西湖区, 武汉市, 湖北省, China 中国;武汉市;关东街道;湖北省;430050;China 中国
消泗乡, 蔡甸区, 武汉市, 湖北省, China 中国;武汉市;关东街道;湖北省;430050;China 中国
黄陂区, 武汉市, 湖北省, China 中国;武汉市;关东街道;湖北省;430050;China 中国
S13, 汉南区, 武汉市, 湖北省, China 中国;武汉市;汉南区;湖北省;430050;China 中国
四新管委会, 汉阳区, 武汉市, 湖北省, 430050, China 中国;武汉市;四新管委会;湖北省;430050;China 中国
S310, 鲁台, 黄陂区, 武汉市, 湖北省, China 中国;武汉市;黄陂区;湖北省;430050;China 中国
蔡店街道, 黄陂区, 武汉市, 湖北省, China 中国;武汉市;关东街道;湖北省;430050;China 中国
S314, 湖泗街道, 江夏区, 黄石市, 湖北省, China 中国;武汉市;黄石市;湖北省;430050;China 中国
木兰乡, 黄陂区, 武汉市, 湖北省, China 中国;武汉市;关东街道;湖北省;430050;China 中国
庙岭镇, 鄂州市, 华容区, 湖北省, China 中国;武汉市;鄂州市;湖北省;430050;China 中国
大桥新区, 江夏区, 武汉市, 湖北省, China 中国;武汉市;关东街道;湖北省;430050;China 中国
法泗街, 江夏区, 武汉市, 湖北省, China 中国;武汉市;关东街道;湖北省;430050;China 中国
消泗乡, 蔡甸区, 武汉市, 湖北省, China 中国;武汉市;关东街道;湖北省;430050;China 中国
法泗街, 江夏区, 武汉市, 湖北省, China 中国;武汉市;关东街道;湖北省;430050;China 中国
八吉府街道, 武汉化学工业新区（托管）, 洪山区, 武汉市, 湖北省, China 中国;武汉市;八吉府街道;湖北省;430050;China 中国
双溪桥镇, 咸安区, 咸宁市, 湖北省, China 中国;武汉市;关东街道;湖北省;430050;China 中国
蔡店街道, 黄陂区, 武汉市, 湖北省, China 中国;武汉市;关东街道;湖北省;430050;China 中国
走马岭街道, 东西湖区, 武汉市, 湖北省, China 中国;武汉市;关东街道;湖北省;430050;China 中国
佛祖岭街道, 东湖新技术开发区（托管）, 江夏区, 武汉市, 湖北省, 430073, China 中国;武汉市;佛祖岭街道;湖北省;430073;China 中国
杨泗港长江大桥, 洲头街道, 汉阳区, 武汉市, 湖北省, 460065, China 中国;武汉市;洲头街道;湖北省;460065;China 中国
八吉府街道, 武汉化学工业新区（托管）, 洪山区, 武汉市, 湖北省, China 中国;武汉市;八吉府街道;湖北省;430050;China 中国
消泗乡, 蔡甸区, 武汉市, 湖北省, China 中国;武汉市;关东街道;湖北省;430050;China 中国
新洲区, 武汉市, 湖北省, China 中国;武汉市;关东街道;湖北省;430050;China 中国
四環線, 沌口街道, 武汉经济技术开发区（托管）, 汉阳区, 武汉市, 湖北省, 430056, China 中国;武汉市;沌口街道;湖北省;430056;China 中国
六指街道, 黄陂区, 武汉市, 湖北省, China 中国;武汉市;关东街道;湖北省;430050;China 中国
健康大道, 蔡甸区, 武汉市, 湖北省, 430101, China 中国;武汉市;蔡甸区;湖北省;430101;China 中国
八吉府街道, 武汉化学工业新区（托管）, 洪山区, 武汉市, 湖北省, China 中国;武汉市;八吉府街道;湖北省;430050;China 中国
李家集街道, 黄陂区, 武汉市, 湖北省, China 中国;武汉市;关东街道;湖北省;430050;China 中国
武汉绕城高速公路, 黄陂区, 武汉市, 湖北省, China 中国;武汉市;黄陂区;湖北省;430050;China 中国
大潭原种场, 黄陂区, 武汉市, 湖北省, China 中国;武汉市;关东街道;湖北省;430050;China 中国
团风县, 黄冈市, 湖北省, 438803, China 中国;武汉市;团风县;湖北省;438803;China 中国
黄陂区, 武汉市, 湖北省, China 中国;武汉市;黄陂区;湖北省;430050;China 中国
龙泉大道, 佛祖岭街道, 东湖新技术开发区（托管）, 江夏区, 武汉市, 湖北省, 430073, China 中国;武汉市;佛祖岭街道;湖北省;430073;China 中国
黄陂区, 武汉市, 湖北省, China 中国;武汉市;黄陂区;湖北省;430050;China 中国
东西湖区, 武汉市, 湖北省, China 中国;武汉市;东西湖区;湖北省;430050;China 中国
新洲原种场, 新洲区, 武汉市, 湖北省, China 中国;武汉市;关东街道;湖北省;430050;China 中国
新洲原种场, 新洲区, 武汉市, 湖北省, China 中国;武汉市;关东街道;湖北省;430050;China 中国
索河镇, 蔡甸区, 武汉市, 湖北省, China 中国;武汉市;关东街道;湖北省;430050;China 中国
法泗街, 江夏区, 武汉市, 湖北省, China 中国;武汉市;关东街道;湖北省;430050;China 中国
王家河街, 黄陂区, 武汉市, 湖北省, China 中国;武汉市;关东街道;湖北省;430050;China 中国
法泗街, 江夏区, 武汉市, 湖北省, China 中国;武汉市;关东街道;湖北省;430050;China 中国
东湖新技术开发区, 关东街道, 东湖新技术开发区（托管）, 江夏区, 武汉市, 湖北省, 430070, China 中国;武汉市;关东街道;湖北省;430070;China 中国
团风县, 黄冈市, 湖北省, China 中国;武汉市;关东街道;湖北省;430050;China 中国
径河街, 东西湖区, 武汉市, 湖北省, China 中国;武汉市;关东街道;湖北省;430050;China 中国
江家畈, 江夏区, 武汉市, 湖北省, China 中国;武汉市;关东街道;湖北省;430050;China 中国
汪集街, 新洲区, 武汉市, 湖北省, China 中国;武汉市;关东街道;湖北省;430050;China 中国
金水办事处, 江夏区, 武汉市, 湖北省, China 中国;武汉市;关东街道;湖北省;430050;China 中国
江夏区, 武汉市, 湖北省, 430073, China 中国;武汉市;关东街道;湖北省;430073;China 中国
姚家集街道, 黄陂区, 武汉市, 湖北省, China 中国;武汉市;关东街道;湖北省;430050;China 中国
蔡店街道, 黄陂区, 武汉市, 湖北省, China 中国;武汉市;关东街道;湖北省;430050;China 中国
黄陂区, 武汉市, 湖北省, China 中国;武汉市;关东街道;湖北省;430050;China 中国
后湖街道, 江岸区, 武汉市, 湖北省, 430015, China 中国;武汉市;后湖街道;湖北省;430015;China 中国
石桥小路, 塔子湖街道, 江岸区, 武汉市, 湖北省, 430015, China 中国;武汉市;塔子湖街道;湖北省;430015;China 中国
奓山街, 蔡甸区, 武汉市, 湖北省, China 中国;武汉市;关东街道;湖北省;430050;China 中国
S13, 军山街道, 武汉经济技术开发区（托管）, 蔡甸区, 武汉市, 湖北省, China 中国;武汉市;军山街道;湖北省;430050;China 中国
张湾街, 蔡甸区, 武汉市, 湖北省, China 中国;武汉市;关东街道;湖北省;430050;China 中国
舒安街道, 江夏区, 武汉市, 湖北省, China 中国;武汉市;关东街道;湖北省;430050;China 中国
武汉市后官湖绿道, 蔡甸区, 武汉市, 湖北省, 430101, China 中国;武汉市;蔡甸区;湖北省;430101;China 中国
金潭路, 兴业中路, 将军路街道, 东西湖区, 武汉市, 湖北省, 420112, China 中国;武汉市;将军路街道;湖北省;420112;China 中国
凤凰镇, 新洲区, 武汉市, 湖北省, China 中国;武汉市;关东街道;湖北省;430050;China 中国
东山办事处, 东西湖区, 武汉市, 湖北省, China 中国;武汉市;关东街道;湖北省;430050;China 中国
黄陂区, 武汉市, 湖北省, China 中国;武汉市;黄陂区;湖北省;430050;China 中国
徐古街道, 新洲区, 武汉市, 湖北省, China 中国;武汉市;关东街道;湖北省;430050;China 中国
天河街, 黄陂区, 武汉市, 湖北省, China 中国;武汉市;关东街道;湖北省;430050;China 中国
流芳街道, 东湖新技术开发区（托管）, 江夏区, 武汉市, 湖北省, China 中国;武汉市;流芳街道;湖北省;430050;China 中国
江夏区, 武汉市, 湖北省, China 中国;武汉市;关东街道;湖北省;430050;China 中国
栗庙路, 滨湖街道, 东湖新技术开发区（托管）, 江夏区, 武汉市, 湖北省, China 中国;武汉市;滨湖街道;湖北省;430050;China 中国
天鹅湖大道, 沌口街道, 武汉经济技术开发区（托管）, 蔡甸区, 武汉市, 湖北省, 430056, China 中国;武汉市;沌口街道;湖北省;430056;China 中国
徐古街道, 新洲区, 武汉市, 湖北省, China 中国;武汉市;关东街道;湖北省;430050;China 中国
谌家矶街道, 江岸区, 武汉市, 湖北省, China 中国;武汉市;谌家矶街道;湖北省;430050;China 中国
汉阳大道, 五里墩街道, 汉阳区, 武汉市, 湖北省, 430050, China 中国;武汉市;五里墩街道;湖北省;430050;China 中国
东荆街, 汉南区, 武汉市, 湖北省, China 中国;武汉市;关东街道;湖北省;430050;China 中国
江夏区, 武汉市, 湖北省, China 中国;武汉市;江夏区;湖北省;430050;China 中国
黄陂区, 武汉市, 湖北省, China 中国;武汉市;黄陂区;湖北省;430050;China 中国
五里界街, 江夏区, 武汉市, 湖北省, China 中国;武汉市;关东街道;湖北省;430050;China 中国
新洲区, 武汉市, 湖北省, China 中国;武汉市;新洲区;湖北省;430050;China 中国
旧街街道, 新洲区, 武汉市, 湖北省, China 中国;武汉市;关东街道;湖北省;430050;China 中国
G106, 凤凰镇, 新洲区, 武汉市, 湖北省, China 中国;武汉市;关东街道;湖北省;430050;China 中国
小陈家湾, 黄陂区, 武汉市, 湖北省, China 中国;武汉市;关东街道;湖北省;430050;China 中国
姚家集街道, 黄陂区, 武汉市, 湖北省, China 中国;武汉市;关东街道;湖北省;430050;China 中国
新洲区, 武汉市, 湖北省, China 中国;武汉市;新洲区;湖北省;430050;China 中国
柏泉办事处, 东西湖区, 武汉市, 湖北省, China 中国;武汉市;关东街道;湖北省;430050;China 中国
G42, 辛安渡办事处, 东西湖区, 武汉市, 湖北省, China 中国;武汉市;关东街道;湖北省;430050;China 中国
X033, 旧街街道, 新洲区, 武汉市, 湖北省, China 中国;武汉市;关东街道;湖北省;430050;China 中国
桐湖办事处, 蔡甸区, 武汉市, 湖北省, China 中国;武汉市;关东街道;湖北省;430050;China 中国
李家集街道, 黄陂区, 武汉市, 湖北省, China 中国;武汉市;关东街道;湖北省;430050;China 中国
姚家集街道, 黄陂区, 武汉市, 湖北省, China 中国;武汉市;关东街道;湖北省;430050;China 中国
凤凰镇, 新洲区, 武汉市, 湖北省, China 中国;武汉市;关东街道;湖北省;430050;China 中国
G318, 新洲区, 武汉市, 湖北省, China 中国;武汉市;新洲区;湖北省;430050;China 中国
三店街, 新洲区, 武汉市, 湖北省, China 中国;武汉市;关东街道;湖北省;430050;China 中国
木兰乡, 黄陂区, 武汉市, 湖北省, China 中国;武汉市;关东街道;湖北省;430050;China 中国
宝通寺地铁站, 珞喻路, 中南路街道, 武昌区, 武汉市, 湖北省, 430072, China 中国;武汉市;中南路街道;湖北省;430072;China 中国
旧街街道, 新洲区, 武汉市, 湖北省, China 中国;武汉市;关东街道;湖北省;430050;China 中国
李集街, 新洲区, 武汉市, 湖北省, China 中国;武汉市;关东街道;湖北省;430050;China 中国
新洲区, 武汉市, 湖北省, China 中国;武汉市;关东街道;湖北省;430050;China 中国
李家集街道, 黄陂区, 武汉市, 湖北省, China 中国;武汉市;关东街道;湖北省;430050;China 中国
新洲区, 武汉市, 湖北省, China 中国;武汉市;关东街道;湖北省;430050;China 中国
旧街街道, 新洲区, 武汉市, 湖北省, China 中国;武汉市;关东街道;湖北省;430050;China 中国
姚家集街道, 黄陂区, 武汉市, 湖北省, China 中国;武汉市;关东街道;湖北省;430050;China 中国
八吉府街道, 武汉化学工业新区（托管）, 洪山区, 武汉市, 湖北省, China 中国;武汉市;八吉府街道;湖北省;430050;China 中国
黄陂区, 武汉市, 湖北省, China 中国;武汉市;黄陂区;湖北省;430050;China 中国
双柳街, 新洲区, 武汉市, 湖北省, China 中国;武汉市;关东街道;湖北省;430050;China 中国
HuangTu Road, 姚家集街道, 黄陂区, 武汉市, 湖北省, China 中国;武汉市;关东街道;湖北省;430050;China 中国
蔡甸区, 武汉市, 湖北省, 430101, China 中国;武汉市;蔡甸区;湖北省;430101;China 中国
黄陂区, 武汉市, 湖北省, China 中国;武汉市;黄陂区;湖北省;430050;China 中国
金口街, 江夏区, 武汉市, 湖北省, China 中国;武汉市;关东街道;湖北省;430050;China 中国
六指街道, 黄陂区, 武汉市, 湖北省, China 中国;武汉市;关东街道;湖北省;430050;China 中国
新洲区, 武汉市, 湖北省, China 中国;武汉市;新洲区;湖北省;430050;China 中国
S310, 鲁台, 黄陂区, 武汉市, 湖北省, China 中国;武汉市;黄陂区;湖北省;430050;China 中国
蔡店街道, 黄陂区, 武汉市, 湖北省, China 中国;武汉市;关东街道;湖北省;430050;China 中国
双柳街, 新洲区, 武汉市, 湖北省, China 中国;武汉市;关东街道;湖北省;430050;China 中国
舒安街道, 江夏区, 武汉市, 湖北省, China 中国;武汉市;关东街道;湖北省;430050;China 中国
新洲区, 武汉市, 湖北省, China 中国;武汉市;新洲区;湖北省;430050;China 中国
银莲社区, 湘口街道, 汉南区, 武汉市, 湖北省, China 中国;武汉市;关东街道;湖北省;430050;China 中国
舒安街道, 江夏区, 武汉市, 湖北省, China 中国;武汉市;关东街道;湖北省;430050;China 中国
新洲区, 武汉市, 湖北省, China 中国;武汉市;关东街道;湖北省;430050;China 中国
安山街, 江夏区, 武汉市, 湖北省, China 中国;武汉市;关东街道;湖北省;430050;China 中国
山坡街道, 江夏区, 武汉市, 湖北省, China 中国;武汉市;关东街道;湖北省;430050;China 中国
硚孝高速, 东山办事处, 东西湖区, 武汉市, 湖北省, China 中国;武汉市;关东街道;湖北省;430050;China 中国
吴游山湾, 新洲区, 武汉市, 湖北省, China 中国;武汉市;关东街道;湖北省;430050;China 中国
王家河街, 黄陂区, 武汉市, 湖北省, China 中国;武汉市;关东街道;湖北省;430050;China 中国
黄陂区, 武汉市, 湖北省, China 中国;武汉市;黄陂区;湖北省;430050;China 中国
涨渡湖街, 新洲区, 武汉市, 湖北省, China 中国;武汉市;关东街道;湖北省;430050;China 中国
佛祖岭街道, 东湖新技术开发区（托管）, 江夏区, 武汉市, 湖北省, 430073, China 中国;武汉市;佛祖岭街道;湖北省;430073;China 中国
木兰乡, 黄陂区, 武汉市, 湖北省, China 中国;武汉市;关东街道;湖北省;430050;China 中国
武汉-深圳高速公路, 江夏区, 武汉市, 湖北省, China 中国;武汉市;江夏区;湖北省;430050;China 中国
旧街街道, 新洲区, 武汉市, 湖北省, China 中国;武汉市;关东街道;湖北省;430050;China 中国
武汉绕城高速公路, 佛祖岭街道, 东湖新技术开发区（托管）, 江夏区, 武汉市, 湖北省, China 中国;武汉市;佛祖岭街道;湖北省;430050;China 中国
江夏区, 武汉市, 湖北省, 430073, China 中国;武汉市;关东街道;湖北省;430073;China 中国
安山街, 江夏区, 武汉市, 湖北省, China 中国;武汉市;关东街道;湖北省;430050;China 中国
百曲公路, 侏儒街, 蔡甸区, 武汉市, 湖北省, China 中国;武汉市;关东街道;湖北省;430050;China 中国
五里界街, 江夏区, 武汉市, 湖北省, China 中国;武汉市;关东街道;湖北省;430050;China 中国
硃山湖大道, 沌口街道, 武汉经济技术开发区（托管）, 蔡甸区, 武汉市, 湖北省, China 中国;武汉市;沌口街道;湖北省;430050;China 中国
江夏区, 石洞街, 江夏区, 武汉市, 湖北省, China 中国;武汉市;关东街道;湖北省;430050;China 中国
祁家湾街道, 黄陂区, 武汉市, 湖北省, China 中国;武汉市;关东街道;湖北省;430050;China 中国
黄陂区, 武汉市, 湖北省, China 中国;武汉市;黄陂区;湖北省;430050;China 中国
黄陂区, 武汉市, 湖北省, China 中国;武汉市;关东街道;湖北省;430050;China 中国
双柳街, 新洲区, 武汉市, 湖北省, China 中国;武汉市;关东街道;湖北省;430050;China 中国
双柳街, 新洲区, 武汉市, 湖北省, China 中国;武汉市;关东街道;湖北省;430050;China 中国
新洲区, 武汉市, 湖北省, China 中国;武汉市;新洲区;湖北省;430050;China 中国
G318, 张家冲, 韩家院, 黄陂区, 武汉市, 湖北省, China 中国;武汉市;关东街道;湖北省;430050;China 中国
蔡店街道, 黄陂区, 武汉市, 湖北省, China 中国;武汉市;关东街道;湖北省;430050;China 中国
木兰乡, 黄陂区, 武汉市, 湖北省, China 中国;武汉市;关东街道;湖北省;430050;China 中国
安山街, 江夏区, 武汉市, 湖北省, China 中国;武汉市;关东街道;湖北省;430050;China 中国
前川街道, 黄陂区, 武汉市, 湖北省, China 中国;武汉市;关东街道;湖北省;430050;China 中国
湖泗街道, 江夏区, 武汉市, 湖北省, China 中国;武汉市;湖泗街道;湖北省;430050;China 中国
X008, 舒安街道, 江夏区, 武汉市, 湖北省, China 中国;武汉市;关东街道;湖北省;430050;China 中国
蔡家榨街道, 黄陂区, 武汉市, 湖北省, China 中国;武汉市;关东街道;湖北省;430050;China 中国
李家集街道, 黄陂区, 武汉市, 湖北省, China 中国;武汉市;关东街道;湖北省;430050;China 中国
三里桥街道, 黄陂区, 武汉市, 湖北省, China 中国;武汉市;关东街道;湖北省;430050;China 中国
玉贤镇, 蔡甸区, 武汉市, 湖北省, 430100, China 中国;武汉市;关东街道;湖北省;430100;China 中国
汉蔡高速, 索河镇, 蔡甸区, 武汉市, 湖北省, China 中国;武汉市;关东街道;湖北省;430050;China 中国
S101, 江夏区, 武汉市, 湖北省, China 中国;武汉市;江夏区;湖北省;430050;China 中国
江夏区, 武汉市, 湖北省, China 中国;武汉市;江夏区;湖北省;430050;China 中国
蔡店街道, 黄陂区, 武汉市, 湖北省, China 中国;武汉市;关东街道;湖北省;430050;China 中国
六指街道, 黄陂区, 武汉市, 湖北省, China 中国;武汉市;关东街道;湖北省;430050;China 中国
新洲区, 武汉市, 湖北省, China 中国;武汉市;新洲区;湖北省;430050;China 中国
汪集街, 新洲区, 武汉市, 湖北省, China 中国;武汉市;关东街道;湖北省;430050;China 中国
S109, 新洲区, 武汉市, 湖北省, China 中国;武汉市;新洲区;湖北省;430050;China 中国
东西湖区, 武汉市, 湖北省, China 中国;武汉市;东西湖区;湖北省;430050;China 中国
徐古街道, 新洲区, 武汉市, 湖北省, China 中国;武汉市;关东街道;湖北省;430050;China 中国
时代新世界, 汉西路, 宗关街道, 硚口区, 武汉市, 湖北省, 430034, China 中国;武汉市;宗关街道;湖北省;430034;China 中国
蔡店街道, 黄陂区, 武汉市, 湖北省, China 中国;武汉市;关东街道;湖北省;430050;China 中国
沙湖大道, 水果湖街道, 武昌区, 武汉市, 湖北省, 430000, China 中国;武汉市;水果湖街道;湖北省;430000;China 中国
武汉城市职业学院南校区, 新发路, 洪山街道, 洪山区, 武汉市, 湖北省, 430068, China 中国;武汉市;洪山街道;湖北省;430068;China 中国
蔡店街道, 黄陂区, 武汉市, 湖北省, China 中国;武汉市;关东街道;湖北省;430050;China 中国
汉南区, 武汉市, 湖北省, China 中国;武汉市;汉南区;湖北省;430050;China 中国
X208, 新洲区, 黄冈市, 湖北省, China 中国;武汉市;关东街道;湖北省;430050;China 中国
蔡甸区, 武汉市, 湖北省, 430101, China 中国;武汉市;蔡甸区;湖北省;430101;China 中国
枫树五路, 沌口街道, 武汉经济技术开发区（托管）, 蔡甸区, 武汉市, 湖北省, China 中国;武汉市;沌口街道;湖北省;430050;China 中国
黄陂区, 武汉市, 湖北省, China 中国;武汉市;关东街道;湖北省;430050;China 中国
木兰山风景区, 黄陂区, 武汉市, 湖北省, China 中国;武汉市;关东街道;湖北省;430050;China 中国
金水办事处, 江夏区, 武汉市, 湖北省, China 中国;武汉市;关东街道;湖北省;430050;China 中国
左岭正街, 左岭街道, 东湖新技术开发区（托管）, 洪山区, 武汉市, 湖北省, China 中国;武汉市;左岭街道;湖北省;430050;China 中国
安山街, 江夏区, 武汉市, 湖北省, China 中国;武汉市;关东街道;湖北省;430050;China 中国
邾城街, 新洲区, 武汉市, 湖北省, China 中国;武汉市;关东街道;湖北省;430050;China 中国
金口街, 江夏区, 武汉市, 湖北省, China 中国;武汉市;关东街道;湖北省;430050;China 中国
侏儒街, 蔡甸区, 武汉市, 湖北省, China 中国;武汉市;关东街道;湖北省;430050;China 中国
安山街, 江夏区, 武汉市, 湖北省, China 中国;武汉市;关东街道;湖北省;430050;China 中国
左岭街道, 东湖新技术开发区（托管）, 洪山区, 武汉市, 湖北省, China 中国;武汉市;左岭街道;湖北省;430050;China 中国
S122, 湖泗街道, 咸安区, 咸宁市, 湖北省, China 中国;武汉市;关东街道;湖北省;430050;China 中国
洪北管委会, 蔡甸区, 武汉市, 湖北省, China 中国;武汉市;关东街道;湖北省;430050;China 中国
新洲区, 武汉市, 湖北省, China 中国;武汉市;新洲区;湖北省;430050;China 中国
S104, 玉贤镇, 蔡甸区, 武汉市, 湖北省, 430100, China 中国;武汉市;关东街道;湖北省;430100;China 中国
侏儒街, 蔡甸区, 武汉市, 湖北省, China 中国;武汉市;关东街道;湖北省;430050;China 中国
安山街, 江夏区, 武汉市, 湖北省, China 中国;武汉市;关东街道;湖北省;430050;China 中国
黄陂区, 武汉市, 湖北省, China 中国;武汉市;黄陂区;湖北省;430050;China 中国
x009, 法泗街, 江夏区, 武汉市, 湖北省, China 中国;武汉市;关东街道;湖北省;430050;China 中国
法泗街, 江夏区, 武汉市, 湖北省, China 中国;武汉市;关东街道;湖北省;430050;China 中国
黄陂区, 武汉市, 湖北省, China 中国;武汉市;关东街道;湖北省;430050;China 中国
山坡街道, 江夏区, 武汉市, 湖北省, China 中国;武汉市;关东街道;湖北省;430050;China 中国
蔡家榨街道, 黄陂区, 武汉市, 湖北省, China 中国;武汉市;关东街道;湖北省;430050;China 中国
侏儒街, 蔡甸区, 武汉市, 湖北省, China 中国;武汉市;关东街道;湖北省;430050;China 中国
冯老塆, 黄陂区, 武汉市, 湖北省, China 中国;武汉市;黄陂区;湖北省;430050;China 中国
黄陂区, 武汉市, 湖北省, China 中国;武汉市;黄陂区;湖北省;430050;China 中国
江夏区, 武汉市, 湖北省, 430073, China 中国;武汉市;关东街道;湖北省;430073;China 中国
新洲区, 武汉市, 湖北省, China 中国;武汉市;新洲区;湖北省;430050;China 中国
新洲原种场, 新洲区, 武汉市, 湖北省, China 中国;武汉市;关东街道;湖北省;430050;China 中国
Building 1, 神龙大道, 沌口街道, 武汉经济技术开发区（托管）, 蔡甸区, 武汉市, 湖北省, 430056, China 中国;武汉市;沌口街道;湖北省;430056;China 中国